2019/04/01 21:00
EIDW 012100Z 22005KT 190V260 9999 -SHRA FEW016CB SCT040 BKN050 06/04 Q1011 TEMPO 5000 SHRA
