2019/05/01 18:30
EIDW 011830Z 27013KT 9999 FEW030 BKN060 BKN200 12/06 Q1017 NOSIG
