2019/06/01 11:30
EIDW 011130Z 11005KT 080V140 7000 -RADZ FEW005 SCT012 BKN020 15/12 Q1017 NOSIG
