2019/04/02 10:00
EIDW 021000Z 27015KT 9999 FEW014 SCT022 05/02 Q1004 NOSIG
