2019/05/02 12:00
EIDW 031200Z 33012KT 3500 -RA SCT014 BKN030 11/06 Q1017 NOSIG
