2019/06/03 16:00
EIDW 031600Z 23010KT 170V270 9999 -SHRA FEW018CB BKN040 12/09 Q1007 NOSIG
