2019/04/03 09:00
EIDW 030900Z 31017KT 280V340 9999 FEW010 BKN020 05/01 Q1003 NOSIG
