2019/05/03 12:00
EIDW 031200Z 33012KT 9999 SCT024 SCT040 10/05 Q1017 NOSIG
