2019/05/04 15:00
EIDW 041500Z 03009KT 300V050 9999 FEW026 11/00 Q1027 NOSIG
