2019/04/04 08:00
EIDW 040800Z 06014KT 9999 FEW018CB SCT020 05/01 Q0991 NOSIG
