2019/06/04 07:30
EIDW 040730Z 08006KT 060V120 9999 -RA FEW004 SCT010 BKN018 10/10 Q1004 NOSIG
