2019/05/05 10:00
EIDW 051000Z 35009KT 9999 FEW020 BKN040 08/00 Q1028 NOSIG
