2019/06/05 10:30
EIDW 051030Z 27017KT 9999 -DZ FEW008 BKN009 BKN012 10/09 Q1002 NOSIG
