2019/04/05 09:30
EIDW 050930Z 07007KT 030V100 9999 -RA SCT012 BKN025 BKN035 06/04 Q0997 NOSIG
