2019/04/06 10:00
EIDW 061000Z 09011KT 7000 FEW011 BKN070 08/05 Q1007 BECMG 9999
