2019/06/06 12:00
EIDW 061200Z 23009KT 170V280 9999 FEW023 BKN038 12/06 Q1006 NOSIG
