2019/05/07 07:30
EIDW 070730Z VRB03KT 9999 FEW020 BKN050 08/05 Q1014 NOSIG
