2019/04/07 13:30
EIDW 071330Z 08016KT 9999 FEW013 SCT015 BKN018 10/06 Q1010 NOSIG
