2019/11/07 15:30
EIDW 071530Z 03013KT 320V050 4000 RA FEW011 BKN016 BKN030 07/06 Q0996
