2019/04/08 12:00
EIDW 081200Z 07011KT 050V110 3500 -RA BKN005 BKN007 08/07 Q1011 NOSIG
