2019/06/08 13:00
EIDW 081300Z 28014KT 9999 FEW023 BKN060 14/07 Q1012 NOSIG
