2019/05/09 08:00
EIDW 090800Z 32009KT 9999 -RA SCT007 BKN011 BKN017 07/06 Q0999 NOSIG
