2019/04/09 08:00
EIDW 090800Z 08013KT 9999 FEW007 BKN010 BKN022 08/05 Q1016 NOSIG
