2019/06/09 12:30
EIDW 091230Z 17005KT 100V290 9999 -SHRA SCT025CB SCT040 16/05 Q1017 NOSIG
