2019/05/10 09:30
EIDW 100930Z 30007KT 250V330 9999 SCT018 BKN040 10/06 Q1007 NOSIG
