2019/04/10 08:30
EIDW 100830Z 09012KT 9999 FEW014 SCT200 07/02 Q1022
