2019/06/10 13:00
EIDW 101300Z 07010KT 040V100 9999 BKN022 14/10 Q1019 NOSIG
