2019/04/11 07:00
EIDW 110700Z VRB02KT 7000 BKN050 02/02 Q1024 NOSIG
