2019/04/12 07:00
EIDW 120700Z 14004KT 7000 FEW010 SCT040 05/04 Q1025 NOSIG
