2019/05/12 10:00
EIDW 121000Z 14009KT 100V160 9999 FEW040 BKN100 12/08 Q1035 NOSIG
