2019/04/13 12:00
EIDW 131200Z 14019G29KT 100V160 9999 FEW024 BKN230 08/01 Q1024 NOSIG
