2019/05/13 10:30
EIDW 131030Z 18010KT 150V220 CAVOK 17/05 Q1037 NOSIG
