2019/06/13 12:30
EIDW 131230Z 32012KT 9999 FEW010 BKN013 BKN019 10/08 Q1006 NOSIG
