2019/05/14 10:00
EIDW 141000Z 13010KT 100V170 CAVOK 15/04 Q1032 NOSIG
