2019/04/14 09:30
EIDW 140930Z 13016G29KT 9999 FEW028 BKN070 05/M01 Q1022 NOSIG
