2019/05/15 15:30
EIDW 151530Z 13009KT 080V170 CAVOK 17/07 Q1023 NOSIG
