2019/06/15 16:00
EIDW 151600Z 23006KT 170V270 9999 FEW024 BKN080 14/05 Q1008 NOSIG
