2019/04/15 09:00
EIDW 150900Z 12021G35KT 9999 -DZ FEW015 BKN070 06/03 Q1013 TEMPO BKN012
