2019/04/16 17:00
EIDW 161700Z 12008KT 8000 FEW006 SCT012 BKN050 09/07 Q1016 NOSIG
