2019/06/16 10:30
EIDW 161030Z 14005KT 070V200 9999 VCSH FEW022 SCT045 BKN060 14/07 Q1009 NOSIG
