2019/04/17 09:00
EIDW 170900Z 13008KT 100V160 9999 FEW011 SCT014 10/07 Q1019 NOSIG
