2019/05/17 12:30
EIDW 171230Z 06008KT 020V130 9999 -RA FEW006 BKN009 BKN014 10/08 Q1014 NOSIG
