2019/05/18 11:30
EIDW 181130Z 29012KT 9999 FEW015 BKN050 11/07 Q1008 NOSIG
