2019/04/18 09:00
EIDW 170900Z 27005KT 100V160 9999 -RA FEW011 SCT014 10/07 Q1019 NOSIG
