2019/04/19 09:00
EIDW 190900Z 11007KT 7000 FEW015 BKN130 14/08 Q1028 NOSIG
