2019/04/20 19:30
EIDW 201930Z VRB02KT CAVOK 13/08 Q1027 NOSIG
