2019/04/21 08:00
EIDW 210800Z 28007KT CAVOK 13/08 Q1020 NOSIG
