2019/04/22 09:30
EIDW 220930Z 12011KT CAVOK 13/08 Q1003 NOSIG
