2019/06/22 18:00
EIDW 221800Z 10010KT 9999 FEW026 BKN200 15/07 Q1018 NOSIG
