2019/09/22 18:00
EIDW 221800Z VRB03KT 9999 SCT008 BKN018 BKN040 16/14 Q0998 NOSIG
