2019/04/23 09:30
EIDW 220930Z 12011KT 9800 BKN020 BKN050 13/10 Q0999 NOSIG
