2019/04/24 12:30
EIDW 241230Z 12008KT 9000 FEW012 BKN020 BKN090 14/10 Q0988 NOSIG
