2019/03/24 20:30
EIDW 242030Z 28015KT 9999 FEW017 BKN042 08/02 Q1031 NOSIG
