2019/04/25 07:00
EIDW 250700Z 06007KT 020V100 9999 FEW010 BKN022 BKN120 09/08 Q0992 NOSIG
