2019/03/25 18:00
EIDW 251800Z 30007KT 9999 FEW022 BKN040 10/05 Q1035 NOSIG
