2019/04/26 12:00
EIDW 261200Z 25012KT 200V280 9999 FEW018 SCT023 BKN130 10/06 Q1001 NOSIG
