2019/05/27 06:30
EIDW 270630Z 26013KT 9999 FEW012 SCT018 BKN045 10/08 Q1010 NOSIG
