2019/04/27 15:30
EIDW 271530Z 28026KT 9999 FEW020 BKN120 10/01 Q1012 NOSIG
