2019/03/27 11:00
EIDW 271100Z 28008KT 240V310 9999 BKN028 10/04 Q1036 NOSIG
