2019/05/28 07:30
EIDW 280730Z 33009KT 290V350 9999 SCT018 BKN040 09/06 Q1014 NOSIG
