2019/04/28 08:30
EIDW 280830Z VRB03KT 9999 FEW020 BKN060 08/05 Q1021 NOSIG
