2019/03/28 16:30
EIDW 281630Z 23008KT 180V260 CAVOK 16/02 Q1031 NOSIG
