2019/03/29 12:00
EIDW 291200Z 21006G17KT 140V310 9999 FEW023 11/06 Q1027 NOSIG
