2019/03/30 16:00
EIDW 301600Z 04011KT 340V070 9999 -DZ SCT010 BKN014 BKN025 08/06 Q1023 BECMG BKN017
