2019/04/30 07:30
EIDW 300730Z 15011KT 9999 FEW007 SCT018 BKN060 10/09 Q1021 NOSIG
