2019/03/31 11:00
EIDW 311100Z 08012KT 9999 BKN013 BKN016 09/06 Q1027 BECMG SCT011
