2019/05/31 13:30
EIDW 311330Z 22015KT 160V250 9999 FEW017 BKN022 16/11 Q1016 NOSIG
