2019/06/01 11:53
KLAX 011153Z 16003KT 10SM OVC016 16/12 A2985 RMK AO2 SLP107 T01610122 10161 20156 56007
