2019/04/01 20:53
KLAX 012053Z 26012KT 10SM FEW120 SCT160 BKN220 24/09 A2993 RMK AO2 SLP133 T02390089 56010
