2019/05/01 18:53
KLAX 011853Z 26011KT 10SM FEW019 SCT040 BKN160 18/09 A3002 RMK AO2 SLP166 T01830094
