2019/04/02 09:53
KLAX 020953Z 00000KT 3SM BCFG BR FEW000 FEW007 SCT200 16/13 A2991 RMK AO2 SLP125 VIS W-NW 2 FG FEW000 FG BANK SW-N T01560133
