2019/05/02 16:10
KLAX 011853Z 16018KT 8SM SCT040 BKN160 17/09 A3002 RMK AO2 SLP166 T01830094
