2019/06/03 15:53
KLAX 031553Z 26006KT 8SM FEW010 OVC020 17/12 A2993 RMK AO2 SLP133 T01670122
