2019/04/03 13:22
KLAX 031322Z 27003KT 10SM FEW012 SCT020 BKN036 14/11 A3001 RMK AO2 T01390106
