2019/05/03 12:10
KLAX 011853Z 12004KT 7SM BKN120 17/11 A3002 RMK AO2 SLP166 T01830094
