2019/11/03 21:53
KLAX 032153Z 24009KT 8SM FEW150 22/09 A2993 RMK AO2 SLP135 ACC N T02220089
