2019/05/04 16:53
KLAX 041653Z 00000KT 6SM HZ OVC020 17/13 A2993 RMK AO2 SLP135 T01720128
