2019/06/04 15:53
KLAX 041553Z 00000KT 5SM HZ FEW009 OVC013 17/13 A2994 RMK AO2 SLP138 T01720133
