2019/04/04 07:53
KLAX 040753Z 19004KT 10SM FEW015 FEW150 BKN200 14/11 A3007 RMK AO2 SLP181 T01440106 401940139
