2019/04/05 09:53
KLAX 050953Z 33003KT 10SM SCT060 BKN080 14/09 A3001 RMK AO2 SLP159 T01440094
