2019/05/05 09:53
KLAX 050953Z 25003KT 10SM OVC019 15/11 A2987 RMK AO2 SLP113 T01500111
