2019/06/05 14:53
KLAX 051453Z 17004KT 3SM HZ SCT007 OVC009 17/14 A2993 RMK AO2 SLP135 T01720144 53008 $
