2019/04/06 09:53
KLAX 060953Z 28008KT 10SM SCT013 OVC022 14/12 A3004 RMK AO2 SLP172 T01440117
