2019/06/06 12:53
KLAX 061253Z 00000KT 3SM -DZ BR FEW002 OVC005 16/15 A2992 RMK AO2 DZE20B53 SLP131 VIS N-NE 2 VIS W-NW 1 1/2 CIG 004V006 P0000 T01560150 $
