2019/04/07 13:53
KLAX 071353Z 00000KT 10SM FEW004 FEW007 SCT180 BKN220 BKN300 14/12 A3015 RMK AO2 SLP209 FU FEW004 T01440122
