2019/05/07 11:55
KLAX 071155Z 29007KT 10SM FEW014 SCT020 BKN029 BKN160 15/11 A3001 RMK AO2 T01500111
