2019/11/07 14:53
KLAX 071453Z VRB04KT 2 1/2SM BR FEW008 OVC011 17/15 A3008 RMK AO2 SLP185 VIS W 1 3/4 T01670150 51018 $
