2019/04/08 11:53
KLAX 081153Z VRB05KT 10SM FEW012 FEW220 BKN280 16/13 A3005 RMK AO2 SLP174 T01610128 10178 20144 55006
