2019/06/08 13:29
KLAX 081329Z 15005KT 10SM FEW011 OVC015 17/14 A2990 RMK AO2 T01720139
