2019/06/09 12:53
KLAX 091253Z 11006KT 7SM OVC010 17/14 A2997 RMK AO2 SLP146 T01720144 $
