2019/04/09 07:53
KLAX 090753Z 10004KT 10SM FEW250 17/13 A3000 RMK AO2 SLP155 T01720133 402610144
