2019/05/10 09:53
KLAX 100953Z 33003KT 10SM FEW014 FEW020 BKN034 16/11 A2979 RMK AO2 SLP085 T01610106
