2019/04/10 09:53
KLAX 100953Z 32013G20KT 10SM FEW150 17/01 A3007 RMK AO2 PK WND 33026/0901 SLP179 T01670006 $
