2019/05/11 17:53
KLAX 111753Z 25006KT 10SM SCT040 BKN110 21/11 A2995 RMK AO2 SLP140 T02110106 10211 20150 53003
