2019/04/11 07:53
KLAX 110753Z 33010G21KT 10SM CLR 19/M03 A3004 RMK AO2 SLP172 T01941033 402330161 $
