2019/05/12 10:53
KLAX 121053Z 00000KT 10SM FEW010 16/14 A2991 RMK AO2 SLP126 T01610139
