2019/04/12 06:53
KLAX 120653Z 31009KT 10SM FEW007 FEW080 SCT140 15/10 A2980 RMK AO2 SLP089 T01500100 $
