2019/04/13 15:53
KLAX 131553Z 13006KT 10SM CLR 18/10 A2998 RMK AO2 SLP150 T01830100
