2019/06/13 13:06
KLAX 131306Z 27004KT 5SM BR OVC010 16/14 A2993 RMK AO2 T01610139 $
