2019/05/13 13:53
KLAX 131353Z 15006KT 8SM FEW010 OVC015 17/13 A3001 RMK AO2 SLP160 T01720133 $
