2019/04/14 19:53
KLAX 141953Z 27010KT 10SM BCFG FEW000 SCT220 BKN300 17/11 A2997 RMK AO2 SLP149 VIS SW-W 1 1/4 FG FEW000 T01720111
