2019/04/15 13:53
KLAX 151353Z 25006KT 5SM BR FEW003 OVC006 11/09 A2988 RMK AO2 SLP115 T01110094 $
