2019/05/15 15:53
KLAX 151553Z 00000KT 7SM FEW010 OVC013 17/13 A2996 RMK AO2 SLP144 T01670133
