2019/06/15 18:53
KLAX 151853Z 19004KT 10SM OVC023 20/14 A2996 RMK AO2 SLP142 T02000139
