2019/06/16 12:53
KLAX 161253Z VRB04KT 10SM OVC015 18/14 A2988 RMK AO2 SLP115 T01780139
