2019/04/16 16:53
KLAX 161653Z 26008KT 7SM SCT021 BKN035 OVC044 16/09 A3001 RMK AO2 SLP160 T01560094 $
