2019/04/17 14:53
KLAX 171453Z 11006KT 8SM FEW012 FEW022 SCT180 15/11 A3014 RMK AO2 SLP206 T01500106 53014 $
