2019/05/17 12:53
KLAX 171253Z 36003KT 10SM FEW018 FEW080 SCT120 13/09 A2998 RMK AO2 SLP150 T01330094 $
