2019/05/18 11:53
KLAX 181153Z 10003KT 10SM FEW011 FEW250 13/10 A2994 RMK AO2 SLP137 T01280100 10150 20122 55007
