2019/04/19 10:44
KLAX 191044Z 00000KT 3SM BR VV004 14/12 A2999 RMK AO2 VIS SW-NW 2 CIG 002V006 T01390122
