2019/05/19 14:53
KLAX 191453Z 10006KT 10SM FEW020 SCT026 BKN034 OVC130 12/10 A2988 RMK AO2 RAE44 SLP116 P0001 60016 T01220100 52003
