2019/04/20 19:53
KLAX 201953Z 22007KT 10SM SCT020 BKN026 OVC035 16/11 A3002 RMK AO2 SLP163 T01560106
