2019/04/21 07:53
KLAX 210753Z 25009KT 10SM SCT015 BKN042 14/11 A3001 RMK AO2 SLP160 T01440111 401780139
