2019/09/22 17:53
KLAX 221753Z 09004KT 10SM BKN220 BKN300 27/12 A2990 RMK AO2 SLP124 T02670122 10267 20200 50012
