2019/06/22 19:53
KLAX 221953Z 28012KT 10SM FEW017 FEW026 SCT036 22/14 A2998 RMK AO2 SLP150 T02170144
