2019/04/22 09:53
KLAX 220953Z 25004KT 10SM FEW009 FEW012 SCT065 13/11 A2999 RMK AO2 SLP152 T01330106
