2019/04/23 09:53
KLAX 220953Z 15004KT 6SM FEW007 FEW010 BKN012 14/12 A2999 RMK AO2 SLP152 T01330106
