2019/03/24 19:53
KLAX 241953Z 24010KT 10SM FEW033 19/11 A3018 RMK AO2 SLP220 T01890106
