2019/04/24 12:53
KLAX 241253Z 08004KT 3SM BR FEW004 BKN006 15/13 A2997 RMK AO2 SLP148 T01500133
