2019/04/25 11:53
KLAX 251153Z 12004KT 2 1/2SM BR VV004 14/12 A2997 RMK AO2 SLP146 T01440122 10150 20139
