2019/03/25 18:53
KLAX 251853Z 25007KT 10SM CLR 19/11 A3012 RMK AO2 SLP199 T01940106
