2019/04/26 20:53
KLAX 262053Z 24010KT 7SM BKN013 18/12 A3000 RMK AO2 SLP158 T01780122 58001
