2019/03/26 09:53
KLAX 260953Z 17004KT 10SM FEW012 FEW220 13/11 A3003 RMK AO2 SLP167 T01280111
