2019/03/27 10:53
KLAX 271053Z 09006KT 10SM FEW008 FEW010 BKN200 BKN250 13/11 A3000 RMK AO2 SLP158 T01280106
