2019/04/27 15:53
KLAX 271553Z 11003KT 8SM OVC014 16/11 A3001 RMK AO2 SLP161 T01560111
