2019/05/27 14:53
KLAX 271453Z 05007KT 10SM FEW010 FEW020 SCT095 14/08 A3003 RMK AO2 SLP166 T01390083 53022
