2019/05/28 11:53
KLAX 281153Z 08003KT 10SM FEW010 FEW200 12/09 A2994 RMK AO2 SLP137 T01220089 10150 20117 56009
