2019/04/28 08:53
KLAX 280853Z 28004KT 10SM BKN014 OVC020 15/12 A2993 RMK AO2 SLP133 T01500117 58004
