2019/03/28 17:53
KLAX 281753Z 25009KT 10SM SCT024 BKN300 18/12 A3022 RMK AO2 SLP233 T01780122 10183 20128 53013 $
