2019/03/29 11:53
KLAX 291153Z 05005KT 10SM FEW012 12/09 A3015 RMK AO2 SLP208 T01170089 10150 20111 56012 $
