2019/04/30 08:07
KLAX 300807Z 24008KT 10SM FEW012 BKN019 BKN032 15/12 A2992 RMK AO2 T01500122
