2019/03/30 15:53
KLAX 301553Z 00000KT 10SM FEW250 18/04 A3007 RMK AO2 SLP181 T01780044
