2019/05/31 13:53
KLAX 311353Z 00000KT 5SM BR FEW002 FEW006 OVC011 16/13 A2990 RMK AO2 SLP126 T01560128
