2019/03/31 11:53
KLAX 311153Z 00000KT 10SM CLR 16/03 A2999 RMK AO2 SLP153 T01560033 10189 20133 55006
