2019/04/01 20:25
EBDT 012025Z AUTO 06004KT 9999 FEW090/// 11/02 Q1015 BLU
