2019/05/01 18:25
EBDT 011825Z AUTO 33006KT //// NCD 12/06 Q1015
