2019/06/01 11:25
EBDT 011125Z AUTO 21005KT 9999 FEW040/// 25/12 Q1022 BLU
