2019/06/02 10:55
EBDT 021055Z AUTO 19013KT 9999 NCD 30/11 Q1013 BLU
