2019/05/02 14:55
EBDT 021455Z AUTO 30006KT //// FEW009/// BKN046/// 11/10 Q1011 BLU
