2019/04/02 07:25
EBDT 020725Z 15006KT 9999 SCT160 BKN250 09/05 Q1007 BLU BLU
