2019/05/03 11:55
EBDT 031155Z AUTO 32005KT //// SCT032/// BKN038/// OVC043/// 11/03 Q1014 BLU
