2019/06/03 16:25
EBDT 031625Z 24008KT 9999 FEW028 SCT045 BKN080 20/12 Q1014 BLU BLU
