2019/04/03 07:25
EBDT 030725Z 17007KT 9999 FEW022 BKN050 06/03 Q1002 BLU BLU TEMPO WHT
