2019/11/03 22:25
EBDT 032225Z AUTO 19005KT 6000 FEW018/// BKN050/// 10/09 Q0987 WHT
