2019/04/04 07:25
EBDT 040725Z VRB02KT 9999 FEW120 BKN170 04/03 Q0999 BLU BLU
