2019/05/04 13:25
EBDT 041325Z AUTO 33014KT //// FEW032/// SCT055/// BKN170/// 10/01 Q1012 BLU
