2019/04/05 09:55
EBDT 050955Z 07005KT 9999 FEW035 11/03 Q1006 BLU BLU
