2019/05/05 14:55
EBDT 051455Z AUTO 34009KT //// SCT045/// OVC060/// 10/00 Q1022 BLU
