2019/06/05 13:55
EBDT 051355Z 34006KT 9999 FEW017 BKN055 18/13 Q1008 BLU BLU TEMPO WHT
