2019/04/06 09:55
EBDT 060955Z AUTO 06004KT 9999 FEW021/// BKN210/// 12/06 Q1004 BLU
