2019/06/06 12:55
EBDT 061255Z 25003KT 9999 FEW045 SCT050 BKN180 17/05 Q1014 BLU BLU
