2019/11/06 13:34
EBDT 061334Z VRB01KT 9999 FEW015 SCT033 BKN100 10/07 Q1003 BLU BLU TEMPO WHT
