2019/04/07 13:55
EBDT 071355Z AUTO 07007KT 9999 FEW060/// 20/06 Q1005 BLU
