2019/05/07 10:25
EBDT 071025Z 20006KT 9999 FEW037 11/00 Q1018 BLU BLU
