2019/11/07 15:25
EBDT 071525Z AUTO 20009KT 9999 FEW023/// BKN160/// 09/06 Q0997 BLU
