2019/06/08 13:25
EBDT 081325Z AUTO 21012G23KT 9999 FEW048/// SCT080/// BKN130/// 18/07 Q1018 BLU
