2019/04/08 11:55
EBDT 081155Z VRB01KT 2000 BR BKN007 OVC009 13/09 Q1011 YLO YLO BECMG GRN
