2019/06/09 12:55
EBDT 091255Z AUTO 19003KT 9999 SCT130/// BKN150/// 20/07 Q1021 BLU
