2019/05/09 08:25
EBDT 090825Z 16006KT 9999 GRN FEW020 SCT023 BKN050 12/07 Q0996
