2019/04/09 07:35
EBDT 090735Z 04005KT 4000 FEW015 BKN060 BKN080 08/07 Q1011 GRN GRN TEMPO YLO
