2019/08/09 10:25
EBDT 091025Z AUTO 22003KT 9999 -RA SCT044/// OVC050/// 21/19 Q1007 BLU
