2019/06/10 12:55
EBDT 101255Z AUTO 14004KT 9999 FEW030/// SCT070/// BKN095/// 22/12 Q1010 BLU
