2019/04/10 07:55
EBDT 100755Z 04008KT 9999 SCT220 06/01 Q1015 BLU BLU
