2019/05/11 17:25
EBDT 111725Z AUTO 36014KT 9999 FEW047/// 14/03 Q1021 BLU
