2019/04/12 07:25
EBDT 120725Z 07008KT 9999 BKN060 06/M06 Q1025 BLU BLU
