2019/05/12 10:55
EBDT 121055Z AUTO 01008KT 9999 SCT050/// 13/01 Q1034 BLU
