2019/04/13 12:25
EBDT 131225Z AUTO 01011KT 9999 SCT050/// BKN065/// 06/M05 Q1024 BLU
