2019/05/13 11:55
EBDT 131155Z 04010KT 9999 FEW260 14/M04 Q1039 BLU BLU
