2019/04/14 09:25
EBDT 140925Z AUTO 05005KT 6000 SCT012/// BKN015/// 04/01 Q1025 GRN
