2019/04/15 08:25
EBDT 150825Z AUTO 11010KT 9999 SCT021/// 08/02 Q1025 WHT
