2019/06/15 16:25
EBDT 151625Z AUTO 33004KT 9999 FEW040/// 21/13 Q1015 BLU
