2019/05/15 15:25
EBDT 151525Z AUTO 06009KT 9999 NCD 16/M04 Q1024 BLU
