2019/05/17 12:25
EBDT 171225Z AUTO 06005KT 9999 FEW016/// BKN021/// BKN033/// 12/07 Q1007 WHT
