2019/04/17 08:55
EBDT 170855Z 17003KT 7000 FEW015 SCT038 BKN085 13/09 Q1021 WHT BLU TEMPO GRN
