2019/05/18 11:55
EBDT 181155Z AUTO VRB02KT 9000 NCD 19/10 Q1006 BLU
