2019/05/19 14:43
EBDT 191443Z AUTO VRB02KT 3300 RA SCT029/// BKN045/// BKN055/// 18/14 Q1006 YLO
