2019/04/19 09:25
EBDT 190925Z AUTO 04006KT 9999 NCD 20/06 Q1027 BLU
