2019/04/20 19:55
EBDT 201955Z AUTO 03005KT 9999 NCD 17/01 Q1025 BLU
