2019/06/22 17:55
EBDT 221755Z AUTO 05006KT 9999 NCD 23/10 Q1018 BLU
