2019/09/22 17:55
EBDT 221755Z AUTO 24006KT 5000 -RA FEW013/// SCT031/// BKN039/// 19/17 Q1008 WHT
