2019/04/23 04:25
EBDT 220425Z AUTO VRB02KT 6000 FEW010 SCT030 11/03 Q1011
