2019/04/24 12:55
EBDT 241255Z 17014KT 9999 FEW050 SCT230 23/08 Q0998 BLU BLU
