2019/03/24 16:25
EBDT 241625Z AUTO 30006KT 9999 NCD 12/M03 Q1026 BLU
