2019/04/25 11:55
EBDT 251155Z AUTO 17015KT 9999 -RA FEW041/// BKN048/// OVC070/// 15/09 Q1005 BLU
