2019/03/25 17:25
EBDT 251725Z AUTO 34014KT 9999 FEW034/// BKN040/// 08/02 Q1027 BLU
