2019/04/26 11:55
EBDT 261155Z 24007KT 9999 FEW033 SCT060 BKN250 16/07 Q1013 BLU BLU
