2019/03/28 15:25
EBDT 281525Z VRB02KT 9999 FEW035 BKN046 13/04 Q1034 BLU BLU
