2019/04/28 08:55
EBDT 280855Z AUTO 24005KT 9999 -RA FEW007/// SCT013/// BKN016/// 08/06 Q1017 GRN
