2019/03/29 11:55
EBDT 291155Z 11003KT 9999 FEW030 16/07 Q1030 BLU BLU
