2019/03/30 16:25
EBDT 301625Z AUTO 26008KT 9999 FEW060/// 19/05 Q1020 BLU
