2019/05/31 13:55
EBDT 311355Z AUTO 27005KT 9999 SCT035/// OVC040/// 20/11 Q1025 BLU
