2019/03/31 11:25
EBDT 311125Z AUTO 04009KT 9999 BKN050/// BKN240/// 12/06 Q1024 BLU
