2019/05/01 18:57
KFLG 011857Z 20019G25KT 10SM SCT055 13/M01 A3007 RMK AO2 SLP116 T01331006
