2019/06/01 10:57
KFLG 011057Z AUTO 00000KT 10SM CLR 01/M03 A3009 RMK AO2 SLP114 T00111028
