2019/04/01 20:57
KFLG 012057Z VRB03KT 10SM CLR 14/M09 A3012 RMK AO2 SLP160 T01441094 58021
