2019/04/02 09:57
KFLG 020957Z AUTO 00000KT 10SM CLR 00/M08 A3007 RMK AO2 SLP130 T00001083
