2019/05/02 12:10
KFLG 011857Z 20019G25KT 8SM FEW040 15/M05 A3007 RMK AO2 SLP116 T01331006
