2019/06/03 15:57
KFLG 031557Z VRB05KT 10SM CLR 17/01 A3015 RMK AO2 SLP127 T01670011
