2019/04/03 12:57
KFLG 031257Z 25004KT 10SM CLR 02/M04 A2996 RMK AO2 SLP094 T00221039
