2019/11/03 21:57
KFLG 032157Z 20013KT 10SM CLR 18/M13 A3017 RMK AO2 SLP169 T01781133
