2019/05/04 15:57
KFLG 041557Z 00000KT 10SM CLR 17/M07 A3011 RMK AO2 SLP114 T01671067
