2019/06/04 15:57
KFLG 041557Z VRB06KT 10SM CLR 19/M02 A3017 RMK AO2 SLP124 T01941022
