2019/04/04 07:57
KFLG 040757Z AUTO 00000KT 10SM CLR 01/M02 A3020 RMK AO2 SLP183 T00061022
