2019/06/05 14:57
KFLG 051457Z 00000KT 10SM CLR 18/02 A3021 RMK AO2 SLP141 T01780022 53008
