2019/04/05 09:57
KFLG 050957Z AUTO 24004KT 10SM CLR M01/M05 A3004 RMK AO2 SLP124 T10061050
