2019/05/05 09:57
KFLG 050957Z AUTO 00000KT 10SM CLR 02/M05 A3003 RMK AO2 SLP096 T00221050
