2019/04/06 09:57
KFLG 060957Z AUTO 22003KT 10SM FEW032 03/M01 A3002 RMK AO2 SLP110 T00281011
