2019/06/06 12:57
KFLG 061257Z 00000KT 10SM CLR 08/02 A3022 RMK AO2 SLP141 T00830017
