2019/05/07 10:57
KFLG 071057Z AUTO 00000KT 10SM CLR 00/M03 A2999 RMK AO2 SLP102 T00001033
