2019/04/07 13:57
KFLG 071357Z 00000KT 10SM CLR M01/M03 A3032 RMK AO2 SLP230 T10061028
