2019/11/07 14:57
KFLG 071457Z 00000KT 10SM CLR M01/M02 A3034 RMK AO2 SLP262 I1000 I3000 T10111017 53016
