2019/04/08 11:57
KFLG 081157Z AUTO 00000KT 10SM CLR M02/M07 A3035 RMK AO2 SLP220 T10171067 10044 21022 55003
