2019/06/08 12:57
KFLG 081257Z 00000KT 10SM CLR 07/M01 A3015 RMK AO2 SLP125 T00721011
