2019/06/09 12:57
KFLG 091257Z 07003KT 10SM CLR 06/00 A3035 RMK AO2 SLP196 T00560000
