2019/04/09 07:57
KFLG 090757Z AUTO 00000KT 10SM CLR 04/M05 A3025 RMK AO2 SLP168 T00391050
