2019/04/10 07:57
KFLG 100757Z AUTO 25013G20KT 10SM CLR 06/M05 A2976 RMK AO2 PK WND 25027/0710 SLP995 T00611050
