2019/05/10 09:57
KFLG 100957Z AUTO 01003KT 10SM FEW070 02/02 A2994 RMK AO2 SLP104 T00220017
