2019/06/10 13:57
KFLG 101357Z 08005KT 10SM CLR 14/M04 A3043 RMK AO2 SLP211 T01391039
