2019/05/11 17:33
KFLG 111733Z 00000KT 10SM VCTS BKN021 12/03 A3009 RMK AO2 T01220033
