2019/04/11 07:57
KFLG 110757Z AUTO 32007G16KT 280V340 10SM CLR M01/M07 A2995 RMK AO2 SLP123 T10061072
