2019/04/12 06:57
KFLG 120657Z AUTO 00000KT 10SM CLR M02/M09 A2982 RMK AO2 SLP064 T10221094 401001022
