2019/05/12 10:57
KFLG 121057Z AUTO 00000KT 10SM OVC090 00/M01 A3008 RMK AO2 SLP147 T00001011
