2019/04/13 15:57
KFLG 131557Z VRB03KT 10SM FEW022 04/M01 A3003 RMK AO2 SLP140 T00441011
