2019/06/13 12:57
KFLG 131257Z AUTO 22003KT 10SM CLR 09/M02 A3025 RMK AO2 SLP141 T00891017
