2019/05/13 13:57
KFLG 131357Z 22008KT 10SM CLR 08/04 A3017 RMK AO2 SLP148 T00780044
