2019/04/14 19:57
KFLG 141957Z 22020G25KT 10SM CLR 14/M06 A3009 RMK AO2 PK WND 22027/1903 SLP137 T01391056
