2019/05/15 14:57
KFLG 151457Z 00000KT 10SM CLR 15/03 A3021 RMK AO2 SLP145 T01500033 51006
