2019/06/15 18:57
KFLG 151857Z 26008G16KT 10SM FEW090 BKN120 23/01 A3019 RMK AO2 SLP121 T02280006
