2019/04/15 13:57
KFLG 151357Z 00000KT 10SM CLR M01/M07 A3002 RMK AO2 SLP124 T10111067
