2019/04/16 16:57
KFLG 161657Z 23017G29KT 10SM CLR 08/M02 A3000 RMK AO2 PK WND 22029/1653 SLP099 T00781022
