2019/06/16 12:57
KFLG 161257Z 00000KT 10SM CLR 08/02 A3019 RMK AO2 SLP129 T00830022
