2019/04/17 14:57
KFLG 171457Z 00000KT 10SM FEW010 SCT023 BKN033 05/00 A3006 RMK AO2 SLP143 T00500000 53020
