2019/05/17 12:57
KFLG 171257Z AUTO 24009KT 10SM CLR 03/M03 A2988 RMK AO2 SLP056 T00331028
