2019/05/18 11:57
KFLG 181157Z AUTO 27004KT 10SM CLR M03/M06 A3000 RMK AO2 SLP120 T10281056 10028 21033 58003
