2019/05/19 14:57
KFLG 191457Z 22013G25KT 10SM SCT100 08/M03 A2991 RMK AO2 PK WND 21026/1446 SLP067 T00831028 53002
