2019/04/20 19:57
KFLG 201957Z 21018G27KT 10SM FEW090 18/M04 A3003 RMK AO2 PK WND 22033/1922 SLP098 T01831044
