2019/09/22 17:57
KFLG 221757Z VRB03KT 10SM CLR 19/M07 A3030 RMK AO2 SLP188 T01891072 10194 21022 50001
