2019/06/22 19:57
KFLG 221957Z 24017G25KT 10SM CLR 21/M01 A3011 RMK AO2 PK WND 22028/1937 LTG DSNT NE SLP099 T02061006
