2019/04/23 09:57
KFLG 220957Z AUTO 00000KT 10SM CLR M01/M04 A3006 RMK AO2 SLP122 T10171078
