2019/04/24 12:57
KFLG 241257Z 00000KT 10SM CLR 00/M02 A3015 RMK AO2 SLP160 T00001022
