2019/03/24 16:57
KFLG 241657Z 23014G17KT 10SM CLR 08/M06 A3023 RMK AO2 SLP200 T00781061
