2019/03/25 17:57
KFLG 251757Z VRB06G14KT 10SM CLR 12/M08 A3034 RMK AO2 SLP226 T01221078 10122 21061 50001
