2019/04/25 10:57
KFLG 251057Z 00000KT 10SM CLR 04/M02 A3019 RMK AO2 SLP147 T00441022
