2019/04/26 20:57
KFLG 262057Z 25012G16KT 10SM SCT110 21/M01 A3019 RMK AO2 PK WND 22026/2035 SLP149 T02061011 56013
