2019/03/27 10:57
KFLG 271057Z AUTO 00000KT 10SM CLR 01/M05 A3014 RMK AO2 SLP148 T00111050
