2019/04/27 15:57
KFLG 271557Z 23008KT 10SM CLR 17/M02 A3018 RMK AO2 SLP126 T01671022
