2019/05/27 14:57
KFLG 271457Z 21007KT 2SM RA BR BKN009 OVC014 01/00 A2986 RMK AO2 LTG DSNT W RAB02 SLP067 P0015 60016 T00110000 56006
