2019/03/28 16:57
KFLG 281657Z 22013G19KT 10SM CLR 12/M07 A3022 RMK AO2 SLP174 T01221072
