2019/04/28 08:57
KFLG 280857Z AUTO 22005KT 10SM CLR 09/M03 A3006 RMK AO2 SLP091 T00891028 58008
