2019/03/29 11:57
KFLG 291157Z AUTO 00000KT 10SM CLR M03/M08 A3012 RMK AO2 SLP160 T10331078 10050 21039 55007
