2019/03/30 15:57
KFLG 301557Z 07012KT 10SM CLR 05/M11 A3021 RMK AO2 SLP196 T00501106
