2019/04/30 07:57
KFLG 300757Z AUTO 23007KT 10SM OVC004 02/01 A2992 RMK AO2 RAB08E38 SLP070 P0002 T00220011
