2019/03/31 10:57
KFLG 311057Z AUTO 08004KT 10SM CLR 00/M10 A3011 RMK AO2 SLP151 T00001100
