2019/05/31 13:57
KFLG 311357Z 00000KT 10SM CLR 08/03 A3017 RMK AO2 SLP147 T00830033
