2015/10/30 20:00
CYAD 302000Z 31011G17KT 6SM -SHSN OVC012 M02/M04 A2968 RMK SC7 LAST OBS/NEXT 021200 UTC SLP066
