2019/06/01 11:30
LFRM 011130Z AUTO 13006KT 060V230 CAVOK 27/13 Q1020 NOSIG
