2019/05/01 18:30
LFRM 011830Z AUTO VRB15G25KT 4000 -TSRA BKN025 BKN045CB 17/07 Q1015
