2019/04/01 20:30
LFRM 012030Z AUTO 00000KT CAVOK 14/08 Q1012 TEMPO 4000 SHRA SCT040CB
