2019/04/02 14:30
LFRM 021430Z AUTO 28014G26KT 210V330 9999 -RA SCT025 BKN039 BKN058 08/04 Q1009 TEMPO 4000 SHRA BKN020TCU BKN050
