2019/05/02 14:00
LFRM 021400Z AUTO 28007KT 240V360 4000 SHRA SCT033TCU FEW036 BKN068 15/06 Q1016
