2019/04/03 07:30
LFRM 030730Z AUTO 23008KT 200V260 9999 SCT010 OVC018 04/02 Q1002 TEMPO 4000 SHRA BKN020TCU
