2019/06/03 16:30
LFRM 031630Z AUTO 23006KT 150V300 9999 SCT048 21/10 Q1015 NOSIG
