2019/05/04 14:00
LFRM 041400Z AUTO 02015G25KT 350V050 4000 -SHRA BKN030TCU BKN046 BKN056 11/02 Q1017
