2019/04/04 07:30
LFRM 040730Z AUTO 20003KT 140V230 0800 FG VV/// 01/01 Q0999 BECMG 9999 NSW SCT030
