2019/06/04 07:30
LFRM 040730Z AUTO 00000KT 4000 RA FEW037/// BKN052/// BKN068/// ///CB 17/16 Q1007
