2019/11/04 13:30
LFRM 041330Z AUTO 24013G24KT 210V280 3000 SHRA FEW026/// BKN030TCU SCT040CB ///TCU 11/08 Q0990
