2019/06/05 10:30
LFRM 051030Z AUTO VRB02KT 4000 RA BKN012 13/11 Q1009
