2019/04/05 10:00
LFRM 051000Z AUTO 10008KT 060V140 CAVOK 10/00 Q1000 NOSIG
