2019/05/05 10:00
LFRM 051000Z AUTO 03010KT 340V060 9999 BKN038 BKN056 12/03 Q1025 NOSIG
