2019/06/06 13:00
LFRM 061300Z AUTO 20010KT 140V240 9999 4000 SHRA FEW020CB SCT030TCU OVC062/// ///TCU 16/09 Q1013
