2019/04/06 12:30
LFRM 061230Z AUTO 11006KT 090V150 9999 SHRA BKN032 BKN052 BKN068 13/06 Q0998
