2019/11/06 13:30
LFRM 061330Z AUTO 25004KT 200V290 4000 -SHRA BKN011 BKN016 SCT020TCU 12/10 Q1006
