2019/05/07 07:30
LFRM 070730Z AUTO 11005KT CAVOK 11/02 Q1017 NOSIG
