2019/04/07 13:30
LFRM 071330Z AUTO 22007KT 180V270 4000 -SHRA FEW025TCU BKN056 16/05 Q1008
