2019/11/07 15:00
LFRM 071500Z AUTO VRB15G30KT 180V240 4000 -SHRA BKN020CB 10/03 Q1000
