2019/04/08 12:00
LFRM 081200Z AUTO VRB03KT 9999 FEW042 SCT048 BKN058 16/05 Q1010 NOSIG
