2019/06/08 13:30
LFRM 081330Z AUTO 23015G25KT 190V300 9999 SHRA BKN030TCU SCT056 BKN070 18/09 Q1022
