2020/02/09 17:30
LFRM 092330Z AUTO 24019G33KT 210V270 9999 BKN017 BKN023 OVC032 13/11 Q1006
