2019/05/09 08:30
LFRM 090830Z AUTO 27015G25KT 210V290 4000 SHRA BKN014 BKN025 OVC032 12/09 Q1002
