2019/04/09 07:30
LFRM 090730Z AUTO 00000KT 0600 FG VV/// 10/08 Q1011
