2019/06/09 12:30
LFRM 091230Z AUTO 11005KT 080V140 CAVOK 19/09 Q1019 NOSIG
