2019/08/09 09:00
LFRM 090900Z AUTO 28006KT 250V330 9999 OVC016 22/19 Q1007 NOSIG
