2019/06/10 13:00
LFRM 101300Z AUTO 30007KT 260V350 4000 -TSRA SCT030CB/// BKN041/// BKN049/// ///TCU 15/08 Q1015
