2019/05/10 21:00
LFRM 102100Z AUTO 25015G25KT 190V270 2000 -RA BKN015/// OVC023/// ///TCU 17/14 Q1003
