2019/05/11 17:00
LFRM 111700Z AUTO 36012KT 3000 -RA BKN045/// ///CB 15/08 Q1024 BECMG NSC
