2019/04/11 07:30
LFRM 110730Z AUTO 03006KT 340V060 CAVOK 06/01 Q1020 NOSIG
