2019/05/12 11:00
LFRM 121100Z AUTO 04009KT 330V090 CAVOK 15/03 Q1034 NOSIG
