2019/04/12 07:00
LFRM 120700Z AUTO 03006KT CAVOK 04/01 Q1023 NOSIG
