2019/04/13 12:00
LFRM 131200Z AUTO 06008KT 010V110 CAVOK 10/M03 Q1023 NOSIG
