2019/05/13 12:00
LFRM 131200Z AUTO 05014KT 010V090 CAVOK 17/03 Q1034 NOSIG
