2019/06/13 12:30
LFRM 131230Z AUTO 23011KT 180V270 9999 FEW042 OVC066 18/09 Q1011 NOSIG
