2019/04/14 09:30
LFRM 140930Z AUTO 08006KT 020V130 CAVOK 08/M04 Q1022 NOSIG
