2019/05/15 15:30
LFRM 151530Z AUTO 08011KT 040V130 CAVOK 20/01 Q1020 NOSIG
