2019/06/15 16:00
LFRM 151600Z AUTO 21010KT 180V240 9999 SHRA SCT030TCU 21/10 Q1017
