2019/04/15 08:30
LFRM 150830Z AUTO 11013KT 080V150 CAVOK 09/01 Q1018 NOSIG
