2019/04/16 17:00
LFRM 161700Z AUTO 30004KT 250V350 4500 -SHRA BKN040TCU 17/07 Q1017
