2019/06/16 11:00
LFRM 161100Z AUTO 22006KT 140V290 9999 FEW030 OVC045 19/11 Q1022 NOSIG
