2019/05/16 16:00
LFRM 161600Z AUTO 06011KT CAVOK 18/03 Q1011 NOSIG
