2019/05/17 12:30
LFRM 171230Z AUTO 08006KT 010V140 CAVOK 19/05 Q1004 NOSIG
