2019/04/17 09:00
LFRM 170900Z AUTO 11007KT 090V150 CAVOK 15/07 Q1018 NOSIG
