2019/04/18 09:00
LFRM 170900Z AUTO 27005KT 090V150 CAVOK 15/07 Q1018 NOSIG
