2019/05/19 14:30
LFRM 191430Z AUTO 33006KT 280V020 4000 +SHRA SCT030CB OVC026 15/11 Q1009
