2019/04/20 19:30
LFRM 201930Z AUTO 03008KT CAVOK 21/05 Q1022 NOSIG
