2019/04/21 08:00
LFRM 210800Z AUTO 03006KT CAVOK 18/07 Q1018 NOSIG
