2019/09/22 18:00
LFRM 221800Z AUTO 24015G25KT 190V250 4000 SHRA BKN020TCU 19/12 Q1009
