2019/04/22 10:00
LFRM 221000Z AUTO VRB03KT CAVOK 21/08 Q1005 NOSIG
