2019/06/22 18:00
LFRM 221800Z AUTO 05006KT 020V090 CAVOK 25/09 Q1016 NOSIG
