2019/04/23 10:00
LFRM 221000Z AUTO VRB03KT 9000 BKN050 16/09 Q1002 NOSIG
