2019/03/24 17:00
LFRM 241700Z AUTO 36007KT 320V030 9999 BKN048 13/05 Q1028 NOSIG
