2019/04/24 13:00
LFRM 241300Z AUTO 20008KT 160V240 9999 SHRA SCT020 BKN035 BKN056/// ///TCU 13/10 Q0999
