2019/04/25 11:30
LFRM 251130Z AUTO 20020G30KT 160V240 3000 TSRAGS BKN008 BKN040CB 14/07 Q1002
