2019/03/25 16:00
LFRM 251600Z AUTO 01012KT 340V040 CAVOK 13/M01 Q1030 NOSIG
