2019/03/26 09:00
LFRM 260900Z AUTO 04007KT 340V080 CAVOK 08/01 Q1035 NOSIG
