2019/04/26 12:00
LFRM 261200Z AUTO 27018G28KT 180V240 9999 FEW030 SCT037 OVC050 14/07 Q1014 TEMPO 27018G28KT BKN020TCU SCT050CB
