2019/04/27 15:30
LFRM 271530Z AUTO 28018G30KT 220V310 SCT030TCU 14/01 Q1021
