2019/05/27 14:30
LFRM 271430Z AUTO 31007KT 270V350 CAVOK 21/07 Q1012 NOSIG
