2019/04/28 08:30
LFRM 280830Z AUTO 28007KT 240V320 9999 BKN015 BKN020 11/06 Q1024 NOSIG
