2019/03/28 15:00
LFRM 281500Z AUTO 01009KT 340V070 9999 OVC042 14/04 Q1032 NOSIG
