2019/05/28 09:00
LFRM 280900Z AUTO 31015G25KT 250V330 4500 -SHRA BKN024/// BKN031/// OVC060/// ///TCU 14/08 Q1014
