2019/03/29 11:30
LFRM 291130Z AUTO 07004KT 020V140 CAVOK 16/04 Q1026 NOSIG
