2019/03/30 16:00
LFRM 301600Z AUTO 16006KT 110V210 CAVOK 20/01 Q1018 NOSIG
