2019/04/30 07:30
LFRM 300730Z AUTO 34003KT 290V030 CAVOK 11/06 Q1024 NOSIG
