2019/03/31 11:30
LFRM 311130Z AUTO 10006KT 050V130 CAVOK 20/01 Q1019 NOSIG
