2019/05/31 14:00
LFRM 311400Z AUTO 18005KT 120V290 CAVOK 25/12 Q1024 NOSIG
