2019/04/01 20:20
EBAW 012020Z 09005KT CAVOK 10/03 Q1015 NOSIG
