2019/06/01 11:20
EBAW 011120Z 25006KT 200V280 9999 FEW038 24/14 Q1022 NOSIG
