2019/05/01 18:20
EBAW 011820Z 35006KT 8000 NSC 11/06 Q1016 NOSIG
