2019/04/02 09:50
EBAW 020950Z 21009KT 9999 -RA SCT044 13/07 Q1006 TEMPO 4000 SHRA RA
