2019/05/02 07:50
EBAW 030750Z 04004KT 340V070 8500 FEW020 11/05 Q1015 NOSIG
