2019/06/02 10:20
EBAW 021020Z 19010KT 140V220 9999 FEW045 29/13 Q1013 NOSIG
