2019/06/03 15:50
EBAW 031550Z 24007KT 9999 SCT035 BKN049 20/11 Q1014 NOSIG
