2019/05/03 07:50
EBAW 030750Z 04004KT 340V070 9999 SCT021 10/04 Q1014 NOSIG
