2019/04/03 08:50
EBAW 030850Z 16008KT 130V190 9999 FEW015 SCT035 08/05 Q1001 TEMPO 4000 SHRA
