2019/11/03 21:50
EBAW 032150Z 20006KT 6000 SCT035 BKN047 10/09 Q0986 NOSIG
