2019/06/04 07:20
EBAW 040720Z 11006KT 080V140 CAVOK 18/12 Q1012 NOSIG
