2019/04/04 07:50
EBAW 040750Z VRB02KT CAVOK 03/02 Q0999 NOSIG
