2019/05/04 14:20
EBAW 041420Z 34020G30KT 290V020 4500 SHRAGS VCSH FEW021TCU SCT038 08/03 Q1013
