2019/11/04 13:20
EBAW 041320Z 21010KT 180V240 4000 SHRA BKN018TCU FEW020 SCT027 13/09 Q0987
