2019/06/05 08:50
EBAW 050850Z 16006KT 4000 RA BKN012 15/14 Q1009
