2019/04/05 09:20
EBAW 050920Z 10005KT 070V150 CAVOK 10/04 Q1006 NOSIG
