2019/05/05 09:50
EBAW 050950Z 35015G25KT 290V060 4500 SHRA FEW025TCU SCT033 09/02 Q1022
