2019/04/06 09:50
EBAW 060950Z 09005KT 060V140 7000 FEW020 11/06 Q1005 NOSIG
