2019/06/06 11:50
EBAW 061150Z 23009KT 190V270 9999 SCT040 18/07 Q1013 NOSIG
