2019/11/06 13:20
EBAW 061320Z 15002KT 9999 FEW029 10/06 Q1003 NOSIG
