2019/04/07 13:20
EBAW 071320Z 08007KT 040V160 9999 FEW049 21/08 Q1004 NOSIG
