2019/05/07 07:20
EBAW 070720Z 21005KT 180V240 CAVOK 09/04 Q1019 NOSIG
