2019/06/07 09:50
EBAW 070950Z 11011KT 080V140 CAVOK 19/11 Q1006 NOSIG
