2019/06/08 12:50
EBAW 081250Z 22019G31KT 200V260 4500 SHRA SCT035TCU BKN043 15/09 Q1017
