2019/04/08 08:50
EBAW 080850Z 23004KT 1500 R11/1400N R29/1500N BR BKN004 10/08 Q1011 BECMG 3000 BR BKN008
