2019/05/09 07:50
EBAW 090750Z 18005KT 140V200 9999 FEW018 BKN027 12/07 Q0996 NOSIG
