2019/04/09 06:50
EBAW 090650Z 05007KT 5000 BR NSC 09/07 Q1011 BECMG 6000 NSW
