2019/04/10 07:20
EBAW 100720Z 05010KT CAVOK 06/M00 Q1015 NOSIG
