2019/06/10 12:50
EBAW 101250Z 21004KT 3000 TSRA SCT036CB 21/12 Q1011
