2019/05/10 08:50
EBAW 100850Z 22006KT 9999 -SHRA FEW020/// SCT024/// 09/07 Q1010 NOSIG
