2020/02/10 19:50
EBAW 101950Z 26016G26KT 4000 SHRAGS SCT016TCU BKN020 07/05 Q0995
