2020/02/11 15:50
EBAW 111550Z 25025G36KT 9999 SCT045 08/M02 Q1007 NOSIG
