2019/05/12 09:50
EBAW 120950Z VRB03KT 9999 SCT032 SCT039 11/03 Q1035 NOSIG
