2019/04/12 06:50
EBAW 120650Z 04005KT 360V080 CAVOK 04/M02 Q1025 NOSIG
