2019/04/13 11:50
EBAW 131150Z 04009KT 360V070 9999 SCT046 07/M05 Q1025 NOSIG
