2019/06/13 12:20
EBAW 131220Z 20015G25KT 4000 SHRA SCT027TCU BKN042 16/12 Q1011
