2019/04/14 09:20
EBAW 140920Z 08007KT 030V100 7000 BKN012 04/01 Q1025 BECMG BKN016
