2019/05/14 07:20
EBAW 140720Z 07011KT CAVOK 10/04 Q1035 NOSIG
