2019/06/15 15:50
EBAW 151550Z 14004KT 100V180 9999 VCSH SCT026TCU 20/13 Q1015 NOSIG
