2019/04/15 07:20
EBAW 150720Z 09006KT CAVOK 06/03 Q1025 NOSIG
