2019/05/15 14:20
EBAW 151420Z 06010KT CAVOK 17/M03 Q1024 NOSIG
