2019/05/16 15:20
EBAW 161520Z 07010KT 030V100 9999 FEW048 17/04 Q1015 NOSIG
