2019/04/16 16:50
EBAW 161650Z 21008KT CAVOK 17/06 Q1015 NOSIG
