2019/05/17 07:20
EBAW 170720Z 07008KT 040V100 8000 BKN014 BKN021 11/07 Q1008
