2019/04/17 07:50
EBAW 170750Z VRB02KT 6000 BKN040 12/08 Q1020 NOSIG
