2019/06/17 13:50
EBAW 171350Z VRB04KT 9999 FEW049 26/12 Q1018 NOSIG
