2019/04/18 07:50
EBAW 170750Z VRB02KT 3500 BKN025 12/08 Q1020 NOSIG
