2019/05/18 11:20
EBAW 181120Z VRB02KT 9999 FEW035 18/08 Q1006 NOSIG
