2019/05/19 14:20
EBAW 191420Z 30014KT 4000 SHRA SCT019 16/12 Q1006
