2019/04/19 08:50
EBAW 190850Z 08007KT CAVOK 18/05 Q1027 NOSIG
