2019/05/20 14:50
EBAW 201450Z 29010KT 9999 BKN012 13/10 Q1010 NOSIG
