2019/04/20 19:20
EBAW 201920Z 03006KT CAVOK 19/02 Q1025 NOSIG
