2019/04/21 07:50
EBAW 210750Z 05003KT 020V110 CAVOK 15/05 Q1022 NOSIG
