2019/12/21 11:50
EBAW 211150Z 19011G22KT 160V220 9999 BKN020 09/05 Q0988 NOSIG