2019/06/22 17:20
EBAW 221720Z 05009KT CAVOK 23/11 Q1018 NOSIG
