2019/04/22 09:20
EBAW 220920Z 10007KT CAVOK 21/06 Q1009 NOSIG
