2019/09/22 13:50
EBAW 221350Z 16007KT 9999 FEW048 26/14 Q1006 NOSIG
