2019/04/23 09:20
EBAW 220920Z 10007KT CAVOK 15/01 Q1009 NOSIG
