2019/03/24 15:50
EBAW 241550Z 32010KT 290V350 CAVOK 11/M01 Q1027 NOSIG
