2019/04/24 12:20
EBAW 241220Z 18015G27KT 9999 FEW049 24/08 Q0998
