2019/04/25 06:50
EBAW 250650Z 14007KT CAVOK 11/07 Q1003 NOSIG
