2019/03/26 07:20
EBAW 260720Z 35008KT 310V030 9999 SCT020 08/04 Q1033 NOSIG
