2019/03/27 09:20
EBAW 270920Z VRB02KT 9999 FEW025 BKN040 10/03 Q1034 NOSIG
