2019/05/27 06:20
EBAW 270620Z 29005KT 250V320 CAVOK 14/09 Q1011 NOSIG
