2019/04/27 15:20
EBAW 271520Z 25014KT 9999 SCT045TCU 12/03 Q1012 NOSIG
