2019/03/28 14:20
EBAW 281420Z VRB02KT 9999 SCT038 BKN045 12/05 Q1035 NOSIG
