2019/05/28 07:20
EBAW 280720Z 30006KT 260V340 9999 SCT015TCU 14/09 Q1007 NOSIG
