2019/04/29 14:20
EBAW 291420Z 35006KT 330V040 9999 SCT044 15/05 Q1024 NOSIG
