2019/03/29 08:50
EBAW 290850Z 14004KT 6000 NSC 11/07 Q1032 NOSIG
