2019/05/30 18:20
EBAW 301820Z 24009KT 200V270 9999 FEW041 21/11 Q1023 NOSIG
