2019/04/30 07:20
EBAW 300720Z 35005KT 320V030 9999 SCT014 BKN019 11/08 Q1024 BECMG BKN012
