2019/03/31 10:50
EBAW 311050Z 06010KT 030V090 9999 FEW020 12/06 Q1024 NOSIG
