2019/05/31 13:20
EBAW 311320Z 26009KT 230V290 9999 SCT038 BKN043 20/10 Q1025 NOSIG
