2020/05/10 20:50
ESGG 102050Z 36013KT 9999 FEW022 SCT031 OVC041 04/01 Q1007
