2020/05/10 20:20
EBLG 102020Z 02018KT 9999 BKN012 10/07 Q1008 NOSIG
