2019/05/01 18:20
EGPH 011820Z 26007KT CAVOK 12/08 Q1015
