2019/06/01 11:20
EGPH 011120Z 24010KT 9999 FEW025 OVC040 15/11 Q1016
