2019/04/01 20:50
EGPH 012050Z VRB03KT 9999 -RA FEW016 BKN032 06/03 Q1009
