2019/05/02 11:50
EGPH 031150Z 32009KT 320V040 9999 FEW054 11/06 Q1016
