2019/04/02 10:20
EGPH 021020Z 29006KT 260V320 9999 SCT023 07/01 Q1000
