2019/06/02 10:20
EGPH 021020Z 20011KT 160V260 9999 FEW020 SCT032 17/14 Q1000
