2019/05/03 11:50
EGPH 031150Z 36007KT 320V040 9999 SCT044 09/M01 Q1016
