2019/06/03 16:20
EGPH 031620Z 24018G28KT 9999 FEW019TCU SCT031 15/09 Q1004
