2019/04/03 09:20
EGPH 030920Z 24009KT 9999 -RA FEW011TCU BKN017 02/01 Q0996
