2019/04/04 07:50
EGPH 040750Z VRB01KT 9999 7000W RA SCT021TCU OVC039 03/03 Q0996
