2019/05/04 14:50
EGPH 041450Z 36004KT 290V040 9999 BKN044 09/01 Q1025
