2019/06/04 07:20
EGPH 040720Z 23009KT 9999 FEW019 13/09 Q1006
