2019/04/05 09:50
EGPH 050950Z 08012KT 9999 FEW020 11/05 Q1005
