2019/06/05 10:20
EGPH 051020Z 06008KT 7000 -RA OVC003 11/11 Q1000
