2019/05/05 09:50
EGPH 050950Z 27006KT 230V310 CAVOK 09/M01 Q1025
