2019/06/06 11:50
EGPH 061150Z 26006KT 230V320 9999 FEW033 15/08 Q1005
