2019/04/06 12:20
EGPH 061220Z VRB02KT 3300 -RADZ OVC005 06/06 Q1009
