2019/04/07 13:20
EGPH 071320Z 06013KT 1700 -DZ BR OVC002 06/06 Q1014
