2019/05/07 07:50
EGPH 070750Z 11006KT 070V130 CAVOK 07/00 Q1015
