2019/11/07 15:20
EGPH 071520Z 05016KT 9999 SCT022 08/05 Q1001
