2019/06/08 13:20
EGPH 081320Z VRB03KT 9000 -SHRA FEW032TCU SCT048 11/10 Q1008
