2019/06/09 12:20
EGPH 091220Z 20013KT 9999 SCT033 15/08 Q1016
