2019/06/10 12:50
EGPH 101250Z 04010KT CAVOK 15/11 Q1020
