2019/05/11 16:50
EGPH 111650Z 29005KT 260V320 CAVOK 13/M01 Q1025
