2019/04/11 07:20
EGPH 110720Z 26005KT CAVOK 03/02 Q1026
