2019/04/12 06:50
EGPH 120650Z VRB02KT CAVOK 03/02 Q1028
