2019/05/12 09:50
EGPH 120950Z 06005KT 030V100 9999 FEW020 11/06 Q1035
