2019/06/13 12:20
EGPH 131220Z VRB02KT 9999 -RA FEW016 BKN038 10/07 Q1004
