2019/05/13 10:50
EGPH 131050Z 25007KT 220V290 CAVOK 17/06 Q1037
