2019/04/14 09:50
EGPH 140950Z 12013KT 070V150 9999 SCT039 08/M01 Q1029
