2019/05/14 10:20
EGPH 141020Z VRB03KT CAVOK 18/08 Q1034
