2019/06/15 15:50
EGPH 151550Z 17009KT 140V200 9999 SCT038 18/10 Q1007
