2019/04/15 08:50
EGPH 150850Z 11015KT 070V130 9999 SCT023 07/02 Q1024
