2019/05/15 15:20
EGPH 151520Z 05008KT CAVOK 17/12 Q1025
