2019/04/16 16:50
EGPH 161650Z 07015KT 6000 VCSH FEW025 08/06 Q1019
