2019/06/16 10:50
EGPH 161050Z 22015KT 9999 FEW033TCU 16/07 Q1009
