2019/05/16 15:20
EGPH 161520Z 05014KT CAVOK 16/09 Q1020
