2019/05/17 12:20
EGPH 171220Z 08013KT CAVOK 16/07 Q1016
