2019/04/17 08:50
EGPH 170850Z 06010KT 9999 FEW017 09/06 Q1023
