2019/04/18 08:50
EGPH 170850Z 06010KT 9999 NSC 09/06 Q1023
