2019/05/18 11:50
EGPH 181150Z 05007KT 4300 -RADZ BKN003 BKN018 11/11 Q1007
