2019/05/19 14:20
EGPH 191420Z 24009KT 9999 FEW031 SCT048 14/09 Q1010
