2019/04/19 08:50
EGPH 190850Z 06007KT 040V100 9000 NSC 09/08 Q1032
