2019/04/22 09:50
EGPH 220950Z 03008KT CAVOK 15/08 Q1007
