2019/06/22 17:50
EGPH 221750Z 04008KT CAVOK 17/10 Q1019
