2019/09/22 17:50
EGPH 221750Z 07007KT 5000 -RADZ BKN003 14/14 Q1001
