2019/04/23 09:50
EGPH 220950Z 05008KT 6000 OVC010 13/08 Q1000
