2019/04/24 12:50
EGPH 241250Z 05018KT 6000 OVC004 11/09 Q0995
