2019/03/24 20:20
EGPH 242020Z 26010KT 9999 SCT045 05/00 Q1024
