2019/03/25 17:50
EGPH 251750Z 29006KT 260V330 CAVOK 10/02 Q1032
