2019/04/25 06:50
EGPH 250650Z VRB03KT CAVOK 10/09 Q0996
