2019/03/27 10:50
EGPH 271050Z 25012KT 9999 FEW020 BKN034 11/07 Q1032
