2019/04/27 15:20
EGPH 271520Z 36007KT 330V030 9999 7000N -SHRA BKN025CB 09/06 Q1004
