2019/05/27 06:50
EGPH 270650Z VRB02KT 9999 BKN029 09/06 Q1005
