2019/03/28 16:20
EGPH 281620Z 25019KT CAVOK 12/04 Q1028
