2019/05/28 07:50
EGPH 280750Z 06006KT 030V100 8000 -RA BKN010TCU BKN022 07/07 Q1012
