2019/04/30 07:20
EGPH 300720Z 06005KT 030V100 7000 OVC006 09/08 Q1024
