2019/05/31 13:20
EGPH 311320Z 22014KT 9999 8000NW -RA FEW015TCU SCT040 BKN047 17/15 Q1014
