2019/03/31 11:20
EGPH 311120Z 04008KT 9999 FEW028 08/01 Q1029
