2019/06/01 11:00
SABE 011100Z 01005KT CAVOK 15/12 Q1017 NOSIG
