2019/04/01 20:00
SABE 012000Z 13009KT 8000 NSC 23/21 Q1013 NOSIG
