2019/05/01 18:00
SABE 011800Z 36008KT CAVOK 20/09 Q1014 NOSIG
