2019/04/02 10:00
SABE 021000Z 33005KT 300V360 CAVOK 22/20 Q1012 NOSIG
