2019/06/02 10:00
SABE 021000Z VRB02KT 5000 BR CAVOK 12/11 Q1020 TEMPO 5000 BR
