2019/05/02 08:00
SABE 030800Z 33002KT FEW020 19/11 Q1010 NOSIG
