2019/05/03 08:00
SABE 030800Z 31002KT CAVOK 18/15 Q1007 NOSIG
