2019/06/03 16:00
SABE 031600Z 25003KT CAVOK 20/09 Q1025 NOSIG
