2019/04/03 08:00
SABE 030800Z 15010KT CAVOK 19/13 Q1012 NOSIG
