2019/11/03 22:00
SABE 032200Z 10007KT 050V140 CAVOK 20/15 Q1008 NOSIG
