2019/06/04 07:00
SABE 040700Z 04007KT 360V070 CAVOK 15/10 Q1024 NOSIG
