2019/04/04 08:00
SABE 040800Z 36008KT CAVOK 21/18 Q1001 NOSIG
