2019/05/04 14:00
SABE 041400Z 11015KT 9999 BKN010 BKN100 18/15 Q1016 NOSIG
