2019/11/04 13:13
SABE 041313Z 34007KT 0300 R13/0450D TSRA SCT003 BKN029 FEW045CB 20/19 Q1004 NOSIG
