2019/04/05 09:00
SABE 050900Z 20008KT 150V220 9999 BKN015 14/12 Q1013 NOSIG
