2019/05/05 09:30
SABE 050930Z 13008KT 1200 R13/2000 +RA BKN005 BKN012 OVC040 18/18 Q1011
