2019/06/05 09:00
SABE 050900Z 36013G25KT 330V030 CAVOK 14/11 Q1017 NOSIG
