2019/04/06 10:00
SABE 061000Z 26003KT CAVOK 14/12 Q1022 NOSIG
