2019/06/06 11:00
SABE 061100Z 36009KT CAVOK 15/13 Q1013 NOSIG
