2019/11/06 13:00
SABE 061300Z 34008KT CAVOK 22/16 Q1017 NOSIG
