2019/04/07 13:00
SABE 071300Z 35006KT 320V020 CAVOK 19/12 Q1021 NOSIG
