2019/05/07 07:00
SABE 070700Z 14008KT 9999 SCT024 14/11 Q1022 NOSIG
