2019/06/07 10:00
SABE 071000Z 20007KT 160V270 CAVOK 15/08 Q1015 NOSIG
