2019/11/07 14:00
SABE 071400Z 28009KT 240V340 CAVOK 27/13 Q1012 NOSIG
