2019/04/08 09:00
SABE 080900Z VRB02KT CAVOK 16/12 Q1018 NOSIG
