2020/06/08 10:00
SABE 081300Z 27006KT 220V310 1000 DZ OVC009 14/14 Q1017 NOSIG
