2019/08/09 10:00
SABE 091000Z 15011KT 8000 -RA SCT036 OVC060 09/04 Q1022 NOSIG
