2019/06/09 12:00
SABE 091200Z 32005KT CAVOK 12/08 Q1018 NOSIG
