2019/04/09 06:00
SABE 090600Z 05009KT CAVOK 21/15 Q1018 NOSIG
