2019/06/10 12:34
SABE 101234Z 29006KT 8000 DZ BKN006 OVC012 17/15 Q1015
