2019/04/10 07:00
SABE 100700Z 02006KT 340V050 CAVOK 21/15 Q1014 NOSIG
