2019/05/10 09:00
SABE 100900Z 25006KT 5000 -DZ BR SCT007 OVC012 23/16 Q1004 NOSIG