2020/02/11 16:00
SABE 111600Z 06006KT 030V090 9999 SCT050 24/16 Q1021 NOSIG
