2019/04/11 07:11
SABE 110711Z 23006KT 170V250 5000 -DZ OVC006 17/16 Q1013 NOSIG
