2019/05/11 16:00
SABE 111600Z 22006KT 150V250 CAVOK 18/08 Q1016 NOSIG
