2019/04/12 07:00
SABE 120700Z 20002KT CAVOK 14/09 Q1018 NOSIG
