2019/05/12 09:00
SABE 120900Z 32008KT CAVOK 13/08 Q1017 NOSIG
