2019/04/13 12:00
SABE 131200Z 34008KT CAVOK 17/14 Q1013 NOSIG
