2019/06/13 12:00
SABE 131200Z 10017KT 3000 BR DZ OVC006 16/15 Q1012
