2019/05/13 07:00
SABE 130700Z 30007KT CAVOK 15/08 Q1021 NOSIG
