2019/04/14 09:00
SABE 140900Z 33008KT CAVOK 19/16 Q1011 NOSIG
