2019/05/14 07:00
SABE 140700Z 15006KT CAVOK 12/06 Q1029 NOSIG
