2019/05/15 14:00
SABE 151400Z 04006KT 360V070 CAVOK 18/10 Q1029 NOSIG
