2019/04/15 07:00
SABE 150700Z 14008KT CAVOK 19/15 Q1018 NOSIG
