2019/06/15 15:48
SABE 151548Z 16010KT 0800 R13/1100 RA BR BKN008 OVC050 12/12 Q1019 NOSIG
