2019/04/16 16:00
SABE 161600Z 02004KT CAVOK 20/13 Q1022 NOSIG
