2019/05/16 15:00
SABE 161500Z 36008KT CAVOK 19/15 Q1025 NOSIG
