2019/06/16 10:26
SABE 161026Z 13016KT 1500 RA OVC006 16/16 Q1019 NOSIG
