2019/05/17 07:00
SABE 170700Z 02012KT 9999 FEW015 BKN200 18/16 Q1019 NOSIG
