2019/04/17 07:00
SABE 170700Z 01008KT 330V040 CAVOK 19/14 Q1016 NOSIG
