2019/06/17 13:42
SABE 171342Z 35005KT 3000 -DZ BR BKN002 OVC006 16/16 Q1019 NOSIG
