2019/05/18 11:00
SABE 181100Z 01007KT CAVOK 17/15 Q1016 NOSIG
