2019/05/19 14:16
SABE 191416Z 15008KT 6000 BKN014 15/12 Q1019 NOSIG
