2019/04/19 09:00
SABE 190900Z 32004KT CAVOK 18/13 Q1011 NOSIG
