2019/04/20 19:00
SABE 201900Z 08009KT CAVOK 20/12 Q1014 NOSIG
