2019/04/21 07:00
SABE 210700Z 13003KT 9999 FEW031 SCT200 15/10 Q1016 NOSIG
