2019/12/21 12:00
SABE 211200Z 18007KT 110V230 9999 BKN020 16/11 Q1010 NOSIG