2019/04/22 09:00
SABE 220900Z 16002KT CAVOK 15/12 Q1019 NOSIG
