2019/06/22 17:00
SABE 221700Z 04003KT 020V080 9999 BKN040 17/15 Q1018 NOSIG
