2019/09/22 13:00
SABE 221300Z 10006KT 070V140 CAVOK 14/03 Q1031 NOSIG
