2019/04/23 09:00
SABE 220900Z 14002KT 8500 SCT077 16/13 Q1021 NOSIG
