2019/04/24 12:00
SABE 241200Z 11007KT 7000 SCT017 SCT200 17/15 Q1023 NOSIG
