2019/03/24 15:00
SABE 241500Z 22010KT 160V280 CAVOK 19/09 Q1016 NOSIG
