2019/04/25 06:00
SABE 250600Z 10020G31KT 9999 FEW022 OVC045 18/13 Q1023 NOSIG
