2019/03/25 18:00
SABE 251800Z 19005KT 130V260 9999 SCT042 SCT200 20/07 Q1019 NOSIG
