2019/03/26 07:00
SABE 260700Z 16006KT CAVOK 14/10 Q1023 NOSIG
