2019/04/26 11:00
SABE 261100Z 11020KT 1000 RADZ SCT005 OVC010 17/16 Q1020
