2019/03/27 09:00
SABE 270900Z 16002KT 9999 FEW025 16/12 Q1027 NOSIG
