2019/04/27 15:00
SABE 271500Z 13011KT 3000 -DZ OVC010 18/17 Q1013 NOSIG
