2019/05/27 06:00
SABE 270600Z VRB02KT 6000 SCT023 SCT075 15/14 Q1012
