2019/04/28 08:00
SABE 280800Z 29003KT 230V310 5000 BR FEW009 SCT014 BKN036 18/16 Q1012 NOSIG
