2019/03/28 14:00
SABE 281400Z 05011KT CAVOK 21/15 Q1027 NOSIG
