2019/05/28 07:00
SABE 280700Z 00000KT 8000 NSC 14/13 Q1013 NOSIG
