2019/03/29 09:00
SABE 290900Z 36006KT 320V050 9999 FEW020 BKN100 20/17 Q1022 NOSIG
