2019/04/29 14:00
SABE 291400Z 28006KT 250V320 CAVOK 19/15 Q1013 NOSIG
