2019/03/30 16:00
SABE 301600Z 04004KT 360V090 9999 SCT040 25/21 Q1016 NOSIG
