2019/04/30 05:00
SABE 300500Z 16007KT CAVOK 15/04 Q1018 NOSIG
