2019/05/30 18:00
SABE 301800Z 10015KT 8000 RA BKN023 13/09 Q1018
