2019/03/31 11:00
SABE 311100Z VRB02KT 7000 FEW003 22/21 Q1016 NOSIG
