2019/05/31 07:00
SABE 310700Z 14006KT 9999 FEW025 BKN100 14/10 Q1019 NOSIG
