2019/05/01 18:00
LFSD 011800Z AUTO 10003KT CAVOK 17/05 Q1013
