2019/06/01 11:00
LFSD 011100Z AUTO 07007KT 010V120 CAVOK 26/12 Q1022
