2019/04/01 20:30
LFSD 012030Z AUTO 00000KT CAVOK 10/05 Q1013
