2019/06/02 10:30
LFSD 021030Z AUTO 17007KT 100V220 CAVOK 27/16 Q1017
