2019/05/02 08:00
LFSD 030800Z AUTO 16009KT 020V090 7000 FEW021 SCT027 15/07 Q1014
