2019/04/02 10:00
LFSD 021000Z AUTO 18008KT CAVOK 16/07 Q1011
