2019/04/03 08:30
LFSD 030830Z AUTO 15009KT 9999 -RA FEW009/// SCT013/// OVC046/// ///TCU 04/03 Q1004
