2019/05/03 08:00
LFSD 030800Z AUTO 06006KT 020V090 9999 FEW011 SCT017 12/08 Q1014
