2019/06/03 16:00
LFSD 031600Z AUTO 16003KT 120V210 CAVOK 25/15 Q1015
