2019/11/03 21:30
LFSD 032130Z AUTO 20014KT 9999 FEW047 BKN054 BKN072 10/09 Q0996
