2019/06/04 07:30
LFSD 040730Z AUTO 16005KT 110V190 CAVOK 20/16 Q1010
