2019/04/04 08:00
LFSD 040800Z AUTO 28005KT 250V310 9999 SCT014 BKN021 OVC100 05/03 Q0999
