2019/11/04 13:00
LFSD 041300Z AUTO 19012KT 7000 FEW028 SCT037 BKN096 14/11 Q0994
