2019/05/05 15:00
LFSD 051500Z AUTO 02009KT 340V050 CAVOK 10/M00 Q1019
