2019/04/05 09:30
LFSD 050930Z AUTO 03006KT 010V080 CAVOK 08/04 Q1003
