2019/06/05 09:00
LFSD 050900Z AUTO VRB03KT CAVOK 23/14 Q1007
