2019/04/06 10:00
LFSD 061000Z AUTO 04005KT 010V080 CAVOK 10/05 Q1001
