2019/06/06 11:30
LFSD 061130Z AUTO 14006KT 070V220 9999 FEW039 SCT050 18/08 Q1015
