2019/11/06 13:00
LFSD 061300Z AUTO 23004KT 210V280 9999 -RA BKN028 BKN036 OVC045 10/08 Q1007
