2019/06/07 10:00
LFSD 071000Z AUTO 19018KT CAVOK 24/07 Q1008
