2019/04/07 13:30
LFSD 071330Z AUTO 20004KT 160V220 9999 -RA FEW012/// BKN019/// BKN043/// ///TCU 10/07 Q1008
