2019/11/07 14:30
LFSD 071430Z AUTO 20009KT CAVOK 10/04 Q1004
