2019/06/08 13:00
LFSD 081300Z AUTO 18009KT 060V230 CAVOK 20/04 Q1024
