2019/04/08 09:00
LFSD 080900Z AUTO 00000KT 9999 BKN006/// BKN048/// BKN074/// ///CB 09/08 Q1011
