2019/06/09 12:30
LFSD 091230Z AUTO VRB02KT CAVOK 19/11 Q1019
