2019/04/09 07:00
LFSD 090700Z AUTO VRB02KT CAVOK 06/06 Q1010
