2019/05/09 08:00
LFSD 090800Z AUTO 20017KT 9999 BKN031 OVC037 12/09 Q1001
