2019/08/09 10:30
LFSD 091030Z AUTO 19013KT 9999 ///CB 28/19 Q1010
