2020/02/09 17:00
LFSD 100000Z AUTO 19026G41KT 9999 OVC032 11/06 Q1010
