2019/06/10 12:30
LFSD 101230Z AUTO 16008KT 9999 -RA FEW008/// BKN012/// BKN017/// ///CB 17/16 Q1013
