2019/05/10 09:00
LFSD 100900Z AUTO 17006KT 140V210 CAVOK 14/09 Q1013
