2019/04/10 07:00
LFSD 100700Z AUTO VRB01KT CAVOK 08/06 Q1010
