2020/02/11 16:00
LFSD 111600Z AUTO 24011KT CAVOK 09/01 Q1018
