2019/04/11 07:00
LFSD 110700Z AUTO 01010KT CAVOK 08/03 Q1015
