2019/05/11 16:30
LFSD 111630Z AUTO 28009KT 240V310 9999 FEW038/// BKN088/// BKN160/// ///TCU 14/07 Q1020
