2019/04/12 07:00
LFSD 120700Z AUTO 01010KT CAVOK 05/M02 Q1018
