2019/05/13 07:00
LFSD 130700Z AUTO 01015KT CAVOK 10/02 Q1031
