2019/06/13 12:00
LFSD 131200Z AUTO 16008KT 110V230 CAVOK 23/08 Q1014
