2019/04/13 12:00
LFSD 131200Z AUTO 03008KT 360V070 CAVOK 09/M02 Q1019
