2019/04/14 09:30
LFSD 140930Z AUTO 01010KT 8000 FEW031 06/M01 Q1020
