2019/05/14 07:30
LFSD 140730Z AUTO 03015KT CAVOK 12/00 Q1026
