2019/06/15 16:00
LFSD 151600Z AUTO VRB03KT 9999 -RA FEW028/// BKN040/// BKN049/// ///CB 17/16 Q1018
