2019/04/15 07:30
LFSD 150730Z AUTO 04009KT 9000 NSC 06/01 Q1020
