2019/05/15 14:30
LFSD 151430Z AUTO 01015KT CAVOK 16/02 Q1018
