2019/05/16 15:30
LFSD 161530Z AUTO 09008KT 050V110 CAVOK 17/05 Q1010
