2019/06/17 13:30
LFSD 171330Z AUTO 04006KT 350V100 CAVOK 26/14 Q1017
