2019/04/18 08:00
LFSD 170800Z AUTO 36003KT 3900 BR BKN031 OVC004 09/09 Q1021
