2019/05/18 11:30
LFSD 181130Z AUTO VRB02KT CAVOK 17/10 Q1006
