2019/04/19 09:00
LFSD 190900Z AUTO 14003KT 090V190 CAVOK 17/10 Q1026
