2019/05/20 15:00
LFSD 201500Z AUTO 29008KT 260V340 9999 OVC013 13/10 Q1011
