2019/04/21 07:30
LFSD 210730Z AUTO 01004KT CAVOK 15/04 Q1018
