2019/09/22 13:30
LFSD 221330Z AUTO VRB08KT CAVOK 27/14 Q1008
