2019/04/22 09:30
LFSD 220930Z AUTO 02007KT 350V050 CAVOK 18/10 Q1006
