2019/06/22 17:30
LFSD 221730Z AUTO VRB03KT CAVOK 22/14 Q1016
