2019/04/23 09:30
LFSD 220930Z AUTO 12007KT 350V050 9999 FEW030 15/10 Q1005
