2019/04/24 12:00
LFSD 241200Z AUTO 22014KT 9999 -RA FEW023/// SCT031/// BKN038/// ///CB 11/09 Q1004
