2019/04/25 12:00
LFSD 251200Z AUTO 29013KT 9999 -RA FEW048/// OVC074/// ///TCU 13/10 Q1007
