2019/04/26 11:30
LFSD 261130Z AUTO 19005KT 110V240 9999 BKN022 BKN090 BKN110 13/07 Q1016
