2019/05/27 06:30
LFSD 270630Z AUTO VRB02KT CAVOK 15/12 Q1013
