2019/04/27 15:00
LFSD 271500Z AUTO 24012KT 9999 FEW011/// SCT058/// OVC084/// ///TCU 10/05 Q1019
