2019/03/27 13:30
LFSD 271330Z AUTO 02013KT CAVOK 13/01 Q1029
