2019/05/28 07:30
LFSD 280730Z AUTO 31005KT CAVOK 13/09 Q1011
