2019/04/28 08:30
LFSD 280830Z AUTO 26006KT 230V300 9999 FEW014 10/05 Q1022
