2019/03/28 14:00
LFSD 281400Z AUTO 02011KT 350V080 CAVOK 15/00 Q1029
