2019/03/29 09:00
LFSD 290900Z AUTO 14007KT 090V180 CAVOK 11/03 Q1028
