2019/04/29 14:30
LFSD 291430Z AUTO 02005KT 320V090 9999 FEW044 SCT058 14/04 Q1022
