2019/03/30 16:00
LFSD 301600Z AUTO 17004KT 120V220 CAVOK 19/01 Q1020
