2019/04/30 07:30
LFSD 300730Z AUTO 02010KT 9999 SCT042 BKN052 12/07 Q1020
