2019/05/30 18:00
LFSD 301800Z AUTO 35005KT 320V020 CAVOK 19/10 Q1026
