2019/05/31 07:30
LFSD 310730Z AUTO 01008KT 340V040 CAVOK 24/11 Q1024
