2019/03/31 11:00
LFSD 311100Z AUTO VRB02KT CAVOK 16/03 Q1019
