2019/06/01 11:53
KDAB 011153Z 25007KT 10SM FEW015 FEW035 FEW250 26/26 A2993 RMK AO2 SLP135 CB DSNT W T02610256 10261 20228 51008
