2019/04/01 20:53
KDAB 012053Z 32008KT 10SM -RA BKN006 OVC050 18/18 A3007 RMK AO2 PRESRR SLP182 P0002 60015 T01830183 58019 $
