2019/05/01 19:53
KDAB 011953Z 10011G17KT 10SM SCT028 BKN037 26/21 A3019 RMK AO2 SLP221 T02610206
