2019/04/02 11:53
KDAB 021153Z 00000KT 6SM BR OVC003 15/15 A3005 RMK AO2 SLP174 70018 T01500150 10161 20150 53008 $
