2019/05/02 16:53
KDAB 011953Z 17015G20KT 5SM -RA SCT030 BKN055 27/22 A3019 RMK AO2 SLP221 T02610206
