2019/04/03 12:53
KDAB 031253Z 04013KT 10SM FEW250 17/10 A3029 RMK AO2 SLP256 T01720100
