2019/06/03 16:53
KDAB 031653Z 29009KT 10SM SCT040 SCT095 34/23 A2996 RMK AO2 SLP144 T03390228
