2019/05/03 12:10
KDAB 011953Z 19018G23KT 5SM RA SCT010 OVC045 29/23 A3019 RMK AO2 SLP221 T02610206
