2019/06/04 15:53
KDAB 041553Z 08008KT 10SM FEW030 FEW250 32/24 A3006 RMK AO2 SLP179 T03170244
