2019/04/04 07:53
KDAB 040753Z 00000KT 10SM MIFG FEW250 14/14 A3028 RMK AO2 SLP253 T01390139
