2019/05/04 16:53
KDAB 041653Z 22008KT 10SM SCT036 SCT055 BKN250 30/23 A2997 RMK AO2 SLP148 T03000228
