2019/11/04 16:53
KDAB 041653Z 08010KT 10SM SCT028 BKN060 27/21 A3013 RMK AO2 SLP201 T02670206
