2019/04/05 09:53
KDAB 050953Z 00000KT 10SM SCT045 OVC100 19/18 A3012 RMK AO2 LTG DSNT SW-N SLP197 FRQ LTGICCC DSNT SW-NW CB DSNT SW-NW T01890178
