2019/05/05 09:53
KDAB 050953Z 20005KT 10SM CLR 21/21 A2988 RMK AO2 SLP118 T02110211
