2019/06/05 14:53
KDAB 051453Z VRB04KT 10SM SCT023 SCT036 SCT250 30/24 A3005 RMK AO2 SLP175 T03000244 58004
