2019/06/06 12:53
KDAB 061253Z 17008KT 10SM FEW040 FEW130 SCT250 27/24 A2996 RMK AO2 SLP143 T02670244
