2019/04/06 09:53
KDAB 060953Z 00000KT 8SM MIFG FEW200 17/17 A3011 RMK AO2 SLP194 T01720172
