2019/04/07 13:53
KDAB 071353Z VRB04KT 10SM SCT011 SCT250 24/23 A3021 RMK AO2 SLP229 T02440233 $
