2019/05/07 11:53
KDAB 071153Z 07004KT 10SM FEW070 BKN250 24/24 A3006 RMK AO2 SLP177 T02440239 10244 20211 53017
