2019/11/07 14:53
KDAB 071453Z 05006KT 10SM FEW023TCU FEW035 27/22 A3017 RMK AO2 SLP214 TCU E T02720222 50008
