2019/04/08 11:53
KDAB 081153Z 00000KT 8SM FEW014 BKN250 21/21 A3010 RMK AO2 SLP190 FEW V SCT T02110211 10211 20183 53001
