2019/06/08 13:53
KDAB 081353Z 25012G22KT 7SM -RA BKN015CB BKN030 BKN080 OVC200 25/23 A2994 RMK AO2 RAB34 SLP138 CB SE-SW-W MOV NE P0000 T02500233
