2019/06/09 12:53
KDAB 091253Z 21008KT 10SM FEW060 BKN100 BKN200 26/25 A2997 RMK AO2 SLP147 T02560250 $
