2019/04/09 07:53
KDAB 090753Z 19005KT 10SM SCT090 BKN250 21/21 A2990 RMK AO2 SLP125 T02060206
