2019/05/09 11:53
KDAB 091153Z 11004KT 10SM FEW025 SCT150 24/21 A3007 RMK AO2 SLP181 T02440211 10244 20211 53012
