2019/05/10 09:53
KDAB 100953Z 00000KT 10SM FEW022 SCT130 22/21 A3000 RMK AO2 SLP159 T02220206
