2019/06/10 13:53
KDAB 101353Z 24007KT 10SM FEW025 FEW160 SCT250 27/24 A3001 RMK AO2 SLP162 T02720239
