2019/04/10 09:53
KDAB 100953Z 00000KT 8SM FEW012 FEW047 SCT130 19/19 A2975 RMK AO2 SLP074 T01890189 $
