2019/05/11 17:53
KDAB 111753Z 12008KT 10SM FEW031 FEW047 BKN250 29/24 A2997 RMK AO2 SLP147 CB DSNT E T02890239 10300 20228 58013
