2019/04/11 07:53
KDAB 110753Z 31003KT 8SM MIFG FEW020 18/18 A2985 RMK AO2 SLP106 T01780178
