2019/04/12 07:53
KDAB 120753Z 00000KT 8SM MIFG FEW019 21/21 A2996 RMK AO2 SLP143 T02060206
