2019/05/12 10:53
KDAB 121053Z 19005KT 10SM SCT250 22/22 A2993 RMK AO2 SLP136 T02220222
