2019/05/13 14:40
KDAB 131440Z 22009KT 10SM TS BKN022CB BKN032 BKN100 BKN200 28/24 A2987 RMK AO2 LTG DSNT W AND NW TSE38B40 OCNL LTGICCG VC NW TS VC NW MOV E TCU NE-SE-S DS CB DSNT SW-W T02830239
