2019/06/13 13:09
KDAB 131309Z 29009KT TS FEW014 BKN020CB BKN060 23/23 A3005 RMK AO2 SFC VIS 10 LTG DSNT S AND SW RAE03 TSB08 OCNL LTGICCG OHD-E TS OHD-E MOV E P0016 T02330228
