2019/04/13 15:53
KDAB 131553Z 19004KT 10SM FEW036 SCT042 BKN200 28/21 A3004 RMK AO2 SLP172 T02830211
