2019/04/15 14:53
KDAB 151453Z 30010G18KT 10SM CLR 21/14 A3002 RMK AO2 SLP164 T02060139 51015 $
