2019/05/15 15:53
KDAB 151553Z 09006KT 10SM SCT041 BKN055 26/18 A3002 RMK AO2 SLP165 T02560178
