2019/06/15 18:53
KDAB 151853Z 08009KT 10SM FEW027 FEW050 FEW100 SCT200 30/24 A3010 RMK AO2 SLP193 CB DSNT NE S-W TCU DSNT NW T03000239
