2019/04/16 16:53
KDAB 161653Z 04011KT 10SM FEW050 25/14 A3021 RMK AO2 SLP228 T02500139
