2019/06/16 12:53
KDAB 161253Z VRB04KT 10SM SCT017 SCT030 SCT200 28/24 A3007 RMK AO2 SLP180 CB DSNT E-SE T02780244
