2019/05/17 12:53
KDAB 171253Z 20003KT 10SM FEW045 FEW075 23/19 A3007 RMK AO2 SLP181 T02330189
