2019/04/18 14:53
KDAB 171453Z 27005KT 10SM SCT038 BKN200 25/17 A3017 RMK AO2 SLP215 T02500167 53008
