2019/05/18 11:53
KDAB 181153Z 00000KT 10SM SCT070 21/20 A3005 RMK AO2 SLP176 T02060200 10206 20178 53007
