2019/04/19 09:53
KDAB 190953Z 18009G19KT 10SM FEW012 FEW028 SCT080 23/22 A2984 RMK AO2 SLP102 T02330222
