2019/05/19 14:53
KDAB 191453Z VRB05KT 10SM SCT028 SCT250 28/21 A3007 RMK AO2 SLP181 T02780211 53006
