2019/04/20 19:53
KDAB 201953Z 26017G24KT 10SM FEW050 FEW070 23/07 A2992 RMK AO2 PK WND 24027/1921 SLP129 T02280072 $
