2019/04/21 07:53
KDAB 210753Z 20003KT 10SM FEW055 13/11 A3003 RMK AO2 SLP169 T01280111 $
