2019/06/22 19:53
KDAB 221953Z 21012KT 10SM FEW041 SCT180 BKN250 34/24 A3007 RMK AO2 SLP182 T03390244
