2019/09/22 17:53
KDAB 221753Z 08012KT 10SM BKN032 BKN046 28/19 A3013 RMK AO2 SLP202 T02780194 10294 20250 58006
