2019/04/23 09:53
KDAB 220953Z 28003KT 10SM FEW125 16/12 A3016 RMK AO2 SLP212 T01220094 $
