2019/04/24 12:53
KDAB 241253Z 27003KT 10SM FEW250 21/18 A3008 RMK AO2 SLP184 T02060178
