2019/03/24 19:53
KDAB 241953Z 09011G18KT 10SM FEW050 FEW180 BKN250 24/14 A3021 RMK AO2 SLP228 T02440139 $
