2019/04/25 11:53
KDAB 251153Z 00000KT 10SM SCT120 BKN230 19/18 A3001 RMK AO2 SLP163 T01890178 10189 20161 53012
