2019/03/25 18:53
KDAB 251853Z 22005KT 10SM BKN060 BKN080 27/14 A3006 RMK AO2 SLP177 T02670144
