2019/03/26 10:53
KDAB 261053Z 26007KT 10SM CLR 15/14 A3001 RMK AO2 SLP160 T01500144
