2019/04/26 20:53
KDAB 262053Z 25016G22KT 10SM FEW043TCU FEW080 30/19 A2978 RMK AO2 SLP085 TCU SE-S T03000194 56018
