2019/04/27 15:53
KDAB 271553Z 04009KT 10SM CLR 26/11 A3007 RMK AO2 SLP182 T02560106 $
