2019/03/27 12:53
KDAB 271253Z 03019G25KT 9SM -RA FEW016 SCT023 BKN049 17/14 A3009 RMK AO2 PK WND 02030/1215 SLP188 P0000 T01670144
