2019/05/27 14:53
KDAB 271453Z 23009KT 10SM FEW080 FEW250 31/22 A3008 RMK AO2 SLP186 T03060217 58006
