2019/05/28 11:53
KDAB 281153Z 21005KT 8SM FEW085 BKN250 24/23 A3001 RMK AO2 SLP160 T02440233 10250 20228 53015
