2019/03/28 17:53
KDAB 281753Z 02018G26KT 10SM FEW030 SCT060 23/16 A3025 RMK AO2 PK WND 03026/1751 SLP244 T02330156 10239 20167 58004
