2019/04/28 08:53
KDAB 280853Z 00000KT 10SM CLR 16/16 A3002 RMK AO2 SLP166 T01610161 56001 $
