2019/03/29 11:53
KDAB 291153Z 00000KT 8SM SCT065 SCT250 15/15 A3019 RMK AO2 SLP224 T01500150 10172 20139 53006
