2019/03/30 15:53
KDAB 301553Z VRB04KT 10SM SCT049 SCT065 BKN250 24/12 A3013 RMK AO2 SLP202 T02390122 $
