2019/04/30 07:53
KDAB 300753Z 09004KT 9SM FEW022 22/22 A3017 RMK AO2 SLP215 T02220217
