2019/03/31 11:53
KDAB 311153Z 22003KT 10SM FEW035 BKN250 16/16 A3005 RMK AO2 SLP173 T01610161 10161 20150 53016 $
