2019/05/31 13:53
KDAB 311353Z 22004KT 10SM FEW070 FEW250 29/23 A3002 RMK AO2 SLP164 T02940233
