2019/06/01 11:53
KMPO 011153Z AUTO 00000KT 10SM CLR 15/13 A2989 RMK AO2 SLP115 T01500133 10150 20100 51005
