2019/04/01 20:53
KMPO 012053Z AUTO 29012G21KT 10SM CLR 02/M13 A3018 RMK AO2 SLP245 T00221128 53001
