2019/05/01 18:53
KMPO 011853Z AUTO 13010G19KT 10SM OVC012 10/07 A3030 RMK AO2 SLP269 T01000072
