2019/05/02 16:53
KMPO 011853Z AUTO 10010G19KT 8SM OVC017 15/09 A3030 RMK AO2 SLP269 T01000072
