2019/04/02 09:53
KMPO 020953Z AUTO 11005KT 10SM CLR M04/M11 A3029 RMK AO2 SLP281 T10441106
