2019/05/03 12:10
KMPO 011853Z AUTO 05010KT 5SM -RA OVC015 17/11 A3030 RMK AO2 SLP269 T01000072
