2019/06/03 16:53
KMPO 031653Z AUTO 27012G18KT 10SM FEW065 14/M01 A2992 RMK AO2 SLP134 T01441006
