2019/11/03 21:53
KMPO 032153Z AUTO 28010KT 10SM BKN050 04/M04 A3012 RMK AO2 SLP216 T00391039
