2019/04/04 07:53
KMPO 040753Z AUTO 29009KT 10SM CLR 02/M09 A3023 RMK AO2 SLP247 T00171089
