2019/05/04 16:53
KMPO 041653Z AUTO 00000KT 10SM OVC030 18/13 A2988 RMK AO2 RAB41E48 SLP116 P0000 T01830133
