2019/11/04 16:53
KMPO 041653Z AUTO 18009KT 10SM BKN110 07/M04 A3027 RMK AO2 SLP267 T00671039 $
