2019/06/05 14:53
KMPO 051453Z AUTO 24009KT 10SM CLR 21/13 A2984 RMK AO2 PRESRR SLP098 60000 T02110128 53022
