2019/04/05 09:53
KMPO 050953Z AUTO 11006KT 10SM BKN110 M02/M16 A3040 RMK AO2 SLP311 T10171156
