2019/05/05 09:53
KMPO 050953Z AUTO 05005KT 10SM RA OVC004 12/12 A2981 RMK AO2 SLP089 P0010 T01220122
