2019/06/06 13:06
KMPO 061306Z AUTO 32012KT 10SM SCT010 BKN014 BKN030 19/17 A2973 RMK AO2 T01890167
