2019/04/06 10:28
KMPO 061028Z AUTO 30005KT 10SM FEW003 OVC080 01/01 A3014 RMK AO2 T00110011
