2019/05/07 12:07
KMPO 071207Z AUTO 23004KT 3SM BR OVC002 11/11 A3015 RMK AO2 T01060106
