2019/04/07 13:53
KMPO 071353Z AUTO 18007KT 150V220 10SM CLR 13/04 A3026 RMK AO2 SLP254 T01280044
