2019/11/07 14:53
KMPO 071453Z AUTO 22008KT 10SM -RA OVC070 07/03 A3010 RMK AO2 RAB52 SLP209 P0000 60000 T00670028 58010
