2019/04/08 12:39
KMPO 081239Z AUTO 24009KT 1 1/4SM BR OVC002 11/11 A2984 RMK AO2 T01060106
