2019/04/09 07:53
KMPO 090753Z AUTO 00000KT 10SM CLR 06/06 A2973 RMK AO2 SLP066 T00610056
