2019/05/09 11:53
KMPO 091153Z AUTO 11010KT 10SM SCT040 OVC055 08/03 A3028 RMK AO2 SLP256 T00830033 10111 20078 50006
