2019/05/10 10:32
KMPO 101032Z AUTO 10005KT 1/4SM FG VV001 10/10 A3007 RMK AO2 T01000100
