2019/04/10 09:53
KMPO 100953Z AUTO 25005KT 10SM CLR 01/M01 A2973 RMK AO2 SLP072 T00111011 $
