2019/04/11 07:53
KMPO 110753Z AUTO 00000KT 10SM OVC110 M01/M07 A3007 RMK AO2 SLP198 T10061072
