2019/05/11 17:53
KMPO 111753Z AUTO 30011G16KT 10SM CLR 14/01 A3004 RMK AO2 SLP176 T01390011 10144 20078 58004
