2019/04/12 07:23
KMPO 120723Z AUTO 11006KT 10SM OVC009 04/M03 A3018 RMK AO2 T00391033
