2019/05/12 10:53
KMPO 121053Z AUTO 07013G22KT 10SM -RA OVC002 06/06 A2990 RMK AO2 SLP128 P0006 T00560056
