2019/05/13 14:42
KMPO 131442Z AUTO 10008KT 2SM BR OVC002 03/03 A2981 RMK AO2 VIS 1 1/4V4 T00330033
