2019/06/13 13:02
KMPO 131302Z AUTO 10011G21KT 10SM -RA FEW003 BKN008 OVC095 09/09 A2986 RMK AO2 P0001 T00940094
