2019/04/13 15:53
KMPO 131553Z AUTO 24012KT 10SM CLR 18/10 A3008 RMK AO2 SLP184 T01780100
