2019/04/14 20:27
KMPO 142027Z AUTO 16009KT 1/2SM FG VV001 16/16 A2974 RMK AO2 RAE05 P0000 T01560156
