2019/04/15 14:49
KMPO 151449Z AUTO 26020G30KT 10SM -RA FEW013 BKN021 OVC060 08/07 A2939 RMK AO2 PK WND 26032/1406 RAB23 P0000
