2019/06/15 18:53
KMPO 151853Z AUTO 19013G18KT 10SM SCT085 BKN120 21/10 A3004 RMK AO2 SLP171 T02110100
