2019/05/15 15:53
KMPO 151553Z AUTO 29013G22KT 10SM FEW060 13/04 A2987 RMK AO2 SLP121 T01280044
