2019/04/16 16:53
KMPO 161653Z AUTO 28019G25KT 10SM CLR 10/M07 A3001 RMK AO2 SLP173 T01001072
