2019/06/16 12:53
KMPO 161253Z AUTO 20004KT 10SM BKN120 18/14 A2991 RMK AO2 SLP121 T01830139
