2019/05/17 12:53
KMPO 171253Z AUTO 24011KT 10SM OVC100 17/08 A2981 RMK AO2 SLP093 T01670083
