2019/04/17 14:53
KMPO 171453Z AUTO 09008KT 10SM OVC032 07/00 A3014 RMK AO2 SLP218 T00670000 53007
