2019/04/18 14:53
KMPO 171453Z AUTO 27005KT 7SM OVC032 07/00 A3014 RMK AO2 SLP218 T00670000 53007
