2019/04/19 09:53
KMPO 190953Z AUTO 19008G15KT 10SM OVC012 14/13 A2978 RMK AO2 SLP081 T01440133
