2019/05/19 14:53
KMPO 191453Z AUTO 19010KT 10SM CLR 22/16 A3005 RMK AO2 SLP170 T02220161 58006
