2019/04/20 19:53
KMPO 201953Z AUTO 15013G21KT 120V180 10SM SCT015 SCT023 BKN029 17/14 A2967 RMK AO2 SLP040 T01720144
