2019/04/21 07:53
KMPO 210753Z AUTO 00000KT 10SM FEW080 BKN100 09/09 A2984 RMK AO2 SLP105 T00940089
