2019/09/22 17:53
KMPO 221753Z AUTO 25009KT 10SM SCT070 SCT085 27/17 A3016 RMK AO2 SLP206 T02670172 10272 20150 58014
