2019/06/22 19:53
KMPO 221953Z AUTO 32017G23KT 10SM SCT060 22/09 A3000 RMK AO2 PK WND 33028/1912 SLP152 T02170089 $
