2019/04/22 10:24
KMPO 221024Z AUTO 34012KT 10SM FEW008 OVC035 08/07 A3010 RMK AO2 T00780067
