2019/04/23 10:24
KMPO 221024Z AUTO 31012KT 10SM FEW018 08/05 A3010 RMK AO2 T00780067
