2019/03/24 17:53
KMPO 241753Z AUTO 25015G21KT 10SM CLR 08/M09 A3009 RMK AO2 SLP204 T00831094 10083 21022 58016
