2019/04/24 12:53
KMPO 241253Z AUTO 30021G26KT 10SM CLR 08/03 A2980 RMK AO2 PK WND 31029/1232 SLP090 T00830028
