2019/04/25 11:53
KMPO 251153Z AUTO 34006KT 10SM CLR 08/03 A2994 RMK AO2 SLP143 T00830028 10083 20022 53008
