2019/03/25 18:53
KMPO 251853Z AUTO 33009KT 10SM BKN075 OVC090 04/M07 A3002 RMK AO2 SLP180 T00391067
