2019/05/26 20:53
KMPO 262053Z AUTO 28009KT 10SM RA FEW024 BKN070 OVC100 20/19 A2998 RMK AO2 RAE01B18 SLP144 P0004 60004 T02000189 55002
