2019/03/26 10:53
KMPO 261053Z AUTO 35015G19KT 10SM CLR M06/M13 A3013 RMK AO2 SLP228 T10611133
