2019/04/26 20:59
KMPO 262059Z AUTO 12010G20KT 3SM BR OVC002 12/12 A2936 RMK AO2 T01220122
