2019/05/27 14:53
KMPO 271453Z AUTO 01014G18KT 10SM FEW045 19/09 A3002 RMK AO2 SLP157 T01940094 50001
