2019/04/27 15:53
KMPO 271553Z AUTO 29021G28KT 10SM BKN039 OVC049 05/M02 A2957 RMK AO2 PK WND 27037/1526 RAB35E49 SLP022 P0000 T00501017
