2019/03/27 12:53
KMPO 271253Z AUTO VRB06KT 10SM CLR M03/M16 A3043 RMK AO2 SLP330 T10281156
