2019/04/28 08:53
KMPO 280853Z AUTO 00000KT 10SM OVC050 03/01 A2988 RMK AO2 SLP129 T00280006 55006
