2019/03/28 17:53
KMPO 281753Z AUTO 17008G15KT 10SM CLR 09/M03 A3024 RMK AO2 SLP255 T00941028 10094 21017 58026
