2019/05/28 11:53
KMPO 281153Z AUTO 10009KT 10SM FEW060 OVC090 13/09 A2990 RMK AO2 RAB03E47 SLP119 P0000 60000 T01280094 10144 20100 58012
