2019/03/29 11:53
KMPO 291153Z AUTO 24003KT 10SM SCT065 OVC100 07/02 A3006 RMK AO2 SLP186 60000 T00670022 10067 20056 55002
