2019/04/30 08:13
KMPO 300813Z AUTO 21006KT 2SM BR OVC002 07/07 A3010 RMK AO2 T00670067
