2019/03/30 15:53
KMPO 301553Z AUTO 14013G20KT 120V180 10SM SCT095 OVC120 16/05 A2998 RMK AO2 SLP154 T01560050
