2019/03/31 11:53
KMPO 311153Z AUTO 18009G17KT 10SM FEW039 BKN075 OVC110 11/08 A2963 RMK AO2 RAB01E10B33E49 SLP033 P0000 60000 T01060078 10111 20100 53000
