2019/05/31 13:53
KMPO 311353Z AUTO 29011KT 10SM SCT016 17/13 A2983 RMK AO2 SLP097 T01670128
