2019/06/01 11:20
LIML 011120Z 22004KT 170V290 CAVOK 26/12 Q1021 NOSIG
