2019/04/01 20:20
LIML 012020Z VRB01KT CAVOK 13/05 Q1015 NOSIG
