2019/05/01 18:20
LIML 011820Z VRB02KT CAVOK 21/06 Q1011 NOSIG
