2019/04/02 12:20
LIML 021220Z 14005KT 090V180 8000 SCT030 20/05 Q1013 NOSIG
