2019/05/02 07:50
LIML 030750Z 19003KT 130V220 9999 FEW020 19/09 Q1010 NOSIG
