2019/06/02 10:20
LIML 021020Z VRB02KT CAVOK 26/15 Q1018 NOSIG
