2019/05/03 07:50
LIML 030750Z 17003KT 130V220 9999 FEW030 15/11 Q1009 NOSIG
