2019/06/03 15:50
LIML 031550Z 23005KT 180V300 CAVOK 31/13 Q1013 NOSIG
