2019/04/03 08:50
LIML 030850Z 06003KT 030V110 9999 FEW050 BKN080 14/07 Q1009 NOSIG
