2019/11/03 21:50
LIML 032150Z 26004KT 220V280 9999 FEW005 BKN015 11/10 Q0994 NOSIG
