2019/06/04 07:20
LIML 040720Z 25003KT 160V300 CAVOK 23/16 Q1014 NOSIG
