2019/04/04 07:50
LIML 040750Z 12013KT 9999 SCT050 BKN090 11/10 Q0997 NOSIG
