2019/05/04 20:20
LIML 042020Z 28007KT 6000 TSRA SCT010CB BKN030 14/10 Q1000 NOSIG
