2019/05/05 09:20
LIML 050920Z 11005KT 060V160 9999 -RA SCT020 BKN045 09/05 Q1003 NOSIG
