2019/04/05 09:20
LIML 050920Z 27005KT 210V300 CAVOK 11/06 Q1001 NOSIG
