2019/06/05 08:50
LIML 050850Z 28005KT 230V320 CAVOK 25/13 Q1010 NOSIG
