2019/06/06 11:50
LIML 061150Z 15005KT 100V200 9999 FEW035 25/14 Q1012 NOSIG
