2019/04/07 13:20
LIML 071320Z 10004KT 030V160 8000 -RA BKN050 12/08 Q1006 NOSIG
