2019/05/07 07:20
LIML 070720Z 11006KT 080V140 CAVOK 13/02 Q1019 NOSIG
