2019/06/07 10:20
LIML 071020Z AUTO 03004KT 310V120 9999 NCD 25/10 Q1017
