2019/11/07 14:20
LIML 071420Z VRB01KT 3500 -RA BR SCT008 BKN040 10/08 Q1008 NOSIG
