2019/06/08 12:50
LIML 081250Z 18004KT 100V270 9999 FEW040 28/15 Q1020 NOSIG
