2019/04/08 08:50
LIML 080850Z 26006KT 230V290 CAVOK 11/08 Q1008 NOSIG
