2019/04/09 06:50
LIML 090650Z 27006KT 240V300 CAVOK 12/06 Q1008 NOSIG
