2019/06/09 12:20
LIML 091220Z 14007KT 090V200 9000 RA SCT030 SCT060 26/17 Q1020
