2019/05/09 07:50
LIML 090750Z 17003KT 100V200 9999 BKN025 13/10 Q1006 NOSIG
