2020/02/10 19:20
LIML 101920Z 34003KT 8000 NSC 06/05 Q1010 NOSIG
