2019/06/10 12:50
LIML 101250Z 03004KT 340V070 8000 FEW035 SCT050 24/20 Q1011 NOSIG
