2019/05/10 09:20
LIML 100920Z 30004KT 090V170 9999 SCT015 SCT045 19/14 Q1008 NOSIG
