2020/02/11 15:50
LIML 111550Z 36007KT CAVOK 18/M03 Q1008 NOSIG
