2019/05/11 16:50
LIML 111650Z 36015KT 330V030 5000 TSRA SCT010CB BKN025 11/10 Q1011 BECMG NSW
