2019/04/11 06:50
LIML 110650Z VRB02KT 4000 RA BKN005 OVC020 11/10 Q1008 NOSIG
