2019/05/12 09:50
LIML 120950Z VRB01KT 9999 FEW020 BKN070 14/10 Q1015 NOSIG
