2019/04/12 06:50
LIML 120650Z 04003KT 020V080 8000 SCT040 BKN060 12/10 Q1013 NOSIG
