2019/04/13 11:50
LIML 131150Z 11007KT 070V160 9999 SCT030 14/07 Q1014 NOSIG
