2019/06/13 12:20
LIML 131220Z 26005KT 220V300 CAVOK 26/10 Q1015 NOSIG
