2019/05/14 07:20
LIML 140720Z 10005KT 070V130 CAVOK 16/10 Q1018 NOSIG
