2019/04/14 09:20
LIML 140920Z AUTO 03008KT 7000 DZ OVC026/// 08/06 Q1013
