2019/06/15 15:50
LIML 151550Z 21005KT 180V300 9999 FEW050 29/18 Q1012 NOSIG
