2019/04/15 07:50
LIML 150750Z VRB02KT 9999 FEW050 BKN080 11/07 Q1020 NOSIG
