2019/05/15 14:20
LIML 151420Z 17009KT 120V190 9999 FEW025 SCT100 13/06 Q1015 NOSIG
