2019/06/16 10:20
LIML 161020Z 25006KT 190V300 CAVOK 28/15 Q1014 NOSIG
