2019/05/16 14:50
LIML 161450Z 15005KT 110V200 9999 FEW060 20/08 Q1010 NOSIG
