2019/05/17 07:20
LIML 170720Z 11008KT 070V130 9999 SCT080 16/07 Q1010 NOSIG
