2019/06/17 13:50
LIML 171350Z VRB05KT 9999 SCT030 30/14 Q1015 NOSIG
