2019/05/18 11:20
LIML 181120Z 35008KT 320V020 9999 BKN050 15/12 Q1007 NOSIG
