2019/04/18 07:50
LIML 170750Z 07003KT 020V120 NSC 15/07 Q1021 NOSIG
