2019/04/19 08:50
LIML 190850Z 13006KT 080V160 CAVOK 17/07 Q1031 NOSIG
