2019/05/19 13:50
LIML 191350Z VRB02KT 8000 -RA SCT010 BKN025 15/13 Q1005 NOSIG
