2019/05/20 15:20
LIML 201520Z 22003KT 170V270 9999 -RA SCT020 BKN050 17/13 Q1006 NOSIG
