2019/04/21 07:50
LIML 210750Z VRB02KT 9999 FEW030 SCT090 17/09 Q1022 NOSIG
