2019/12/21 11:50
LIML 211150Z 24004KT 200V270 4000 BR OVC004 10/10 Q0993 NOSIG
