2019/04/22 09:20
LIML 220920Z 14008KT 080V160 9999 BKN090 15/08 Q1014 NOSIG
