2019/04/22 09:20
LIML 220920Z 13008KT 080V160 9999 BKN070 16/10 Q1014 NOSIG
