2019/04/24 12:20
LIML 241220Z 12006KT 080V140 9999 BKN050 17/14 Q1013 NOSIG
