2019/03/24 15:50
LIML 241550Z VRB03KT CAVOK 24/02 Q1017 NOSIG
