2019/03/25 17:50
LIML 251750Z 36022KT 9999 FEW060 18/M06 Q1007 NOSIG
