2019/04/25 06:50
LIML 250650Z 12006KT 8000 FEW005 SCT045 14/13 Q1019 NOSIG
