2019/04/26 11:50
LIML 261150Z 21011KT 190V260 9999 TSRA VCTS FEW010CB BKN030 20/09 Q1012
