2019/03/26 07:20
LIML 260720Z 03003KT 340V110 CAVOK 07/03 Q1022 NOSIG
