2019/03/27 09:20
LIML 270920Z 13007KT 070V170 CAVOK 12/01 Q1027 NOSIG
