2019/05/27 06:20
LIML 270620Z 10003KT 040V140 9999 -RA FEW015 SCT025 17/15 Q1011 NOSIG
