2019/03/28 14:20
LIML 281420Z VRB04KT CAVOK 15/01 Q1028 NOSIG
