2019/05/28 07:20
LIML 280720Z 26003KT 220V310 6000 SCT010 SCT030 BKN090 17/15 Q1005 NOSIG
