2020/03/29 22:20
LIML 292220Z AUTO 07009KT 040V100 9999 RA BKN064/// 13/08 Q1011
