2019/05/30 18:20
LIML 301820Z 13008KT CAVOK 22/11 Q1021 NOSIG
