2019/04/30 07:20
LIML 300720Z 24003KT 200V300 CAVOK 13/08 Q1013 NOSIG
