2019/03/31 10:50
LIML 311050Z VRB03KT CAVOK 18/01 Q1018 NOSIG
