2019/05/31 07:20
LIML 310720Z 19003KT 040V120 CAVOK 24/12 Q1023 NOSIG
