2019/04/01 20:30
LFBT 012030Z AUTO 18002KT 9999 -RA BKN054/// BKN070/// OVC100/// ///TCU 12/10 Q1015 BECMG BKN050 OVC090
