2019/06/01 11:30
LFBT 011130Z AUTO 02003KT 310V100 CAVOK 29/13 Q1020 NOSIG
