2019/05/01 18:30
LFBT 011830Z AUTO 28015G25KT 9999 BKN010/// OVC048/// ///TCU 15/10 Q1016
