2019/04/02 07:30
LFBT 020730Z AUTO 27006KT 9999 SCT009/// SCT015/// BKN044/// ///TCU 10/09 Q1016 TEMPO 4000 -RA OVC005
