2019/05/02 14:30
LFBT 021430Z AUTO 29007KT 250V340 9999 FEW033 SCT047 OVC070 16/10 Q1017 NOSIG
