2019/06/02 10:30
LFBT 021030Z AUTO 06003KT 340V140 CAVOK 28/13 Q1018 NOSIG
