2019/05/03 12:00
LFBT 031200Z AUTO 25006KT 220V280 4000 SHRA BKN010 BKN020TCU OVC027 09/06 Q1015
