2019/06/03 16:00
LFBT 031600Z AUTO 02005KT 330V050 CAVOK 24/14 Q1015 NOSIG
