2019/04/03 07:30
LFBT 030730Z AUTO 28013KT 240V300 8000 RA BKN012/// OVC019/// ///TCU 06/05 Q1008 TEMPO 30015G25KT 4000 SHRA BKN015CB
