2019/11/03 22:00
LFBT 032200Z AUTO 24015G25KT 9999 -RA BKN014 OVC030 ///TCU 11/09 Q1004
