2019/06/04 07:30
LFBT 040730Z AUTO 35007KT CAVOK 21/16 Q1008 NOSIG
