2019/05/04 14:00
LFBT 041400Z AUTO 27015G25KT 4000 SHRA BKN020TCU BKN058 OVC068 13/07 Q1015
