2019/04/04 07:30
LFBT 040730Z AUTO 19007KT 9999 FEW016 SCT030 BKN038 03/02 Q1004 BECMG 27010KT
