2019/11/04 13:30
LFBT 041330Z AUTO 29018G28KT 240V300 3000 SHRA BKN012/// OVC017/// ///TCU 13/12 Q1003
