2019/06/05 10:30
LFBT 051030Z AUTO 28015G25KT 2000 RA OVC004/// FEW030CB/// ///CB 10/09 Q1012
