2019/04/05 09:30
LFBT 050930Z AUTO 34003KT 300V040 CAVOK 10/05 Q0998 NOSIG
