2019/05/05 10:00
LFBT 051000Z AUTO 02004KT 320V090 CAVOK 10/02 Q1023 BECMG SCT040TCU
