2019/06/06 12:00
LFBT 061200Z AUTO 09015G25KT 020V140 9999 SCT030 SCT096 18/11 Q1012
