2019/04/06 09:30
LFBT 060930Z AUTO 19005KT 4000 RA SCT072 OVC088 08/05 Q0999
