2019/11/06 13:30
LFBT 061330Z AUTO 24013KT 3000 SHRA BKN014 FEW020CB BKN025TCU 13/07 Q1012
