2019/04/07 13:30
LFBT 071330Z AUTO 28012KT 250V320 4000 SHRA BKN030 BKN040 13/06 Q1010
