2019/05/07 07:30
LFBT 070730Z AUTO VRB03KT CAVOK 14/07 Q1016 NOSIG
