2019/11/07 14:30
LFBT 071430Z AUTO 27018G30KT 3000 RA SCT012/// BKN026/// OVC032/// ///CB 07/06 Q1009
