2019/06/08 13:00
LFBT 081300Z AUTO 04008KT 350V090 9999 FEW038 20/10 Q1023 NOSIG
