2019/04/08 10:30
LFBT 081030Z AUTO 25007KT 4000 -RA BKN025TCU 14/05 Q1011
