2019/04/09 07:00
LFBT 090700Z AUTO VRB03KT 0300 0250 R20/0450N R02/0250N FG VV/// 07/07 Q1010 BECMG 9999 NSW BKN060
