2019/05/09 08:00
LFBT 090800Z AUTO 25010KT 220V280 9999 OVC046 14/08 Q1013 NOSIG
