2019/08/09 10:30
LFBT 091030Z AUTO 30010KT 070V150 CAVOK 33/18 Q1011 BECMG 30010KT
