2019/05/10 09:30
LFBT 100930Z AUTO 19003KT 160V230 4000 SHRA BKN009 OVC014 ///TCU 13/12 Q1003
