2019/06/10 13:00
LFBT 101300Z AUTO 24005KT 210V300 9999 SCT015 BKN025 OVC030 14/11 Q1018 NOSIG
