2019/04/10 07:30
LFBT 100730Z AUTO 25008KT 220V280 9999 BKN011 10/08 Q1013 BECMG SCT020TCU BKN050
