2019/04/11 07:00
LFBT 110700Z AUTO 18005KT 4000 RADZ SCT011 SCT038 BKN044 07/06 Q1019
