2019/05/12 10:00
LFBT 121000Z AUTO 03004KT 300V090 9999 FEW026 16/09 Q1030 NOSIG
