2019/04/12 07:00
LFBT 120700Z AUTO 25008KT 4100 BR SCT046 BKN052 09/07 Q1020 TEMPO BKN012 BECMG 9999 NSW
