2019/05/13 10:30
LFBT 131030Z AUTO 36007KT 300V080 CAVOK 15/04 Q1026 NOSIG
