2019/06/13 12:30
LFBT 131230Z AUTO VRB04KT CAVOK 20/12 Q1012 NOSIG
