2019/04/13 12:00
LFBT 131200Z AUTO 33005KT 290V020 CAVOK 15/01 Q1019 NOSIG
