2019/04/14 09:30
LFBT 140930Z AUTO 29006KT 260V330 4000 +RA OVC060 15/03 Q1017 NOSIG
