2019/04/15 08:30
LFBT 150830Z AUTO VRB03KT CAVOK 13/09 Q1012 NOSIG
