2019/06/15 16:00
LFBT 151600Z AUTO VRB02KT 9999 FEW025 OVC056 18/11 Q1022 NOSIG
