2019/05/15 15:30
LFBT 151530Z AUTO 01007KT 310V050 CAVOK 22/02 Q1014 NOSIG
