2019/04/16 17:00
LFBT 161700Z AUTO 07006KT 330V120 9999 OVC039 16/08 Q1018 NOSIG
