2019/05/16 16:00
LFBT 161600Z AUTO 02007KT 9999 FEW100 SCT140 22/07 Q1006 NOSIG
