2019/05/17 12:30
LFBT 171230Z AUTO 28015G30KT 4000 RA BKN007/// SCT037/// OVC046/// ///TCU 10/09 Q1007
