2019/05/18 11:30
LFBT 181130Z AUTO 28018G28KT 4000 -SHRA SCT030TCU BKN050 BKN052 14/07 Q1009
