2019/04/18 08:00
LFBT 170800Z AUTO 36004KT 310V040 FEW016 BKN031 12/09 Q1013 NOSIG
