2019/05/19 14:30
LFBT 191430Z AUTO 26013KT 230V290 4000 SHRA BKN010 BKN020TCU BKN058 12/08 Q1012
