2019/04/19 09:00
LFBT 190900Z AUTO 01004KT 340V040 SCT025TCU 15/12 Q1020
