2019/04/20 19:30
LFBT 201930Z AUTO 06003KT 360V140 CAVOK 15/03 Q1019 NOSIG
