2019/04/21 08:00
LFBT 210800Z AUTO 11006KT 080V140 4000 -RA BKN012 SCT048 OVC056 11/08 Q1017
