2019/09/22 18:00
LFBT 221800Z AUTO 21004KT 3000 -SHRA SCT020TCU BKN025 BKN040 17/15 Q1017
