2019/06/22 18:00
LFBT 221800Z AUTO 06005KT 010V110 CAVOK 24/14 Q1015 NOSIG
