2019/04/23 21:30
LFBT 222130Z AUTO 19002KT 9999 FEW100 15/05 Q0998 NOSIG
