2019/04/24 12:30
LFBT 241230Z AUTO 18021KT CAVOK 17/04 Q1000 TEMPO 20015G25KT
