2019/03/24 16:00
LFBT 241600Z AUTO 01006KT 320V050 CAVOK 20/02 Q1024 NOSIG
