2019/04/25 07:00
LFBT 250700Z AUTO 16009KT 4000 RA BKN008 BKN040 BKN080 11/10 Q1004
