2019/03/25 16:00
LFBT 251600Z AUTO 34009KT CAVOK 14/02 Q1024 NOSIG
