2019/03/26 09:00
LFBT 260900Z AUTO 06006KT 010V090 CAVOK 08/M01 Q1028 NOSIG
