2019/04/26 12:00
LFBT 261200Z AUTO 27018G30KT 4800 2300 SHRA FEW020CB BKN025TCU BKN049/// ///TCU 10/08 Q1023
