2019/03/27 10:00
LFBT 271000Z AUTO VRB03KT CAVOK 12/00 Q1028 NOSIG
