2019/04/27 15:30
LFBT 271530Z AUTO 28015G25KT 4000 SHRA SCT008 BKN015TCU BKN030 14/11 Q1027
