2019/05/27 14:30
LFBT 271430Z AUTO 27008KT 240V300 2000 RADZ OVC003 15/12 Q1017
