2019/04/28 08:30
LFBT 280830Z AUTO VRB03KT 9999 FEW019 SCT028 OVC035 11/06 Q1027 NOSIG
