2019/05/28 08:30
LFBT 280830Z AUTO 24013KT 4000 -SHRA BKN013TCU BKN066 14/08 Q1019
