2019/03/28 14:30
LFBT 281430Z AUTO 36007KT 320V090 CAVOK 16/03 Q1027 NOSIG
