2019/03/29 11:00
LFBT 291100Z AUTO 04005KT 360V110 CAVOK 17/06 Q1024 NOSIG
