2019/03/30 16:00
LFBT 301600Z AUTO 07007KT 020V120 CAVOK 19/03 Q1018 NOSIG
