2019/04/30 07:30
LFBT 300730Z AUTO VRB01KT CAVOK 13/09 Q1020 NOSIG
