2019/05/31 13:30
LFBT 311330Z AUTO VRB03KT CAVOK 26/14 Q1023 NOSIG
