2019/03/31 11:30
LFBT 311130Z AUTO 33004KT 260V070 CAVOK 18/04 Q1015 NOSIG
