2019/06/01 11:00
YBAS 011100Z AUTO 15006KT 9999 // NCD 09/02 Q1028
