2019/04/01 21:00
YBAS 012100Z AUTO 19004KT 9999 // NCD 09/M04 Q1021
