2019/05/01 18:30
YBAS 011830Z AUTO 00000KT 9999 // BKN030 OVC125 19/18 Q1015
