2019/05/02 18:30
YBAS 011830Z AUTO 08010KT 9999 // FEW020 BKN075 18/10 Q1017
