2019/05/03 12:00
YBAS 031200Z AUTO 11006KT 9999 // NCD 17/04 Q1024
