2019/04/04 08:00
YBAS 040800Z AUTO 09011KT 9999 // NCD 31/03 Q1017
