2019/05/04 15:00
YBAS 041500Z AUTO 04001KT 9999 // NCD 09/M01 Q1024
