2019/04/05 09:30
YBAS 050930Z AUTO 14007KT 9999 // NCD 29/06 Q1018 RF00.0/000.0
