2019/06/05 10:30
YBAS 051030Z AUTO 14006KT 9999 // NCD 08/M04 Q1030 RF00.0/000.0
