2019/06/06 12:00
YBAS 061200Z AUTO 13002KT 9999 // NCD 07/M03 Q1030
