2019/04/06 10:00
YBAS 061000Z AUTO 11010KT 9999 // NCD 29/08 Q1019
