2019/05/07 07:30
YBAS 070730Z AUTO 17009KT 9999 // NCD 27/M04 Q1018 RF00.0/000.0
