2019/04/07 13:30
YBAS 071330Z AUTO 09006KT 9999 // NCD 23/06 Q1018 RF00.0/000.0
