2019/11/07 15:30
YBAS 071530Z AUTO 36002KT 9999 // NCD 20/M07 Q1015 RF00.0/000.0
