2019/06/08 13:00
YBAS 081300Z AUTO 09005KT 9999 // NCD 09/M01 Q1020
