2019/04/08 12:00
YBAS 081200Z AUTO 12007KT 9999 // NCD 25/04 Q1018
