2019/05/09 08:00
YBAS 090800Z AUTO 17008KT 9999 // NCD 21/02 Q1021
