2019/04/09 08:00
YBAS 090800Z AUTO 10017KT 9999 // NCD 32/05 Q1017
