2019/05/10 09:30
YBAS 100930Z AUTO 14008KT 9999 // NCD 13/M01 Q1029 RF00.0/000.0
