2020/02/10 19:30
YBAS 101930Z AUTO 08007KT 9999 // NCD 28/07 Q1012 RF00.0/000.0
