2019/06/10 13:00
YBAS 101300Z AUTO 06005KT 9999 // SCT085 16/06 Q1019
