2020/02/11 18:30
YBAS 111830Z AUTO 31004KT 9999 // NCD 23/07 Q1011 RF00.0/000.0
