2019/04/11 07:00
YBAS 110700Z AUTO 12010KT 9999 // NCD 29/02 Q1018
