2019/05/11 17:00
YBAS 111700Z AUTO 16006KT 9999 // NCD 04/M03 Q1027
