2019/05/12 10:00
YBAS 121000Z AUTO 11009KT 9999 // NCD 16/M04 Q1023
