2019/04/12 07:00
YBAS 120700Z AUTO 08008KT 9999 // NCD 28/M10 Q1017
