2019/04/13 12:00
YBAS 131200Z AUTO 07006KT 9999 // NCD 23/M05 Q1019
