2019/04/14 09:30
YBAS 140930Z AUTO 11006KT 9999 // NCD 28/02 Q1015 RF00.0/000.0
