2019/05/14 10:00
YBAS 141000Z AUTO 14007KT 9999 // NCD 16/M02 Q1024
