2019/05/15 15:30
YBAS 151530Z AUTO 36002KT 9999 // NCD 12/06 Q1023 RF00.0////./
