2019/04/16 17:00
YBAS 161700Z AUTO 07005KT 9999 // NCD 18/03 Q1017
