2019/05/16 15:30
YBAS 161530Z AUTO 17004KT 9999 // NCD 14/07 Q1020 RF00.0/000.0
