2019/05/17 12:00
YBAS 171200Z AUTO 08011KT 9999 // NCD 25/10 Q1018
