2019/04/18 09:00
YBAS 170900Z AUTO 13008KT 9999 // NSC 30/03 Q1018
