2019/05/18 11:30
YBAS 181130Z AUTO 05011KT 9999 // SCT066 SCT092 OVC120 18/17 Q1022
