2019/05/19 14:30
YBAS 191430Z AUTO 02004KT 9999 // NCD 19/17 Q1022 RF00.0/000.2
