2019/04/19 09:00
YBAS 190900Z AUTO 07007KT 9999 // NCD 28/02 Q1016
