2019/04/20 19:30
YBAS 201930Z AUTO 29004KT 9999 // NCD 18/02 Q1016 RF00.0/000.0
