2019/04/21 08:00
YBAS 210800Z AUTO 13010KT 9999 // NCD 25/09 Q1017
