2019/06/22 18:00
YBAS 221800Z AUTO 24003KT 9999 // NCD M00/M09 Q1024
