2019/04/22 09:30
YBAS 220930Z AUTO 14011KT 9999 // NCD 21/06 Q1022 RF00.0/000.0
