2019/04/23 09:30
YBAS 220930Z AUTO 15011KT 9999 // NCD 28/05 Q1022 RF00.0/000.0
