2019/03/24 20:00
YBAS 242000Z AUTO 12011KT 9999 // SCT020 24/20 Q1010
