2019/03/25 01:30
YBAS 250130Z 15016KT 9999 -SHRA BKN026 27/20 Q1012 RF00.0/000.0
