2019/05/28 07:30
YBAS 280730Z AUTO 14007KT 9999 // NCD 19/00 Q1020 RF00.0/000.0
