2019/03/29 12:00
YBAS 291200Z AUTO 13004KT 9999 // SCT110 23/M02 Q1014
