2019/03/30 16:00
YBAS 301600Z AUTO 00000KT 9999 // NCD 13/01 Q1021
