2019/04/30 07:30
YBAS 300730Z AUTO 22014KT 9999 // BKN100 BKN115 21/15 Q1013
