2019/03/31 11:00
YBAS 311100Z AUTO 14006KT 9999 // NCD 20/M01 Q1021
