2019/04/01 20:54
KIND 012054Z 17006KT 10SM BKN250 07/M05 A3026 RMK AO2 SLP253 T00721050 56033
