2019/05/01 18:54
KIND 011854Z 26016G25KT 10SM FEW030 SCT150 OVC210 23/16 A3004 RMK AO2 SLP167 T02280156 $
