2019/06/01 11:54
KIND 011154Z 22005KT 10SM SCT250 18/16 A2991 RMK AO2 SLP123 T01780161 10178 20150 53009
