2019/04/02 09:54
KIND 020954Z 15005KT 10SM OVC110 02/M05 A3012 RMK AO2 SLP204 T00221050
