2019/05/02 18:01
KIND 011854Z 16016G25KT 8SM FEW010 SCT015 OVC050 15/12 A3004 RMK AO2 SLP167 T02280156 $
