2019/05/03 12:10
KIND 011854Z 12016G25KT 7SM SCT015 OVC050 14/11 A3004 RMK AO2 SLP167 T02280156 $
