2019/06/03 15:54
KIND 031554Z 23006KT 9SM FEW200 21/06 A3014 RMK AO2 SLP202 T02060061
