2019/04/03 12:54
KIND 031254Z 25005KT 10SM FEW250 06/02 A3028 RMK AO2 SLP256 T00560022
