2019/11/03 21:54
KIND 032154Z 19012KT 10SM FEW050 SCT170 BKN250 10/M02 A3010 RMK AO2 SLP199 T01001017
