2019/04/04 07:54
KIND 040754Z 05006KT 10SM OVC110 10/M01 A3028 RMK AO2 SLP254 T01001006
