2019/05/04 16:03
KIND 041603Z 05009KT 5SM -RA BR BKN008 OVC075 12/11 A2996 RMK AO2 P0001 T01170106
