2019/06/04 15:54
KIND 041554Z 18012G23KT 10SM BKN300 24/11 A3006 RMK AO2 SLP174 T02390106
