2019/05/05 09:54
KIND 050954Z 36007KT 10SM FEW250 08/06 A2986 RMK AO2 SLP113 T00780061
