2019/04/05 09:54
KIND 050954Z 09007KT 10SM OVC045 09/07 A3005 RMK AO2 SLP177 T00890067
