2019/06/05 15:08
KIND 051508Z 22011KT 10SM OVC014 22/19 A2979 RMK AO2 T02170189
