2019/04/06 09:54
KIND 060954Z 10003KT 4SM R05L/1600VP6000FT BCFG BR SCT055 09/08 A3012 RMK AO2 SLP200 T00940083
