2019/05/07 11:54
KIND 071154Z 11004KT 10SM FEW120 SCT180 BKN210 14/11 A3012 RMK AO2 SLP197 T01390106 10150 20117 53020
