2019/04/07 13:54
KIND 071354Z 12006KT 10SM OVC080 14/09 A2995 RMK AO2 RAB13E51 SLP140 P0000 T01390094
