2019/11/07 14:54
KIND 071454Z 36010KT 10SM FEW020 BKN035 OVC060 03/M02 A3034 RMK AO2 SLP279 T00281022 51023
