2019/06/08 12:54
KIND 081254Z 08012KT 10SM BKN180 BKN250 22/16 A2989 RMK AO2 SLP116 T02170156
