2019/04/08 11:54
KIND 081154Z 25004KT 10SM FEW080 BKN190 OVC250 13/12 A2991 RMK AO2 SLP125 60001 70001 T01330122 10178 20133 53009
