2019/05/09 11:54
KIND 091154Z 18015KT 9SM -RA FEW050 BKN080 OVC095 21/18 A2975 RMK AO2 PK WND 17027/1112 RAE19B46 SLP068 P0000 60005 70005 T02060178 10228 20206 53002 $
