2019/06/09 12:54
KIND 091254Z 09009KT 10SM -RA OVC009 20/19 A2992 RMK AO2 SLP128 P0009 T02000189
