2019/04/09 07:54
KIND 090754Z 25006KT 10SM CLR 11/09 A2979 RMK AO2 SLP084 T01110089
