2019/04/10 09:54
KIND 100954Z 02008KT 10SM BKN080 BKN120 11/02 A2988 RMK AO2 SLP115 T01060022
