2019/06/10 13:31
KIND 101331Z 30018G22KT 5SM BR BKN013 OVC027 19/18 A2999 RMK AO2 T01940183
