2019/05/10 09:54
KIND 100954Z 29013KT 10SM BKN015 OVC025 09/06 A3001 RMK AO2 SLP158 T00940061
