2019/05/11 16:54
KIND 111654Z 08011G18KT 10SM SCT080 BKN110 BKN200 16/06 A2998 RMK AO2 SLP153 T01560056
