2019/04/11 07:54
KIND 110754Z 08012G22KT 10SM BKN230 08/02 A2979 RMK AO2 SLP087 T00780022
