2019/04/12 07:26
KIND 120726Z 25019G30KT 10SM -TSRA SCT060CB SCT075 BKN090 19/13 A2960 RMK AO2 PK WND 18030/0717 WSHFT 0712 RAE07B24 TSE09B24 PRESRR OCNL LTGICCC OHD TS OHD MOV NE P0000 T01890128
