2019/05/12 11:16
KIND 121116Z 02006KT 1 1/2SM BR OVC006 07/07 A2979 RMK AO2 SFC VIS 2 1/2 VIS 1 3/4V4 T00720067
