2019/05/13 14:04
KIND 131404Z 29011KT 7SM OVC010 08/06 A2991 RMK AO2 T00830061
