2019/06/13 12:54
KIND 131254Z 28020G30KT 10SM SCT024 BKN035 13/09 A2983 RMK AO2 PK WND 28030/1253 SLP097 T01330094
