2019/04/13 15:54
KIND 131554Z 00000KT 10SM R05L/3500VP6000FT OVC230 11/M02 A3016 RMK AO2 SLP214 T01061017
