2019/04/14 19:54
KIND 141954Z 32007KT 10SM OVC006 08/07 A2939 RMK AO2 RAB00E36 SLP954 P0003 T00780067
