2019/04/15 14:12
KIND 151412Z 32007KT 10SM BKN018 BKN200 04/00 A3005 RMK AO2 T00390000
