2019/06/15 18:54
KIND 151854Z 17011KT 8SM -RA SCT033 OVC110 18/17 A2986 RMK AO2 PRESFR SLP109 P0002 T01780172
