2019/05/15 15:54
KIND 151554Z 24010KT 10SM FEW040 BKN055 BKN090 18/09 A3002 RMK AO2 SLP163 T01830094
