2019/06/16 12:54
KIND 161254Z 21008KT 10SM FEW008 SCT040 BKN180 20/18 A2984 RMK AO2 SLP100 T02000183
