2019/04/16 16:54
KIND 161654Z 23017G24KT 10SM BKN250 21/09 A3001 RMK AO2 PK WND 23032/1600 SLP161 T02060089
