2019/05/17 12:54
KIND 171254Z 25007KT 10SM FEW070 BKN190 BKN250 21/18 A2984 RMK AO2 SLP101 T02060178
