2019/05/18 11:54
KIND 181154Z 19005KT 10SM SCT250 20/17 A2992 RMK AO2 SLP126 70016 T02000172 10206 20172 51012
