2019/04/18 14:54
KIND 171454Z 20010KT 10SM FEW160 BKN180 18/11 A2997 RMK AO2 SLP145 T01780106 55004
