2019/05/19 14:54
KIND 191454Z 23017G27KT 10SM -RA SCT027 BKN034 OVC090 21/17 A2980 RMK AO2 PK WND 21029/1359 RAB34 SLP084 P0000 60000 T02060172 53014
