2019/04/19 09:54
KIND 190954Z 36010KT 10SM -RA BKN011 BKN025 OVC055 06/04 A2962 RMK AO2 RAE0859B08 SLP032 P0001 T00560039
