2019/09/22 17:54
KIND 221754Z 21017G26KT 10SM SCT020 BKN250 31/15 A3002 RMK AO2 PK WND 21030/1712 SLP158 T03060150 10306 20200 56020 $
