2019/06/22 19:54
KIND 221954Z 09004KT 10SM -RA OVC030 22/19 A3007 RMK AO2 RAB32 SLP178 P0000 T02220189
