2019/04/22 09:54
KIND 220954Z 11006KT 10SM CLR 09/03 A3013 RMK AO2 SLP201 T00890028
