2019/04/23 09:54
KIND 220954Z 10006KT 10SM BKN050 BKN90 09/03 A3013 RMK AO2 SLP201 T00890028
