2019/03/24 20:08
KIND 242008Z 12005KT 6SM -RA BR BKN030 OVC043 09/07 A3007 RMK AO2 P0001 T00890072
