2019/04/24 12:54
KIND 241254Z 09007KT 10SM BKN090 BKN130 OVC180 10/02 A3001 RMK AO2 SLP164 T01000022
