2019/04/25 11:54
KIND 251154Z 13003KT 1/2SM -RA BR OVC004 13/12 A2982 RMK AO2 RAB51 SLP097 P0000 60000 70003 T01280122 10133 20117 53001
