2019/03/25 17:54
KIND 251754Z 03017G24KT 10SM FEW023 BKN060 08/02 A3013 RMK AO2 SLP205 60009 T00780022 10083 20044 51016 $
