2019/03/26 09:54
KIND 260954Z 02006KT 10SM CLR M02/M07 A3034 RMK AO2 SLP278 T10171067 $
