2019/04/26 20:54
KIND 262054Z 31015G29KT 10SM FEW065 FEW080 17/01 A2985 RMK AO2 PK WND 27038/2021 SLP108 T01670011 51015
