2019/05/27 14:54
KIND 271454Z 13008KT 10SM FEW022 FEW250 23/18 A3002 RMK AO2 SLP159 TCU DSNT SW T02330178 58015 $
