2019/03/27 10:54
KIND 271054Z 00000KT 10SM FEW200 FEW250 M01/M07 A3039 RMK AO2 SLP298 T10061067
