2019/04/27 15:54
KIND 271554Z 11007KT 10SM BKN150 OVC240 13/02 A2992 RMK AO2 SLP132 T01280022
