2019/04/28 08:54
KIND 280854Z 36014KT 10SM OVC007 04/03 A2988 RMK AO2 SLP121 T00440028 53054 $
