2019/03/28 17:54
KIND 281754Z 23016KT 10SM FEW060 FEW250 18/03 A3010 RMK AO2 SLP191 60001 T01780033 10183 20061 57017
