2019/05/28 11:54
KIND 281154Z 23012G21KT 10SM FEW070 SCT250 23/19 A2978 RMK AO2 SLP078 T02330189 10244 20222 53005 $
