2019/03/29 11:54
KIND 291154Z 20009KT 10SM OVC020 11/10 A3005 RMK AO2 SLP173 60004 70019 T01110100 10117 20111 53001 $
