2019/04/30 07:54
KIND 300754Z 04006KT 10SM OVC016 12/10 A3014 RMK AO2 SLP203 T01170100 $
