2019/03/31 11:54
KIND 311154Z 33006KT 10SM SCT033 SCT045 M03/M07 A3021 RMK AO2 SLP240 4/001 70066 T10331067 11006 21033 51027 $
