2019/05/31 14:24
KIND 311424Z 32008KT 10SM BKN017 BKN055 22/17 A2991 RMK AO2 T02220167
