2019/05/01 18:53
KDFW 011853Z 17017G22KT 10SM SCT030 BKN040TCU BKN250 29/21 A2990 RMK AO2 SLP115 TCU ALQDS T02890211
