2019/04/01 20:53
KDFW 012053Z VRB06KT 10SM SCT075 16/M03 A3015 RMK AO2 SLP208 T01561028 57032
