2019/06/01 10:53
KDFW 011053Z 00000KT 10SM SCT300 21/18 A2995 RMK AO2 SLP133 T02060178
