2019/05/02 18:53
KDFW 011853Z 17017G22KT 5SM -RA SCT020 BKN030TCU 25/18 A2990 RMK AO2 SLP115 TCU ALQDS T02890211
