2019/04/02 09:53
KDFW 020953Z 19010KT 10SM FEW300 07/01 A3014 RMK AO2 SLP204 T00670011
