2019/05/03 12:10
KDFW 011853Z 15017G22KT 7SM FEW008 BKN020TCU 26/18 A2990 RMK AO2 SLP115 TCU ALQDS T02890211
