2019/04/03 12:53
KDFW 031253Z 14007KT 10SM BKN300 11/06 A3013 RMK AO2 SLP199 T01060056
