2019/06/03 15:53
KDFW 031553Z 22007KT 10SM FEW027 FEW100 SCT250 BKN300 29/22 A2996 RMK AO2 SLP137 T02940222
