2019/11/03 21:53
KDFW 032153Z 18014KT 10SM SCT220 BKN300 19/01 A3001 RMK AO2 SLP161 T01890006
