2019/06/04 15:53
KDFW 041553Z 20009KT 10SM FEW070 SCT220 BKN300 29/21 A2997 RMK AO2 SLP138 T02890211 $
