2019/05/04 15:53
KDFW 041553Z 03007KT 10SM FEW016 SCT150 SCT250 21/15 A2994 RMK AO2 SLP131 T02060150
