2019/04/04 07:53
KDFW 040753Z 17013G19KT 10SM OVC015 18/14 A2994 RMK AO2 SLP133 T01780139
