2019/11/04 16:53
KDFW 041653Z 19019KT 10SM FEW250 21/12 A2997 RMK AO2 SLP145 T02060122
