2019/04/05 09:53
KDFW 050953Z 05003KT 10SM BKN250 13/12 A2998 RMK AO2 SLP146 T01330117
