2019/05/05 09:53
KDFW 050953Z 04003KT 10SM FEW130 FEW300 16/13 A2989 RMK AO2 SLP115 T01560128
