2019/04/06 09:53
KDFW 060953Z 13008KT 8SM OVC007 18/17 A2988 RMK AO2 SLP113 T01830167
