2019/06/06 12:53
KDFW 061253Z 33006KT 10SM FEW035 SCT120 SCT180 22/18 A2975 RMK AO2 SLP067 VIRGA DSNT W-NW T02220178 $
