2019/04/07 13:53
KDFW 071353Z 14005KT 1/2SM R17C/P6000FT BR BKN004 OVC006 18/17 A2987 RMK AO2 SFC VIS 2 DZE52 SLP111 P0000 T01780167 $
