2019/05/07 12:12
KDFW 071212Z 15006KT 10SM BKN013 BKN085 BKN300 21/19 A2997 RMK AO2 T02060189
