2019/11/07 14:53
KDFW 071453Z 35017G22KT 10SM -RA BKN012 OVC020 10/09 A3026 RMK AO2 PK WND 35028/1422 PRESRR SLP241 P0002 60018 T01000089 53050 $
