2019/06/08 12:53
KDFW 081253Z 34006KT 10SM FEW300 23/20 A2983 RMK AO2 SLP093 T02330200 $
