2019/04/08 11:53
KDFW 081153Z 30011KT 10SM FEW055 BKN210 BKN250 17/13 A2989 RMK AO2 SLP117 70015 T01670128 10172 20150 55004 $
