2019/04/09 07:53
KDFW 090753Z 34004KT 10SM CLR 16/10 A2992 RMK AO2 SLP124 T01610100 $
