2019/05/09 11:53
KDFW 091153Z 04006KT 1/4SM R17C/P6000FT -DZ BR OVC003 17/17 A2981 RMK AO2 SFC VIS 1 3/4 SLP089 P0001 60002 70099 T01720172 10178 20150 51035
