2019/06/09 12:53
KDFW 091253Z 14006KT 10SM FEW065 26/21 A2989 RMK AO2 SLP112 T02560211 $
