2019/06/10 13:53
KDFW 101353Z 01016KT 10SM FEW080 BKN300 21/12 A3027 RMK AO2 SLP244 T02110122 $
