2019/05/10 09:53
KDFW 100953Z 01014KT 10SM SCT021 BKN042 BKN050 OVC250 11/06 A3005 RMK AO2 SLP173 T01060056 $
