2019/04/10 07:53
KDFW 100753Z 16011KT 10SM BKN300 22/11 A2969 RMK AO2 SLP046 T02170106
