2019/05/11 17:26
KDFW 111726Z 32006KT 10SM SCT009 OVC012 14/13 A2993 RMK AO2 DZE03 P0000 T01390128 $
