2019/04/11 07:53
KDFW 110753Z 17015KT 10SM SCT180 BKN300 22/12 A2947 RMK AO2 SLP969 T02170122
