2019/05/12 10:53
KDFW 121053Z 32006KT 10SM BKN036 15/12 A2989 RMK AO2 SLP116 T01500122 $
