2019/06/13 12:53
KDFW 131253Z 03004KT 10SM FEW300 22/15 A3012 RMK AO2 SLP169 T02170150 $
