2019/04/13 16:07
KDFW 131607Z 06014G23KT 6SM -TSRA BKN009 BKN014CB OVC020 13/12 A2956 RMK AO2 PK WND 06027/1554 LTG DSNT ALQDS GRE00 OCNL LTGIC NW-N TS NW-N MOV N P0022 T01280117
