2019/05/13 13:53
KDFW 131353Z 21008KT 10SM SCT250 20/14 A2997 RMK AO2 SLP143 T02000144 $
