2019/06/15 18:53
KDFW 151853Z 18019G27KT 10SM FEW040 FEW120 SCT250 33/21 A2981 RMK AO2 PK WND 16028/1757 SLP086 T03330206
