2019/04/15 13:53
KDFW 151353Z 17011KT 10SM FEW250 15/08 A2999 RMK AO2 SLP151 T01500078
