2019/05/15 15:53
KDFW 151553Z 20011KT 10SM SCT035 27/18 A3003 RMK AO2 SLP162 T02670178
