2019/04/16 16:53
KDFW 161653Z 18021G27KT 10SM SCT027 BKN250 22/14 A3000 RMK AO2 PK WND 18032/1554 SLP152 T02220144
