2019/06/16 13:13
KDFW 161313Z 14010KT 10SM BKN006 BKN026 OVC042 20/19 A2988 RMK AO2 T02000189
