2019/05/17 12:53
KDFW 171253Z 17012KT 10SM BKN012 BKN250 21/18 A2986 RMK AO2 SLP103 T02110183
