2019/04/18 15:06
KDFW 171506Z 27005KT 2SM R17C/5500VP6000FT -DZ BR BKN010 OVC015 20/18 A2982 RMK AO2 SFC VIS 3 P0000 T02000183
