2019/05/18 11:53
KDFW 181153Z 16012KT 10SM BKN015 BKN023 OVC029 23/21 A2972 RMK AO2 RAE21 SLP055 P0000 60001 70001 T02330211 10250 20233 58002
