2019/05/19 14:53
KDFW 191453Z 02008KT 10SM CLR 22/14 A2989 RMK AO2 SLP113 T02220139 51031 $
