2019/04/19 09:53
KDFW 190953Z 31016KT 10SM FEW250 12/05 A2996 RMK AO2 SLP140 T01220050 $
