2019/04/20 19:53
KDFW 201953Z 19012KT 10SM CLR 26/07 A3000 RMK AO2 SLP152 T02610067
