2019/04/21 07:53
KDFW 210753Z 17012KT 10SM FEW220 FEW250 18/10 A2989 RMK AO2 SLP114 T01780100
