2019/04/22 09:53
KDFW 220953Z 18017G23KT 10SM BKN017 OVC022 18/14 A2995 RMK AO2 PK WND 18028/0924 SLP134 T01830144 $
