2019/06/22 19:53
KDFW 221953Z 19020KT 10SM TS SCT045CB SCT070 BKN190 OVC300 32/22 A2987 RMK AO2 PK WND 18031/1906 LTG DSNT NE AND E TSB42 SLP105 OCNL LTGICCG E-SE TS E-SE MOV NE T03220217 $
