2019/09/22 17:53
KDFW 221753Z 20012KT 10SM BKN045 BKN300 31/20 A2999 RMK AO2 SLP144 T03110200 10317 20244 58004 $
