2019/04/23 09:53
KDFW 220953Z 22017G33KT 8SM BKN010 OVC018 18/14 A2995 RMK AO2 PK WND 18028/0924 SLP134 T01830144 $
