2019/04/24 13:07
KDFW 241307Z 23006KT 10SM BKN010 OVC016 17/15 A2992 RMK AO2 RAE1259 P0000 T01670150
