2019/03/24 19:53
KDFW 241953Z 17010KT 10SM FEW040 BKN055 BKN300 27/16 A2996 RMK AO2 SLP137 T02720156
