2019/04/25 10:53
KDFW 251053Z 28008KT 10SM SCT035 SCT250 16/14 A2979 RMK AO2 SLP082 T01560139
