2019/03/25 17:53
KDFW 251753Z 03014KT 10SM FEW040 FEW250 19/08 A3022 RMK AO2 SLP228 T01940083 10194 20117 51015
