2019/03/26 09:53
KDFW 260953Z 02006KT 10SM CLR 10/07 A3028 RMK AO2 SLP249 T01000067
