2019/04/26 20:53
KDFW 262053Z 12006G14KT 10SM FEW200 FEW250 25/06 A3008 RMK AO2 SLP180 T02500056 58030
