2019/04/27 15:53
KDFW 271553Z 19022G27KT 10SM FEW170 SCT250 SCT300 25/14 A2984 RMK AO2 PK WND 19031/1539 PRESFR SLP099 VIRGA ACC N-E T02500139
