2019/03/27 10:53
KDFW 271053Z 15008KT 10SM SCT300 11/06 A3024 RMK AO2 SLP234 T01110061
