2019/05/27 14:53
KDFW 271453Z 20014KT 10SM SCT027 BKN032 26/19 A2994 RMK AO2 SLP129 T02610194 50006 $
