2019/04/28 08:53
KDFW 280853Z 24005KT 10SM FEW100 SCT300 20/15 A2988 RMK AO2 SLP110 T02000150 51036
