2019/05/28 11:53
KDFW 281153Z 18014KT 10SM BKN020 BKN170 23/19 A2974 RMK AO2 SLP061 T02280194 10256 20228 53010 $
