2019/03/29 11:53
KDFW 291153Z 16012KT 10SM FEW018 FEW025 BKN031 BKN150 OVC230 17/13 A2996 RMK AO2 SLP137 60000 T01720133 10189 20172 53007
