2019/03/30 15:53
KDFW 301553Z 33022G31KT 10SM OVC022 11/04 A3009 RMK AO2 PK WND 35034/1517 PRESRR SLP186 T01060044
