2019/04/30 07:53
KDFW 300753Z 16012KT 10SM FEW044 BKN190 BKN250 23/20 A2990 RMK AO2 SLP116 T02280200
