2019/03/31 11:53
KDFW 311153Z 02014KT 10SM BKN300 04/M03 A3037 RMK AO2 SLP284 70001 T00441028 10078 20044 53017
