2019/05/31 13:53
KDFW 311353Z 28008KT 10SM FEW060 BKN095 BKN150 BKN250 23/18 A3007 RMK AO2 LTG DSNT S AND SW SLP175 CB DSNT S-SW MOV E ACC DSNT E T02280178
