2019/06/01 11:00
SBAT 011100Z 00000KT CAVOK 24/23 Q1013
