2019/05/01 17:00
SBAT 011700Z 09008G30KT 9999 4000NE TS SHRA FEW020 BKN030 FEW040CB 28/22 Q1014
