2019/05/03 12:00
SBAT 031200Z 01003KT 9999 FEW008 28/25 Q1014
