2019/06/03 16:00
SBAT 031600Z 10007KT 9999 FEW020 34/21 Q1016
