2019/11/03 22:00
SBAT 032200Z 00000KT 9999 FEW040TCU 28/24 Q1009
