2019/06/03 23:00
SBAT 032300Z 21004KT 9999 BKN045 29/21 Q1014
