2019/04/03 21:00
SBAT 032100Z 05004KT 5000 -TSRA SCT010 SCT022 SCT027CB 24/24 Q1011
