2019/11/04 13:00
SBAT 041300Z 02005KT CAVOK 30/23 Q1013
