2019/04/04 21:00
SBAT 042100Z 05002KT 9999 FEW027 FEW030TCU 26/25 Q1009
