2019/06/05 13:00
SBAT 051300Z 15008KT CAVOK 27/21 Q1017
