2019/06/06 13:00
SBAT 061300Z 13009KT CAVOK 29/23 Q1015
