2019/11/06 12:00
SBAT 061200Z 13011KT 9999 FEW035 26/23 Q1015
