2019/04/07 12:00
SBAT 071200Z 21003KT 3000 -RADZ BKN008 SCT015 BKN080 25/24 Q1016
