2019/05/06 21:00
SBAT 062100Z 11005KT 9999 FEW045 31/23 Q1011
