2019/11/07 14:00
SBAT 071400Z 02001KT CAVOK 28/24 Q1013
