2019/06/08 13:00
SBAT 081300Z 11008KT CAVOK 29/21 Q1016
