2019/04/08 11:00
SBAT 081100Z 31004KT 5000 -RA BR SCT004 BKN010 23/23 Q1015
