2019/04/08 21:00
SBAT 082100Z 31005KT 9999 TS SCT025CB 30/25 Q1011
