2019/06/09 12:00
SBAT 091200Z 14004KT CAVOK 26/22 Q1017
