2019/06/10 13:00
SBAT 101300Z 10006KT CAVOK 30/22 Q1017
