2019/05/09 21:00
SBAT 092100Z 16003KT 9999 FEW035 32/23 Q1012
