2019/04/09 21:00
SBAT 092100Z 29005KT 9999 FEW025TCU 29/23 Q1010
