2019/05/11 16:00
SBAT 111600Z 04004KT 9999 BKN035 32/25 Q1012
