2019/04/10 21:00
SBAT 102100Z 32001KT 9999 TS SCT027 FEW030CB BKN100 25/24 Q1011
