2019/05/12 11:00
SBAT 121100Z 08002KT 8000 FEW027 25/24 Q1014
