2019/05/13 11:00
SBAT 131100Z 36001KT 7000 NSC 25/24 Q1016
