2019/06/13 12:00
SBAT 131200Z 13006KT CAVOK 27/22 Q1017
