2019/04/14 21:00
SBAT 142100Z 15003KT 9999 FEW040 FEW045TCU 31/25 Q1009
