2019/06/15 16:00
SBAT 151600Z 10009KT 9999 FEW025 34/19 Q1015
