2019/05/16 14:00
SBAT 161400Z 16006KT CAVOK 28/23 Q1017
