2019/04/16 17:00
SBAT 161700Z 31002KT 9999 BKN030 FEW040TCU 31/23 Q1013
