2019/06/15 21:00
SBAT 152100Z 08003KT CAVOK 31/19 Q1012
