2019/05/17 12:00
SBAT 171200Z 15002KT 9999 SCT025 25/23 Q1015
