2019/04/17 09:00
SBAT 162100Z 00000KT 9999 -RA FEW040TCU 27/23 Q1010
