2019/04/18 09:00
SBAT 162100Z 00000KT 3500 RA FEW040TCU 27/23 Q1010
