2019/05/18 11:00
SBAT 181100Z 07001KT CAVOK 24/23 Q1014
