2019/04/18 22:00
SBAT 182200Z 21002KT 9999 TS FEW030CB 26/23 Q1010
