2019/05/19 14:00
SBAT 191400Z 13010KT 9999 FEW025 31/23 Q1015
