2019/04/20 18:00
SBAT 201800Z 06004KT 9999 SCT040 FEW045TCU 34/23 Q1011
