2019/04/20 21:00
SBAT 202100Z 28001KT 9999 FEW040 FEW045TCU 27/24 Q1010
