2019/04/21 21:00
SBAT 212100Z 34003KT 9999 FEW040TCU 27/25 Q1009
