2019/06/22 18:00
SBAT 221800Z 12009KT 9999 FEW040 35/16 Q1017
