2019/04/23 21:00
SBAT 212100Z 24003KT 9999 FEW020TCU 28/25 Q1013
