2019/04/24 13:00
SBAT 241300Z 11004KT 9999 SCT013 29/26 Q1016
