2019/04/26 12:00
SBAT 261200Z 14003KT 9999 FEW030 SCT090 27/24 Q1015
