2019/04/27 15:00
SBAT 271500Z 02003KT 9999 BKN030 32/25 Q1015
