2019/03/26 21:00
SBAT 262100Z 00000KT 9999 FEW035 FEW040TCU 30/24 Q1008
