2019/05/27 14:00
SBAT 271400Z 15004KT 9999 FEW025 32/24 Q1014
