2019/03/28 16:00
SBAT 281600Z 11006KT 9999 BKN030 FEW035TCU 32/26 Q1014
