2019/03/29 11:00
SBAT 291100Z 15003KT 5000 BR SCT006 BKN015 25/25 Q1015
