2019/03/30 16:00
SBAT 301600Z 36003KT 9999 BKN027 30/24 Q1015
