2019/04/29 21:00
SBAT 292100Z 04003KT 9999 FEW030 FEW035TCU 28/24 Q1010
