2019/03/31 11:00
SBAT 311100Z 00000KT 0400 FG VV002 24/24 Q1014
