2019/05/31 13:00
SBAT 311300Z 03002KT CAVOK 29/23 Q1015
