2019/06/01 11:20
EGBB 011120Z 21007KT 160V270 9999 FEW033 21/12 Q1019
