2019/04/01 20:20
EGBB 012020Z 16006KT CAVOK 08/02 Q1013
