2019/05/01 18:20
EGBB 011820Z 25004KT 200V280 9999 VCSH FEW030 13/08 Q1016
