2019/05/02 07:50
EGBB 030750Z 22014KT 9999 FEW006 SCT010 11/08 Q1016
