2019/05/03 07:50
EGBB 030750Z 18004KT 9999 SCT006 BKN010 09/08 Q1015
