2019/06/03 15:50
EGBB 031550Z 24008KT 200V290 9999 SCT049 18/06 Q1011
