2019/04/03 08:50
EGBB 030850Z VRB02KT 9999 6000E SCT009 SCT033 04/01 Q0999
