2019/11/03 21:50
EGBB 032150Z 19005KT 160V230 9000 BKN004 09/08 Q0982
