2019/05/04 14:50
EGBB 041450Z 34017KT CAVOK 11/M02 Q1022
