2019/04/04 07:50
EGBB 040750Z 11010KT 5000 RA+ BKN009 03/02 Q0992
