2019/11/04 13:20
EGBB 041320Z 08005KT 9999 BKN013 10/08 Q0983
