2019/05/05 09:50
EGBB 050950Z VRB03KT 9999 SCT040 10/M01 Q1027
