2019/06/05 10:20
EGBB 051020Z 24010KT 210V280 9999 BKN032 14/07 Q1005
