2019/06/06 11:50
EGBB 061150Z 19010KT 130V230 9999 BKN045 17/05 Q1009
