2019/11/06 13:20
EGBB 061320Z 16005KT 9999 FEW027 BKN049 07/05 Q1002
