2019/05/07 07:20
EGBB 070720Z 16004KT CAVOK 08/03 Q1016
