2019/06/07 10:20
EGBB 071020Z 06010KT 3800 RA SCT028 BKN033 13/12 Q1004
