2019/04/07 13:20
EGBB 071320Z 05008KT 030V090 4400 HZ BKN014 11/07 Q1010
