2019/11/07 14:20
EGBB 071420Z 26004KT 200V290 9999 VCSH FEW014 SCT025 BKN032 08/05 Q0991
