2019/04/08 09:50
EGBB 080950Z 06008KT 3600 HZ OVC009 09/07 Q1011
