2019/06/09 12:20
EGBB 091220Z 20006KT 170V270 9999 VCSH SCT040 17/07 Q1019
