2019/04/09 06:50
EGBB 090650Z 05012KT 9000 OVC009 07/06 Q1015
