2019/05/09 07:50
EGBB 090750Z 03008KT 360V070 4000 RADZ BKN006 08/08 Q0995 REDZ
