2019/05/10 09:20
EGBB 100920Z 19004KT 150V220 9999 SCT014 BKN021 05/M04 Q1020
