2020/02/10 19:50
EGBB 101950Z 25011KT 210V280 9999 FEW026 02/00 Q0996
