2019/06/10 12:50
EGBB 101250Z 02009KT 9000 -RA FEW009 SCT010 11/10 Q1016 RERA
