2019/04/10 07:20
EGBB 100720Z 02007KT 9999 BKN025 04/01 Q1021
