2019/05/11 16:50
EGBB 111650Z 06006KT 020V080 9999 SCT044 13/07 Q1025
