2019/04/11 06:50
EGBB 110650Z VRB03KT 9999 FEW031 01/M01 Q1027
