2019/04/12 06:50
EGBB 120650Z 36003KT CAVOK 02/M00 Q1028
