2019/04/13 11:50
EGBB 131150Z 12010KT 9999 SCT041 08/M02 Q1028
