2019/06/13 12:20
EGBB 131220Z 25005KT 210V280 9999 VCSH SCT011 13/11 Q1002
