2019/05/13 06:50
EGBB 130650Z VRB02KT CAVOK 10/06 Q1040
