2019/05/14 07:20
EGBB 140720Z 14008KT CAVOK 11/M02 Q1036
