2019/04/15 07:50
EGBB 150750Z 13014KT 9000 NSC 07/02 Q1022
