2019/06/15 15:50
EGBB 151550Z 19009KT 160V230 9999 FEW024 BKN027 17/11 Q1010
