2019/05/15 14:50
EGBB 151450Z 09006KT 020V190 CAVOK 18/06 Q1025
