2019/06/16 10:20
EGBB 161020Z 20008KT 150V250 9999 BKN023 17/11 Q1013
