2019/05/16 15:20
EGBB 161520Z 08011G21KT 040V130 CAVOK 16/05 Q1018
