2019/04/16 16:50
EGBB 161650Z 02004KT 6000 FEW031 13/09 Q1016
