2019/05/17 07:20
EGBB 170720Z 02010KT 9999 BKN036 10/07 Q1012
