2019/04/17 07:50
EGBB 170750Z 07007KT 040V110 4200 HZ BKN009 08/06 Q1020
