2019/06/17 13:50
EGBB 171350Z 19010KT 160V220 9999 BKN030 19/12 Q1015
