2019/05/18 11:20
EGBB 181120Z 34004KT 300V040 9999 SCT022 BKN036 13/09 Q1007
