2019/05/19 14:20
EGBB 191420Z 02005KT 330V080 9999 FEW030 17/09 Q1011
