2019/05/20 15:20
EGBB 201520Z 34004KT 200V010 9999 SCT040CB 17/07 Q1014
