2019/04/20 19:20
EGBB 201920Z VRB02KT CAVOK 18/06 Q1028
