2019/04/21 07:50
EGBB 210750Z VRB03KT CAVOK 14/08 Q1023
