2019/12/21 11:50
EGBB 211150Z 17007KT 9999 SCT013 BKN031 07/06 Q0977