2019/06/22 17:50
EGBB 221750Z 15006KT CAVOK 19/09 Q1019
