2019/04/22 09:20
EGBB 220920Z 11008KT 080V150 CAVOK 18/03 Q1007
