2019/09/22 17:50
EGBB 221750Z 15005KT 9999 SCT020 16/15 Q1003
