2019/04/23 09:20
EGBB 220920Z 13008KT 080V150 -SHRA BKN030 17/06 Q1001
