2019/03/24 15:50
EGBB 241550Z 29013KT 9999 SCT049 12/M01 Q1029
