2019/04/24 12:20
EGBB 241220Z 12012G23KT 9000 +SHRA BKN030 16/10 Q0991
