2019/03/25 17:50
EGBB 251750Z 33009KT 9999 FEW045 11/01 Q1033
