2019/04/25 11:50
EGBB 251150Z 15012KT 9999 SHRA FEW018 SCT030 10/08 Q0997
