2019/03/26 07:20
EGBB 260720Z 31005KT CAVOK 05/02 Q1035
