2019/04/26 11:50
EGBB 261150Z 18013KT 9999 BKN031 13/06 Q1007
