2019/05/27 06:50
EGBB 270650Z 22007KT 190V250 9999 SCT025 12/08 Q1010
