2019/04/27 15:20
EGBB 271520Z 28019G33KT 9999 BKN039 10/02 Q1009
