2019/03/28 14:20
EGBB 281420Z VRB04KT 9999 FEW038 14/04 Q1034
