2019/03/29 09:20
EGBB 290920Z 22006KT 180V260 8000 NSC 10/06 Q1030
