2019/03/30 15:50
EGBB 301550Z 33008KT 9999 SCT036 14/05 Q1020
