2019/04/30 07:20
EGBB 300720Z 14004KT 4300 HZ NSC 09/07 Q1025
