2019/05/30 18:20
EGBB 301820Z 24010KT 200V280 9999 SCT036 20/12 Q1021
