2019/03/31 10:50
EGBB 311050Z 09012KT 9999 FEW028 BKN049 09/01 Q1027
