2019/05/31 07:20
EGBB 310720Z 23010KT 180V250 9999 FEW025 BKN033 19/12 Q1022
