2019/03/24 17:30
LFSB 241730Z 35010KT 9999 FEW045 15/06 Q1022 NOSIG
