2019/05/01 18:20
EGLL 011820Z AUTO 29008KT 9999 -RA NCD 13/07 Q1017
