2019/06/01 11:20
EGLL 011120Z AUTO 18007KT 140V230 9999 NCD 24/07 Q1020
