2019/06/02 10:20
EGLL 021020Z AUTO 22014G24KT 9999 NCD 26/12 Q1009
