2019/04/02 07:50
EGLL 020750Z AUTO 22008KT 190V250 3200 HZ BKN027 BKN041 08/06 Q1004 TEMPO RA BKN012
