2019/05/02 07:50
EGLL 030750Z AUTO VRB13KT 2500 BKN012 OVC022 11/08 Q1015
