2019/05/03 07:50
EGLL 030750Z AUTO VRB03KT 9999 BKN008 OVC020 10/08 Q1016
