2019/11/03 21:50
EGLL 032150Z AUTO 21009KT 170V260 7000 -RA BKN012 BKN017 OVC034 10/09 Q0984
