2019/05/04 14:20
EGLL 041420Z AUTO 36011KT 330V040 9999 SHRA FEW009/// //////TCU 09/05 Q1021
