2019/11/04 12:50
EGLL 041250Z AUTO 17006KT 130V230 9999 SHRA SCT011 BKN044 12/10 Q0983
