2019/05/05 09:20
EGLL 050920Z AUTO 03006KT 340V080 9999 FEW040 10/01 Q1027 NOSIG
