2019/06/05 08:50
EGLL 050850Z AUTO 24011KT 210V280 9999 BKN034 BKN044 16/07 Q1006 NOSIG
