2019/06/06 10:50
EGLL 061050Z AUTO 21011KT 170V250 9999 SHRA FEW046 17/06 Q1010
