2019/04/06 09:50
EGLL 060950Z AUTO 05009KT 010V080 9999 SCT020 BKN024 10/06 Q1006 NOSIG
