2019/11/06 12:50
EGLL 061250Z AUTO 21007KT 160V250 9999 NCD 09/05 Q1004 NOSIG
