2019/05/07 07:20
EGLL 070720Z AUTO 20004KT 150V250 9999 NCD 09/04 Q1017 NOSIG
