2019/06/07 09:20
EGLL 070920Z AUTO 09010KT 9999 RA NCD 14/12 Q1002
