2019/04/07 13:20
EGLL 071320Z AUTO 01004KT 340V050 3400 HZ OVC010 11/09 Q1009 BECMG 5000
