2019/06/08 12:50
EGLL 081250Z AUTO 25021G32KT 9999 FEW040 18/07 Q1013 NOSIG
