2019/05/09 07:50
EGLL 090750Z AUTO 27007KT 9999 FEW010 11/10 Q0995 NOSIG
