2019/06/09 12:20
EGLL 091220Z AUTO 18005KT 140V260 9999 FEW047 18/06 Q1020
