2019/04/09 06:50
EGLL 090650Z 04006KT 360V070 2000 BR FEW002 SCT003 OVC004 08/08 Q1013
