2019/08/09 10:20
EGLL 091020Z AUTO 21016KT 180V250 9999 FEW028 SCT036 23/17 Q1001 NOSIG
