2019/06/10 12:20
EGLL 101220Z AUTO 36006KT 330V040 8000 SHRA FEW015/// SCT031/// BKN042/// //////TCU 12/10 Q1015
