2019/05/10 08:50
EGLL 100850Z 05014G24KT 010V080 7000 FEW004 BKN006 OVC009 09/08 Q1010
