2019/04/10 07:20
EGLL 100720Z AUTO 05009KT 9999 NCD 06/03 Q1018
