2020/02/11 15:50
EGLL 111550Z AUTO 26020G30KT 9999 NCD 07/M03 Q1010 NOSIG
