2019/04/11 06:50
EGLL 110650Z AUTO 03004KT 350V060 9999 NCD 03/M01 Q1026 NOSIG
