2019/04/12 06:50
EGLL 120650Z AUTO 04004KT 010V080 9999 NCD 03/M01 Q1027 NOSIG
