2019/05/12 09:50
EGLL 120950Z AUTO 02004KT 330V080 9999 NCD 14/05 Q1036 NOSIG
