2019/04/13 11:50
EGLL 131150Z AUTO 10012KT 9000 -RA BKN034 07/M00 Q1027 NOSIG
