2019/06/13 12:20
EGLL 131220Z AUTO 22012KT 9999 -RA FEW021/// SCT034/// BKN046/// //////TCU 13/12 Q1005
