2019/05/13 06:50
EGLL 130650Z AUTO VRB03KT 9999 NCD 10/06 Q1040 NOSIG
