2019/04/14 09:20
EGLL 140920Z AUTO 09008KT 050V120 9999 NCD 07/01 Q1026 NOSIG
