2019/05/14 07:20
EGLL 140720Z AUTO 09009KT 9999 NCD 12/06 Q1036
