2019/06/15 15:50
EGLL 151550Z AUTO 20013KT 170V240 9999 FEW024 BKN033 BKN049 18/12 Q1013 NOSIG
