2019/05/15 14:20
EGLL 151420Z AUTO 09006KT 060V120 9999 NCD 20/04 Q1025 NOSIG
