2019/04/16 16:50
EGLL 161650Z AUTO 33004KT 290V020 8000 NCD 13/08 Q1016 NOSIG
