2019/05/16 14:20
EGLL 161420Z AUTO 08011KT 030V110 9999 NCD 18/01 Q1017 NOSIG
