2019/06/16 10:20
EGLL 161020Z AUTO 20013G24KT 170V240 9999 BKN014 SCT019 BKN024 17/14 Q1016 TEMPO BKN014
