2019/06/17 13:50
EGLL 171350Z AUTO 22012KT 190V260 9999 FEW046 21/09 Q1017
