2019/04/17 07:50
EGLL 170750Z AUTO 36005KT 320V030 5000 HZ NCD 08/06 Q1020
