2019/05/17 07:20
EGLL 170720Z AUTO 04007KT 360V080 9999 OVC018 12/08 Q1010 NOSIG
