2019/05/18 11:20
EGLL 181120Z AUTO VRB03KT 9999 SCT034 BKN046 17/09 Q1006 NOSIG
