2019/04/19 08:50
EGLL 190850Z AUTO 04005KT 010V070 9999 NCD 15/07 Q1028
