2019/05/19 14:20
EGLL 191420Z AUTO VRB03KT 9999 FEW033 17/10 Q1010
