2019/05/20 14:20
EGLL 201420Z AUTO 31005KT 260V020 9999 SCT046 19/08 Q1013
