2019/04/20 19:20
EGLL 201920Z AUTO 10007KT 9999 NCD 18/05 Q1027 NOSIG
