2019/12/21 11:50
EGLL 211150Z AUTO 19009KT 160V230 9999 NCD 10/09 Q0980 NOSIG