2019/06/22 17:20
EGLL 221720Z AUTO 09012KT 060V120 9999 NCD 21/08 Q1019 NOSIG
