2019/04/22 09:20
EGLL 220920Z AUTO 07005KT 020V110 9000 NCD 16/07 Q1007
