2019/09/22 13:50
EGLL 221350Z AUTO 21011KT 9999 -SHRA BKN014 BKN018 BKN023 18/16 Q1004
