2019/04/23 09:20
EGLL 220920Z AUTO 09005KT 020V110 9000 BKN016 16/09 Q1000
