2019/03/24 15:20
EGLL 241520Z AUTO 30010KT 270V340 9999 NCD 13/00 Q1029 NOSIG
