2019/04/24 11:50
EGLL 241150Z AUTO 15011KT 9999 BKN016 OVC032 16/12 Q0992 NOSIG
