2019/04/25 06:50
EGLL 250650Z AUTO 16011KT 9999 SCT020 BKN035 12/08 Q0996 NOSIG
