2019/03/25 17:50
EGLL 251750Z AUTO 01006KT 330V040 9999 NCD 12/00 Q1033 NOSIG
