2019/04/26 11:50
EGLL 261150Z AUTO 20013KT 9999 SCT036 15/06 Q1010 NOSIG
