2019/03/26 06:50
EGLL 260650Z AUTO 27006KT 9999 NCD 03/01 Q1035 NOSIG
