2019/04/27 14:50
EGLL 271450Z AUTO 27022G32KT 9999 NCD 12/01 Q1011 NOSIG
