2019/03/27 09:20
EGLL 270920Z AUTO VRB03KT 9999 OVC037 09/03 Q1035 NOSIG
