2019/03/28 13:50
EGLL 281350Z AUTO VRB03KT 9999 BKN044 14/05 Q1035 NOSIG
