2019/05/28 07:20
EGLL 280720Z AUTO 30006KT 270V330 9999 FEW018 12/08 Q1010 NOSIG
