2019/04/29 14:20
EGLL 291420Z AUTO 15004KT 120V200 9999 BKN043 14/05 Q1026 NOSIG
