2019/05/30 18:20
EGLL 301820Z AUTO 24011KT 9999 BKN047 21/13 Q1022
