2019/04/30 07:20
EGLL 300720Z AUTO VRB03KT 9999 BKN008 09/07 Q1026 BECMG SCT010
