2019/03/30 15:50
EGLL 301550Z AUTO 30004KT 250V340 9999 NCD 18/06 Q1019 NOSIG
