2019/03/31 10:50
EGLL 311050Z AUTO 06011KT 9999 BKN018 BKN023 10/06 Q1026 NOSIG
