2019/05/31 13:20
EGLL 311320Z AUTO 21010KT 180V240 9999 OVC028 19/12 Q1024 NOSIG
