2019/06/01 11:51
KSAT 011151Z 17005KT 10SM SCT013 BKN024 BKN250 24/23 A2997 RMK AO2 SLP130 T02440228 10244 20239 53004
