2019/04/01 20:51
KSAT 012051Z 15003KT 10SM FEW075 FEW250 15/01 A3018 RMK AO2 SLP211 T01500006 56037
