2019/05/01 18:51
KSAT 011851Z 13013KT 10SM SCT023 BKN032 OVC041 26/21 A2990 RMK AO2 RAE1752 SLP108 VCSH SW P0000 T02560206
