2019/04/02 09:51
KSAT 020951Z 31003KT 10SM CLR 03/01 A3021 RMK AO2 SLP221 T00280006
