2019/05/02 18:01
KSAT 011851Z 17013KT 8SM -RA BKN032 OVC041 24/19 A2990 RMK AO2 RAE1752 SLP108 VCSH SW P0000 T02560206
