2019/06/03 15:51
KSAT 031551Z 19003KT 10SM SCT030 BKN055 BKN250 28/22 A3001 RMK AO2 SLP142 TCU DSNT NW T02830217
