2019/05/03 12:01
KSAT 011851Z 18013KT 7SM BKN022 OVC040 24/19 A2990 RMK AO2 RAE1752 SLP108 VCSH SW P0000 T02560206
