2019/04/03 12:51
KSAT 031251Z 14005KT 10SM OVC029 14/11 A3012 RMK AO2 SLP187 T01440111
