2019/11/03 21:51
KSAT 032151Z 15007KT 10SM BKN250 22/M01 A3008 RMK AO2 SLP174 T02171006
