2019/06/04 15:51
KSAT 041551Z 08007KT 10SM BKN014 BKN140 OVC250 26/23 A2999 RMK AO2 SLP136 T02610228
