2019/04/04 07:51
KSAT 040751Z 16009KT 6SM BR BKN008 OVC027 20/18 A2999 RMK AO2 DZE42 SLP139 P0000 T02000183
