2019/05/04 14:51
KSAT 041451Z 01004KT 10SM BKN050 BKN250 21/17 A2993 RMK AO2 SLP119 T02110167 51022
