2019/11/04 16:51
KSAT 041651Z 21008KT 10SM FEW023 SCT250 22/15 A3005 RMK AO2 SLP161 T02220150
