2019/05/05 09:51
KSAT 050951Z 03003KT 10SM CLR 18/16 A2990 RMK AO2 SLP108 T01780161
