2019/06/05 15:03
KSAT 051503Z 36004KT 7SM -RA SCT005 BKN012 OVC028 25/23 A2988 RMK AO2 P0000 T02500233
