2019/06/06 13:17
KSAT 061317Z 00000KT 10SM FEW007 FEW250 22/19 A2983 RMK AO2 T02220194 $
