2019/04/06 09:51
KSAT 060951Z 13009KT 7SM BKN008 OVC013 21/19 A2985 RMK AO2 SLP089 T02110194
