2019/05/07 10:51
KSAT 071051Z 10006KT 7SM OVC005 21/20 A2992 RMK AO2 SLP117 T02110200
