2019/04/07 13:51
KSAT 071351Z 29008KT 4SM TSRA BR FEW011 BKN050 OVC100 16/14 A2998 RMK AO2 LTG DSNT ALQDS SLP139 OCNL LTGCG TS DSNT SW MOV NE P0028 T01610144
