2019/11/07 15:38
KSAT 071538Z 03004KT 5SM BR BKN006 BKN018 OVC080 21/18 A3015 RMK AO2 T02060183
