2019/06/08 12:51
KSAT 081251Z 32003KT 10SM CLR 24/20 A2986 RMK AO2 SLP092 T02390200
