2019/04/08 11:51
KSAT 081151Z 32006KT 10SM FEW250 14/11 A2997 RMK AO2 SLP136 70129 T01440106 10156 20139 53008
