2019/05/09 11:51
KSAT 091151Z 28003KT 4SM BR FEW007 BKN018 OVC120 24/22 A2977 RMK AO2 SLP064 70010 T02390222 10244 20228 51010
