2019/06/09 13:03
KSAT 091303Z 15005KT 6SM BR BKN006 BKN017 26/24 A2991 RMK AO2 T02560239
