2019/04/09 07:51
KSAT 090751Z 30005KT 10SM CLR 16/11 A2996 RMK AO2 SLP131 T01560111 $
