2019/04/10 07:51
KSAT 100751Z 15006KT 10SM FEW250 19/14 A2979 RMK AO2 SLP071 T01940139
