2019/06/10 13:51
KSAT 101351Z 01013G22KT 10SM FEW070 OVC220 26/20 A3020 RMK AO2 SLP208 T02560200
