2019/05/10 09:51
KSAT 100951Z 01010G20KT 10SM OVC021 16/12 A2995 RMK AO2 SLP127 T01560117 $
