2019/04/11 07:51
KSAT 110751Z 15005KT 10SM CLR 18/13 A2953 RMK AO2 SLP980 T01830128
