2019/05/11 17:31
KSAT 111731Z 33006KT 3SM -RA BR BKN006 OVC022 16/14 A2994 RMK AO2 P0001 T01560144
