2019/04/12 06:51
KSAT 120651Z 05004KT 10SM FEW250 15/07 A2981 RMK AO2 SLP080 T01500072
