2019/06/13 12:51
KSAT 131251Z 02007KT 10SM CLR 23/16 A3012 RMK AO2 SLP181 T02330161
