2019/04/13 15:51
KSAT 131551Z 27012KT 2SM R13R/3500VP6000FT +TSRA BR BKN035CB OVC070 17/14 A2966 RMK AO2 LTG DSNT ALQDS TSE1459B00 PRESRR SLP030 FRQ LTGICCG TS ALQDS MOVG NE P0030 T01670144 $
