2019/04/14 19:51
KSAT 141951Z 34004KT 10SM CLR 21/06 A3006 RMK AO2 SLP167 T02110056 $
