2019/05/15 15:51
KSAT 151551Z 14003KT 10SM BKN021 BKN250 25/19 A3005 RMK AO2 SLP161 T02500189
