2019/04/15 13:51
KSAT 151351Z 20008KT 10SM FEW250 16/08 A3009 RMK AO2 SLP177 T01560083
