2019/06/15 18:51
KSAT 151851Z 16015KT 10SM SCT041 SCT250 33/22 A2988 RMK AO2 SLP099 T03280222
