2019/04/16 16:51
KSAT 161651Z 16014KT 10SM SCT026 BKN250 23/16 A3001 RMK AO2 SLP147 T02330161
