2019/06/16 12:51
KSAT 161251Z 17012KT 10SM BKN017 OVC028 26/22 A2988 RMK AO2 SLP098 T02610217
