2019/05/17 12:51
KSAT 171251Z 16009KT 10SM BKN010 OVC013 23/21 A2987 RMK AO2 RAB38E47 SLP096 P0000 T02280211
