2019/04/18 14:51
KSAT 171451Z 27005KT 10SM SHRA BKN012 OVC028 23/20 A2984 RMK AO2 PK WND 15026/1403 DZE39 SLP089 DSNT NW-NE P0000 60000 T02330200 55004 $
