2019/05/18 11:51
KSAT 181151Z 16009KT 8SM -RA OVC009 24/22 A2975 RMK AO2 RAB45 SLP055 P0000 60000 T02440222 10250 20239 53001
