2019/05/19 14:51
KSAT 191451Z 16007KT 5SM HZ SCT012 OVC020 27/23 A2988 RMK AO2 SLP099 T02670228 53019
