2019/04/19 09:51
KSAT 190951Z 33008KT 10SM FEW050 13/06 A3004 RMK AO2 SLP158 T01280061
