2019/04/20 19:51
KSAT 201951Z 19010KT 10SM FEW250 26/11 A3006 RMK AO2 SLP167 T02610111
