2019/04/21 07:51
KSAT 210751Z 16007KT 10SM FEW250 16/13 A2998 RMK AO2 SLP135 T01610133
