2019/06/22 19:51
KSAT 221951Z 18010KT 10SM SCT037 BKN070 BKN250 32/24 A2989 RMK AO2 RAB36E48 SLP102 P0000 T03170239 $
