2019/04/22 09:51
KSAT 220951Z 15011KT 10SM BKN012 BKN021 BKN250 19/17 A2999 RMK AO2 SLP140 T01940172 $
