2019/09/22 17:51
KSAT 221751Z 21007KT 10SM BKN039 BKN250 32/21 A3002 RMK AO2 SLP147 60005 T03220211 10322 20239 58014
