2019/04/23 09:51
KSAT 220951Z 10011KT 10SM BKN012 BKN021 BKN25 19/17 A2999 RMK AO2 SLP140 T01940172 $
