2019/04/24 12:51
KSAT 241251Z 06009KT 6SM TS BR OVC006CB 19/18 A2989 RMK AO2 LTG DSNT W-NE SLP104 TSB1154 OCNL LTGICCG TS SW-SE-N MOV NE P0002 T01940183
