2019/03/24 17:51
KSAT 241751Z 20009KT 10SM OVC024 22/17 A3009 RMK AO2 SLP173 60000 T02220167 10228 20183 58006
