2019/04/25 10:51
KSAT 251051Z 29008KT 10SM FEW250 13/12 A2986 RMK AO2 SLP099 T01330117 $
