2019/03/25 17:51
KSAT 251751Z 20003KT 10SM SCT030 BKN048 BKN250 24/18 A3013 RMK AO2 SLP188 60001 T02390183 10250 20200 50000
