2019/03/26 09:51
KSAT 260951Z 01005KT 10SM BKN060 BKN250 14/08 A3022 RMK AO2 SLP219 T01440083
