2019/04/26 20:51
KSAT 262051Z VRB03KT 10SM FEW048 FEW250 28/14 A3009 RMK AO2 SLP173 T02780144 58024
