2019/05/27 14:51
KSAT 271451Z 17013G19KT 10SM SCT016 BKN037 BKN250 27/20 A2996 RMK AO2 SLP127 T02670200 50002
