2019/04/27 15:51
KSAT 271551Z 22014G18KT 10SM FEW250 24/12 A3000 RMK AO2 SLP143 T02390122 $
