2019/05/28 11:51
KSAT 281151Z 16013KT 10SM BKN014 BKN170 BKN250 23/21 A2979 RMK AO2 SLP070 T02330206 10239 20233 53003 $
