2019/03/28 16:51
KSAT 281651Z 15017G21KT 10SM SCT024 BKN031 BKN250 22/15 A3016 RMK AO2 SLP200 T02170150
