2019/03/29 11:51
KSAT 291151Z 16012KT 10SM BKN013 OVC028 17/15 A2997 RMK AO2 SLP135 T01720150 10178 20167 57011
