2019/03/30 15:51
KSAT 301551Z 35006KT 10SM OVC015 19/16 A2999 RMK AO2 SLP140 T01940161
