2019/04/30 07:51
KSAT 300751Z 12006KT 7SM -DZ BKN009 OVC031 22/21 A2990 RMK AO2 DZB04 SLP109 P0000 T02220211 $
