2019/05/31 13:51
KSAT 311351Z 05007KT 10SM FEW250 24/21 A3001 RMK AO2 SLP146 T02390206
