2019/03/31 11:51
KSAT 311151Z 02015G20KT 10SM BKN150 08/M03 A3030 RMK AO2 SLP251 T00831028 10106 20083 53009
