2019/04/01 20:51
KJFK 012051Z 31019G24KT 10SM FEW065 08/M11 A3024 RMK AO2 PK WND 31028/1959 SLP239 T00781111 53005
