2019/06/01 11:51
KJFK 011151Z 09004KT 10SM BKN250 19/14 A2986 RMK AO2 SLP112 T01890139 10189 20161 51018
