2019/05/01 18:51
KJFK 011851Z 11011KT 10SM BKN022 OVC034 12/07 A3039 RMK AO2 SLP292 T01170067
