2019/05/02 12:51
KJFK 011851Z 10022KT 10SM FEW012 OVC025 13/09 A3039 RMK AO2 SLP292 T01170067
