2019/04/02 09:51
KJFK 020951Z 08005KT 10SM BKN260 01/M04 A3043 RMK AO2 SLP303 T00061044
