2019/05/03 12:10
KJFK 011851Z 08022KT 8SM RA FEW012 OVC025 13/09 A3039 RMK AO2 SLP292 T01170067
