2019/06/03 15:51
KJFK 031551Z 23014KT 10SM SCT065 BKN250 19/09 A2991 RMK AO2 SLP128 T01940089
