2019/04/03 12:51
KJFK 031251Z 31008KT 10SM FEW250 08/02 A3001 RMK AO2 SLP161 T00830017
