2019/11/03 21:51
KJFK 032151Z 30009KT 10SM SCT060 BKN075 11/M02 A3015 RMK AO2 SLP209 T01061017
