2019/04/04 07:51
KJFK 040751Z 28010KT 10SM SCT250 09/M08 A3028 RMK AO2 SLP253 T00891083
