2019/05/04 15:51
KJFK 041551Z 03006KT 5SM -RA BR SCT009 BKN035 OVC100 15/14 A2990 RMK AO2 RAB1454 SLP124 P0002 T01500139
