2019/06/04 15:51
KJFK 041551Z 24011G17KT 10SM FEW060 FEW250 18/06 A3013 RMK AO2 SLP204 T01830056
