2019/11/04 16:51
KJFK 041651Z 18008KT 160V220 10SM FEW140 SCT250 12/02 A3038 RMK AO2 SLP285 T01220017
