2019/06/05 14:51
KJFK 051451Z 19007KT 10SM BKN150 BKN180 20/17 A2993 RMK AO2 SLP134 T02000172 56011
