2019/04/05 09:51
KJFK 050951Z 04007KT 10SM OVC140 03/M11 A3052 RMK AO2 SLP334 T00331111
