2019/05/05 09:51
KJFK 050951Z 04004KT 2SM RA BR BKN007 OVC013 13/13 A2981 RMK AO2 SFC VIS 3 SLP095 P0017 T01330133
