2019/06/06 12:51
KJFK 061251Z 25009KT 4SM BR SCT017 SCT080 SCT250 23/22 A2970 RMK AO2 SLP058 T02280222
