2019/04/06 09:51
KJFK 060951Z 35011KT 1/2SM R04R/P6000FT -DZ BR OVC003 04/04 A3019 RMK AO2 SFC VIS 2 DZB12 SLP222 P0000 T00440044
