2019/05/07 11:51
KJFK 071151Z 15006KT 10SM BKN026 12/09 A3020 RMK AO2 SLP226 T01170094 10117 20106 53008 $
