2019/04/07 13:51
KJFK 071351Z 17007KT 10SM FEW150 SCT250 14/04 A3032 RMK AO2 SLP265 T01390044
