2019/11/07 14:51
KJFK 071451Z 25013KT 10SM FEW070 BKN110 BKN150 OVC200 12/00 A3022 RMK AO2 SLP233 T01170006 56004 $
