2019/06/08 12:51
KJFK 081251Z 06013KT 10SM FEW150 BKN250 23/13 A3012 RMK AO2 SLP198 T02280128
