2019/04/08 12:12
KJFK 081212Z 19007KT 4SM BR FEW004 OVC012 11/11 A2990 RMK AO2 T01060106
