2019/06/09 12:51
KJFK 091251Z 08008KT 10SM FEW200 BKN250 21/12 A3032 RMK AO2 SLP266 T02110122
