2019/05/09 11:51
KJFK 091151Z 06012KT 10SM FEW016 SCT075 SCT250 12/06 A3034 RMK AO2 SLP275 T01220056 10122 20100 53014
