2019/04/09 07:51
KJFK 090751Z 06008KT 8SM OVC009 08/08 A2976 RMK AO2 SLP076 T00830078
