2019/06/10 13:51
KJFK 101351Z 09012KT 10SM BKN012 OVC035 20/18 A3012 RMK AO2 RAB13E23 SLP199 P0000 T02000183
