2019/04/10 09:51
KJFK 100951Z 30008KT 10SM FEW080 08/02 A2976 RMK AO2 SLP076 T00830022 $
