2019/05/10 10:06
KJFK 101006Z 13011KT 10SM BKN009 OVC017 13/12 A3013 RMK AO2 T01330122
