2019/05/11 17:51
KJFK 111751Z 32009KT 10SM FEW250 19/07 A3003 RMK AO2 SLP170 T01940067 10194 20144 50000 $
