2019/04/11 07:51
KJFK 110751Z 02009KT 10SM BKN140 BKN250 04/M04 A3016 RMK AO2 SLP212 T00441044
