2019/05/12 10:51
KJFK 121051Z 06012KT 7SM -RA BKN009 OVC060 09/09 A2997 RMK AO2 SLP148 P0003 T00940094 $
