2019/04/12 06:51
KJFK 120651Z 10009KT 10SM OVC025 08/01 A3028 RMK AO2 SLP252 T00780006
