2019/06/13 12:59
KJFK 131259Z 05012KT 1 1/2SM R04R/3500V5500FT +RA BR FEW000 FEW008 BKN015 OVC033 15/14 A2991 RMK AO2 TWR VIS 2 RA FEW000 P0007 T01500139
