2019/05/13 13:51
KJFK 131351Z 07012KT 6SM RA BR OVC010 08/08 A2988 RMK AO2 RAE01B19 SLP119 CIG 008V012 P0001 T00830078
