2019/04/13 15:51
KJFK 131551Z 22007KT 10SM FEW008 SCT014 BKN100 BKN200 17/16 A3009 RMK AO2 SLP188 T01720161
