2019/04/14 19:51
KJFK 141951Z 14010KT 2SM BR OVC004 14/14 A2980 RMK AO2 SFC VIS 5 SLP090 T01440139 $
