2019/04/15 13:51
KJFK 151351Z 19011KT 7SM SCT003 SCT045 BKN140 BKN240 12/12 A2937 RMK AO2 SLP946 T01220122 $
