2019/05/15 15:51
KJFK 151551Z 34011G20KT 10SM SCT046 15/05 A2988 RMK AO2 SLP117 T01500050
