2019/06/15 18:51
KJFK 151851Z 19018KT 10SM FEW055 SCT200 BKN250 24/17 A3004 RMK AO2 SLP170 T02390172
