2019/06/16 12:51
KJFK 161251Z 19010KT 10SM FEW090 SCT130 BKN160 BKN210 21/19 A2992 RMK AO2 SLP131 T02110194
