2019/04/16 16:51
KJFK 161651Z 29017G26KT 10SM FEW250 16/M07 A3001 RMK AO2 PK WND 29030/1634 SLP161 T01561072
