2019/05/17 12:51
KJFK 171251Z 19007KT 10SM FEW150 BKN250 17/13 A2982 RMK AO2 SLP098 T01720128
