2019/04/18 14:51
KJFK 171451Z 27005KT 10SM BKN060 BKN250 13/M03 A3018 RMK AO2 SLP219 T01281028 51007
