2019/05/18 11:51
KJFK 181151Z 36010KT 10SM FEW150 BKN250 16/08 A2997 RMK AO2 SLP149 70025 T01610078 10178 20139 51034
