2019/05/19 14:51
KJFK 191451Z 17013KT 10SM BKN060 BKN120 BKN250 19/15 A3008 RMK AO2 SLP186 60014 T01940150 58006
