2019/04/19 09:51
KJFK 190951Z 18017KT 8SM FEW130 BKN240 12/12 A2984 RMK AO2 SLP103 T01220122
