2019/04/20 19:51
KJFK 201951Z 16017G27KT 10SM BKN006 BKN065 OVC250 14/14 A2977 RMK AO2 PK WND 16027/1949 SLP082 T01390139
