2019/04/21 07:51
KJFK 210751Z 14007KT 10SM BKN090 BKN250 12/11 A2990 RMK AO2 SLP124 T01170106
