2019/04/22 09:51
KJFK 220951Z 01004KT 10SM FEW130 SCT170 SCT250 10/09 A3007 RMK AO2 SLP181 T01000089
