2019/09/22 17:51
KJFK 221751Z 20011KT 10SM FEW050 FEW250 26/19 A3013 RMK AO2 SLP203 T02610189 58013 $
