2019/06/22 19:51
KJFK 221951Z 31016G24KT 10SM SCT085 BKN100 BKN250 27/11 A2987 RMK AO2 SLP114 T02670106
