2019/04/23 09:51
KJFK 220951Z 18004KT 10SM FEW130 FEW150 SCT250 15/09 A3007 RMK AO2 SLP181 T01000089
