2019/04/24 12:51
KJFK 241251Z 32015KT 10SM FEW037 FEW050 FEW250 18/10 A2974 RMK AO2 SLP070 T01830100
