2019/03/24 17:51
KJFK 241751Z 21015KT 10SM SCT210 BKN250 12/M06 A3013 RMK AO2 SLP203 T01221061 10122 20044 56028
