2019/04/25 11:51
KJFK 251151Z 05005KT 10SM FEW190 SCT250 11/04 A2999 RMK AO2 SLP155 T01060039 
