2019/03/25 17:51
KJFK 251751Z 02005KT 10SM BKN065 OVC140 11/M01 A3008 RMK AO2 SLP185 60000 T01061011 10111 20100 58001
