2019/04/26 20:51
KJFK 262051Z 10014G20KT 1/2SM R04R/5500VP6000FT RA BR OVC003 13/13 A2947 RMK AO2 SFC VIS 2 1/2 LTG DSNT SE AND S RAB06 SLP978 P0001 60026 T01280128 58049
