2019/03/26 10:51
KJFK 261051Z 36014KT 10SM FEW100 SCT250 00/M14 A3020 RMK AO2 SLP226 T00001139
