2019/05/27 14:51
KJFK 271451Z 33012KT 10SM FEW047 FEW250 24/14 A2994 RMK AO2 SLP138 T02390139 50001
