2019/03/27 10:51
KJFK 271051Z 02007KT 10SM CLR 00/M11 A3050 RMK AO2 SLP328 T00001106
