2019/04/27 15:51
KJFK 271551Z 29021G31KT 10SM SCT040 SCT100 BKN250 14/M03 A2958 RMK AO2 PK WND 28035/1529 SLP015 T01391028
