2019/03/28 17:51
KJFK 281751Z 16013KT 10SM BKN250 08/M01 A3039 RMK AO2 SLP290 T00781011 10089 20033 58029
