2019/05/28 11:51
KJFK 281151Z 08008KT 10SM FEW095 BKN130 BKN250 18/13 A2992 RMK AO2 SLP132 T01830133 10194 20167 50004
