2019/04/28 08:51
KJFK 280851Z 34003KT 10SM BKN085 BKN110 BKN130 09/02 A2996 RMK AO2 SLP144 T00890017 51008
