2019/03/29 11:51
KJFK 291151Z 16007KT 10SM BKN080 OVC140 08/06 A3014 RMK AO2 SLP206 T00780061 10078 20067 56004
