2019/03/30 15:51
KJFK 301551Z 16014KT 10SM SCT130 BKN250 13/08 A3007 RMK AO2 SLP183 T01280078
