2019/04/30 07:51
KJFK 300751Z 09003KT 1 1/2SM -RA BR OVC004 09/09 A3017 RMK AO2 SFC VIS 5 SLP214 P0002 T00890089
