2019/05/31 13:51
KJFK 311351Z 35012KT 10SM FEW037 FEW250 23/17 A2977 RMK AO2 SLP081 T02330167
