2019/03/31 11:51
KJFK 311151Z 18019KT 10SM FEW015 BKN075 BKN110 BKN180 BKN250 10/08 A2972 RMK AO2 PK WND 18031/1110 SLP064 FU FEW015 FU PLUME S DRFTG NE T01000083 10106 20094 55003
