2019/05/01 19:53
KTRI 011953Z 26010KT 10SM SCT055 SCT200 BKN250 28/14 A3018 RMK AO2 SLP197 T02780139
