2019/06/01 11:53
KTRI 011153Z 00000KT 1/16SM FG VV002 14/13 A2999 RMK AO2 TWR VIS 1/4 SLP138 70010 T01390133 10144 20128 51009
