2019/04/01 20:53
KTRI 012053Z 03005KT 10SM SCT220 BKN250 11/M09 A3020 RMK AO2 SLP223 T01111094 56032
