2019/05/02 16:53
KTRI 011953Z 20010KT 8SM SCT025 SCT035 BKN050 26/15 A3018 RMK AO2 SLP197 T02780139
