2019/04/02 11:53
KTRI 021153Z 00000KT 10SM OVC120 04/M04 A3018 RMK AO2 SLP212 T00391039 10061 20033 53000
