2019/04/03 12:53
KTRI 031253Z 00000KT 10SM CLR 03/01 A3035 RMK AO2 SLP272 T00280006
