2019/06/03 16:53
KTRI 031653Z VRB05KT 10SM SCT045 24/11 A3011 RMK AO2 SLP171 T02440111
