2019/05/03 12:10
KTRI 011953Z 10010KT 5SM -RA SCT035 BKN050 25/16 A3018 RMK AO2 SLP197 T02780139
