2019/11/03 22:53
KTRI 032253Z 00000KT 10SM CLR 09/M02 A3021 RMK AO2 SLP226 T00891017 $
