2019/04/04 07:53
KTRI 040753Z 00000KT 10SM SCT200 07/03 A3033 RMK AO2 SLP259 T00720028
