2019/06/04 15:53
KTRI 041553Z VRB03KT 10SM SCT250 23/11 A3017 RMK AO2 SLP195 T02280106
