2019/05/04 16:53
KTRI 041653Z 00000KT 10SM FEW030 BKN160 24/17 A2992 RMK AO2 SLP108 T02440167 $
