2019/11/04 16:53
KTRI 041653Z 20003KT 10SM BKN250 13/01 A3024 RMK AO2 SLP233 T01330006
