2019/06/05 15:10
KTRI 051510Z 27004KT 2 1/2SM RA SCT050 BKN070 OVC090 21/18 A3006 RMK AO2 P0002 T02110178
