2019/05/05 10:16
KTRI 051016Z 00000KT 10SM BKN014 BKN044 OVC065 17/16 A2972 RMK AO2 RAE04 P0000 T01670156 $
