2019/04/05 09:53
KTRI 050953Z 06003KT 9SM -RA OVC070 10/08 A3013 RMK AO2 SLP186 P0007 T01000083
