2019/04/06 09:53
KTRI 060953Z 00000KT 10SM BKN065 10/08 A3015 RMK AO2 SLP195 T01000083
