2019/06/06 12:53
KTRI 061253Z 21004KT 7SM OVC018 22/19 A2995 RMK AO2 SLP118 T02220194
