2019/04/07 13:53
KTRI 071353Z 00000KT 10SM BKN060 BKN100 BKN120 OVC180 17/12 A3019 RMK AO2 SLP207 T01720122
