2019/05/07 11:53
KTRI 071153Z 00000KT 10SM FEW070 SCT250 12/09 A3018 RMK AO2 SLP200 T01170094 10117 20089 53018
