2019/11/07 14:53
KTRI 071453Z 00000KT 10SM FEW043 BKN080 BKN150 11/06 A3023 RMK AO2 SLP225 T01110056 58004
