2019/04/08 12:25
KTRI 081225Z 00000KT 5SM BR FEW002 SCT100 BKN250 12/12 A3003 RMK AO2 T01220117
