2019/06/08 13:53
KTRI 081353Z 09006KT 10SM SCT120 BKN160 23/19 A2991 RMK AO2 SLP103 T02280189
