2019/06/09 12:53
KTRI 091253Z 09004KT 10SM -RA FEW060 FEW090 OVC110 21/19 A2999 RMK AO2 SLP134 P0002 T02110194
