2019/04/09 07:53
KTRI 090753Z 27004KT 10SM OVC008 16/15 A2984 RMK AO2 SLP083 T01610150
