2019/05/09 11:53
KTRI 091153Z 00000KT 10SM SCT250 20/16 A3006 RMK AO2 SLP154 T02000161 10200 20150 58003
