2019/05/10 09:53
KTRI 100953Z 00000KT 10SM OVC050 18/15 A3004 RMK AO2 SLP150 T01780150
