2019/06/10 13:53
KTRI 101353Z 23003KT 10SM BKN032 OVC060 23/19 A3000 RMK AO2 SLP135 T02280189
