2019/04/10 09:53
KTRI 100953Z 00000KT 10SM CLR 07/03 A2987 RMK AO2 SLP098 T00670028
