2019/04/11 07:53
KTRI 110753Z 00000KT 10SM FEW250 10/06 A2989 RMK AO2 SLP103 T01000061
