2019/05/11 17:53
KTRI 111753Z 19006KT 10SM FEW080 SCT100 OVC180 22/17 A2993 RMK AO2 SLP114 60008 T02220172 10222 20178 58017 $
