2019/05/12 10:53
KTRI 121053Z 21005KT 10SM -RA BKN027 BKN034 OVC075 18/17 A2976 RMK AO2 RAB34 SLP055 P0000 T01830172 $
