2019/04/12 07:53
KTRI 120753Z 15007KT 10SM OVC070 20/12 A2996 RMK AO2 SLP121 T02000117
