2019/05/13 13:53
KTRI 131353Z 25008KT 10SM SCT024 BKN060 16/09 A2987 RMK AO2 SLP097 T01560094
