2019/04/13 15:53
KTRI 131553Z 08005KT 10SM SCT110 OVC170 21/12 A3011 RMK AO2 SLP175 T02110117
