2019/06/13 12:53
KTRI 131253Z 20003KT 10SM SCT007 BKN010 BKN090 17/15 A2990 RMK AO2 SLP106 T01670150
