2019/04/14 19:53
KTRI 141953Z 15008G16KT 10SM FEW038 FEW055 BKN120 20/16 A2954 RMK AO2 RAE46 SLP982 P0017 T02000161
