2019/04/15 14:53
KTRI 151453Z 28012G23KT 10SM BKN035 08/00 A3000 RMK AO2 SLP146 T00830000 51027
