2019/05/15 15:53
KTRI 151553Z 00000KT 10SM FEW030 SCT130 BKN250 18/05 A3010 RMK AO2 SLP180 T01780050
