2019/06/15 18:53
KTRI 151853Z 26009KT 10SM FEW060 SCT250 28/13 A3013 RMK AO2 SLP181 T02780133
