2019/04/16 16:53
KTRI 161653Z VRB03KT 10SM FEW250 17/02 A3023 RMK AO2 SLP225 T01720022
