2019/04/17 14:53
KTRI 171453Z 00000KT 10SM OVC250 18/09 A3018 RMK AO2 SLP205 T01830094 50001
