2019/05/17 12:53
KTRI 171253Z 14003KT 10SM BKN250 17/16 A3002 RMK AO2 RAB25E41 SLP146 P0002 T01720156
