2019/04/18 14:53
KTRI 171453Z 00000KT 10SM RA OVC250 18/09 A3018 RMK AO2 SLP205 T01830094 50001
