2019/05/18 11:53
KTRI 181153Z 00000KT 3SM BR SCT001 17/16 A3008 RMK AO2 TWR VIS 10 SLP164 70008 T01720161 10172 20139 51012
