2019/05/19 14:53
KTRI 191453Z 00000KT 10SM CLR 26/19 A3005 RMK AO2 SLP150 T02560194 58002 $
