2019/04/19 10:32
KTRI 191032Z 30005KT 1 1/2SM +RA BR BKN029 BKN033 OVC040 16/14 A2965 RMK AO2 RAB0957 P0016 T01610144
