2019/04/20 19:53
KTRI 201953Z 27005KT 5SM -RA FEW016 BKN031 OVC041 08/04 A2970 RMK AO2 RAB30 SLP046 P0001 T00780044 $
