2019/04/21 07:53
KTRI 210753Z 23005KT 10SM FEW034 BKN050 OVC060 07/04 A2993 RMK AO2 SLP127 T00670044 $
