2019/06/22 19:53
KTRI 221953Z 22006KT 10SM FEW016 SCT055 BKN150 23/19 A3009 RMK AO2 SLP167 T02330189 $
