2019/04/22 10:21
KTRI 221021Z 00000KT 1/4SM FG FEW001 04/03 A3021 RMK AO2 T00390033 $
