2019/09/22 17:53
KTRI 221753Z VRB03KT 10SM FEW050 FEW250 29/16 A3019 RMK AO2 SLP197 T02940156 10294 20156 58028 $
