2019/04/23 10:21
KTRI 221021Z 00000KT 1/2SM FG SCT100 11/07 A3021 RMK AO2 T00390033 $
