2019/04/24 12:53
KTRI 241253Z 00000KT 10SM SCT160 17/11 A3003 RMK AO2 SLP149 T01720111
