2019/03/24 19:53
KTRI 241953Z 27009G15KT 10SM FEW200 BKN250 21/M02 A3014 RMK AO2 SLP195 T02061022
