2019/04/25 11:53
KTRI 251153Z 00000KT 10SM SCT050 BKN100 OVC140 14/10 A2995 RMK AO2 RAB00E16 SLP121 P0000 60000 T01390100 10139 20106 51008
