2019/03/25 18:53
KTRI 251853Z 00000KT 9SM -RA BKN045 OVC060 12/08 A2997 RMK AO2 SLP141 P0003 T01170078
