2019/04/26 20:53
KTRI 262053Z 29010KT 10SM SCT013 BKN060 BKN070 14/06 A2981 RMK AO2 PK WND 27027/2021 RAB18E33 SLP077 P0000 60000 T01390056 50018 $
