2019/03/26 10:53
KTRI 261053Z 01006KT 10SM OVC012 07/04 A3010 RMK AO2 SLP185 T00670039
