2019/03/27 12:53
KTRI 271253Z VRB03KT 10SM CLR 03/M02 A3039 RMK AO2 SLP286 T00331022
