2019/05/27 14:53
KTRI 271453Z 26005KT 10SM BKN065 26/18 A3011 RMK AO2 SLP168 T02610178 50000
