2019/04/27 15:53
KTRI 271553Z 28011G19KT 10SM CLR 17/02 A3002 RMK AO2 SLP150 T01670017 $
