2019/03/28 17:53
KTRI 281753Z 23008KT 10SM SCT250 17/01 A3032 RMK AO2 SLP253 T01720006 10172 20011 58028
