2019/05/28 11:53
KTRI 281153Z 00000KT 10SM SCT050 21/19 A3001 RMK AO2 SLP138 T02110189 10211 20178 51012
