2019/04/28 08:53
KTRI 280853Z 00000KT 10SM FEW060 OVC080 12/10 A2990 RMK AO2 SLP105 T01220100 55000 $
