2019/03/29 11:53
KTRI 291153Z 00000KT 10SM SCT110 BKN250 07/03 A3023 RMK AO2 SLP226 T00670033 10083 20056 53004
