2019/04/30 07:53
KTRI 300753Z 00000KT 9SM FEW055 13/12 A3022 RMK AO2 SLP212 T01330117
