2019/03/30 16:53
KTRI 301653Z 21014KT 10SM FEW055 SCT180 BKN250 21/07 A3000 RMK AO2 SLP141 T02060067
