2019/03/31 11:53
KTRI 311153Z 28009KT 10SM BKN025 OVC038 06/03 A3000 RMK AO2 SLP142 60040 70043 T00610028 10139 20061 53043 $
