2019/05/31 14:26
KTRI 311426Z 29006KT 3SM HZ SCT016 BKN060 23/18 A2995 RMK AO2 SFC VIS 6 T02280178
