2019/04/01 19:52
KABI 011952Z 23006KT 10SM CLR 16/M02 A3018 RMK AO2 SLP213 T01611022
