2019/05/01 17:52
KABI 011752Z 18011KT 7SM FEW029 BKN041 OVC055 27/21 A2991 RMK AO2 SLP104 T02720206 10278 20211 58001
