2019/06/01 10:52
KABI 011052Z 15006KT 10SM BKN070 21/20 A2999 RMK AO2 SLP130 T02110200 $
