2019/06/02 10:06
KABI 021006Z 09008KT 10SM +RA OVC060 17/17 A3004 RMK AO2 LTG DSNT E AND SW P0000 T01720172 $
