2019/05/02 07:52
KABI 030752Z 16022KT 8SM BKN040 OVC050 17/14 A2995 RMK AO2 SLP126 T01560150
