2019/05/03 07:52
KABI 030752Z 12006KT 10SM BKN036 OVC045 16/15 A2995 RMK AO2 SLP126 T01560150
