2019/04/03 08:52
KABI 030852Z 15012KT 10SM CLR 13/04 A3000 RMK AO2 SLP142 T01280044 56013
