2019/06/03 14:52
KABI 031452Z 18006KT 10SM CLR 22/20 A3003 RMK AO2 SLP145 60000 T02170200 50010
