2019/11/03 21:52
KABI 032152Z 20014KT 10SM CLR 23/01 A2997 RMK AO2 SLP136 T02280011
