2019/04/04 07:52
KABI 040752Z 20016G27KT 10SM CLR 18/16 A2991 RMK AO2 PK WND 20027/0743 SLP107 T01830156
