2019/06/04 06:52
KABI 040652Z 15006KT 10SM CLR 23/21 A2999 RMK AO2 SLP129 T02280211
