2019/05/04 14:36
KABI 041436Z 02009KT 10SM BKN023 OVC024 17/16 A3001 RMK AO2 T01670156 $
