2019/11/04 12:52
KABI 041252Z 20011KT 10SM CLR 14/04 A2994 RMK AO2 SLP123 T01390044
