2019/05/05 09:52
KABI 050952Z 13006KT 10SM FEW039 15/15 A2989 RMK AO2 SLP103 T01500150 $
