2019/04/05 08:52
KABI 050852Z 15007KT 9SM CLR 14/13 A3000 RMK AO2 SLP140 T01440133 58007
