2019/06/05 08:52
KABI 050852Z 18007KT 10SM FEW060 FEW075 SCT095 22/21 A2991 RMK AO2 SLP102 T02220206 58011
