2019/06/06 11:52
KABI 061152Z 26004KT 10SM CLR 16/16 A2986 RMK AO2 SLP093 60000 70174 T01610161 10183 20161 53009
