2019/04/06 09:52
KABI 060952Z 08004KT 7SM FEW027 BKN049 OVC060 19/17 A2991 RMK AO2 SLP104 T01940172
