2019/11/06 12:52
KABI 061252Z 19007KT 8SM OVC011 18/15 A3019 RMK AO2 SLP209 T01830150
