2019/05/07 06:52
KABI 070652Z 16009KT 9SM CLR 19/18 A2993 RMK AO2 SLP112 T01940178
