2019/06/07 09:52
KABI 070952Z 32004KT 10SM CLR 19/18 A2985 RMK AO2 SLP085 T01890183
