2019/04/07 12:52
KABI 071252Z 20007KT 3SM BR OVC003 18/18 A2989 RMK AO2 SLP102 T01780178
