2019/11/07 14:32
KABI 071432Z 01014KT 10SM -RA BKN008 OVC020 04/03 A3037 RMK AO2 PK WND 36027/1401 CIG 006V011 P0002 T00440028
