2019/04/08 09:07
KABI 080907Z 22004KT 1/2SM R35R/2200V4000FT FG VV004 14/14 A3000 RMK AO2 T01390139
