2019/06/08 12:52
KABI 081252Z 20003KT 10SM CLR 21/19 A2992 RMK AO2 SLP104 T02060189
