2019/06/09 11:52
KABI 091152Z 13006KT 10SM CLR 22/21 A2990 RMK AO2 SLP098 T02220206 10256 20222 53018
