2019/08/09 09:52
KABI 090952Z 16009KT 10SM CLR 28/19 A2992 RMK AO2 SLP098 T02780194
