2019/04/09 06:52
KABI 090652Z 17004KT 10SM CLR 14/10 A3000 RMK AO2 SLP138 T01440100
