2019/05/09 07:52
KABI 090752Z 16005KT 10SM CLR 17/13 A2973 RMK AO2 SLP045 T01720133
