2019/04/10 06:52
KABI 100652Z 16013KT 10SM CLR 22/11 A2971 RMK AO2 SLP034 T02220106
