2019/05/10 08:52
KABI 100852Z 16013KT 10SM CLR 27/07 A3019 RMK AO2 SLP178 T00890067 55006
