2019/06/10 12:52
KABI 101252Z 01011KT 10SM OVC049 18/12 A3037 RMK AO2 SLP265 T01830117
