2020/02/10 20:04
KABI 102004Z 30007KT 2SM -RA BR OVC006 02/02 A3006 RMK AO2 LTG DSNT E CIG 004V010 P0003 T00170017
