2019/04/11 06:52
KABI 110652Z 29011KT 5SM HZ OVC034 23/M02 A2957 RMK AO2 SLP982 T02331022
