2020/02/11 15:52
KABI 111552Z 36010KT 10SM OVC008 03/02 A3023 RMK AO2 SLP241 T00280022
