2019/05/11 15:52
KABI 111552Z 35008KT 9SM BKN008 BKN013 OVC019 13/12 A3000 RMK AO2 RAB40E50 SLP152 P0000 T01280117
