2019/05/12 09:52
KABI 120952Z 12003KT 10SM CLR 10/09 A2992 RMK AO2 SLP123 T01000094
