2019/04/12 06:52
KABI 120652Z 12008KT 10SM CLR 09/01 A2984 RMK AO2 SLP094 T00890011
