2019/04/13 12:03
KABI 131203Z 36011KT 6SM +RA BR BKN013 BKN018 OVC024 08/07 A2973 RMK AO2 LTG DSNT SW-NW P0000 T00780067
