2019/06/13 11:52
KABI 131152Z 12004KT 10SM CLR 17/13 A3017 RMK AO2 SLP193 T01720128 10206 20156 53009
