2019/05/13 06:52
KABI 130652Z 17003KT 10SM CLR 15/13 A2996 RMK AO2 SLP127 T01500133
