2019/04/14 08:52
KABI 140852Z 27006KT 10SM CLR 03/03 A3002 RMK AO2 SLP165 T00330028 58004
