2019/05/15 13:52
KABI 151352Z 21008KT 10SM CLR 21/17 A3006 RMK AO2 SLP158 T02110172
