2019/06/15 15:52
KABI 151552Z 18018G23KT 10SM CLR 29/21 A2983 RMK AO2 PK WND 19031/1455 SLP072 T02890211
