2019/05/16 15:21
KABI 161521Z 17012KT 8SM HZ SCT015 23/20 A3004 RMK AO2 T02330200
