2019/04/16 16:52
KABI 161652Z 18011G19KT 10SM CLR 21/13 A2992 RMK AO2 SLP111 T02060133
