2019/06/16 09:52
KABI 160952Z 07004KT 10SM CLR 21/18 A2985 RMK AO2 SLP080 T02060178
