2019/05/17 06:52
KABI 170652Z 17013KT 10SM CLR 22/18 A2984 RMK AO2 SLP077 T02170178
