2019/04/18 08:02
KABI 170802Z 18016G22KT 10SM SCT017 19/17 A2980 RMK AO2 T01890167
