2019/05/18 11:30
KABI 181130Z 27007G19KT 230V290 9SM VCTS -RA OVC014 22/21 A2966 RMK AO2 PK WND 13032/1054 WSHFT 1049 LTG DSNT ALQDS RAE09B11 TSE24 P0001 T02170206
