2019/04/19 08:52
KABI 190852Z 32009KT 10SM OVC100 13/04 A3011 RMK AO2 SLP179 T01330039 51012
