2019/05/19 13:52
KABI 191352Z 02005KT 10SM CLR 18/09 A2995 RMK AO2 SLP123 T01780094
