2019/05/20 14:52
KABI 201452Z 16019G26KT 5SM HZ BKN021 26/22 A2975 RMK AO2 PK WND 15029/1358 SLP050 T02610222 58005
