2019/04/20 18:52
KABI 201852Z 21014KT 10SM CLR 27/08 A3000 RMK AO2 SLP142 T02670083
