2019/04/21 07:52
KABI 210752Z 18017G26KT 10SM CLR 19/11 A2984 RMK AO2 PK WND 18027/0736 SLP079 T01890106
