2019/12/21 11:52
KABI 211152Z 28005KT 10SM CLR M02/M07 A3033 RMK AO2 SLP272 T10171067 10028 21022 53006