2019/09/22 13:52
KABI 221352Z 19017KT 10SM FEW024 26/19 A3003 RMK AO2 SLP139 T02560189 $
