2019/04/22 08:52
KABI 220852Z 17013KT 10SM CLR 19/17 A2990 RMK AO2 SLP100 T01890167 56001
