2019/06/22 17:52
KABI 221752Z 17016G23KT 10SM CLR 28/19 A2989 RMK AO2 SLP092 60000 T02830194 10294 20250 50002
