2019/03/24 15:52
KABI 241552Z 22016G23KT 10SM CLR 22/16 A3005 RMK AO2 SLP159 T02170161
