2019/04/24 11:59
KABI 241159Z 01005KT 10SM FEW016 BKN031 16/15 A2990 RMK AO2 T01560150
