2019/03/25 17:52
KABI 251752Z 05007KT 10SM CLR 19/09 A3027 RMK AO2 SLP235 T01940089 10194 20089 50009
