2019/04/25 06:52
KABI 250652Z 21004KT 3SM BR CLR 12/12 A2986 RMK AO2 SLP099 T01170117
