2019/04/26 11:52
KABI 261152Z 07005KT 10SM CLR 13/10 A3021 RMK AO2 SLP213 T01330100 10178 20133 51015
