2019/03/26 06:52
KABI 260652Z 08007KT 10SM CLR 12/08 A3030 RMK AO2 SLP246 T01170083
