2019/05/27 05:52
KABI 270552Z 17015G21KT 10SM CLR 24/19 A2988 RMK AO2 SLP091 T02390194 10278 20239 402940206 56001
