2019/03/27 08:52
KABI 270852Z 16014KT 10SM CLR 13/09 A3020 RMK AO2 SLP210 T01280089 58010
