2019/04/27 14:52
KABI 271452Z 20017G30KT 10SM CLR 22/12 A2988 RMK AO2 PK WND 20035/1402 SLP099 T02170122 58003
