2019/05/28 06:52
KABI 280652Z 16022G29KT 10SM CLR 23/19 A2968 RMK AO2 PK WND 16031/0618 SLP023 T02330194
