2019/04/28 07:52
KABI 280752Z 16006KT 10SM CLR 19/15 A2986 RMK AO2 SLP086 T01940150
