2019/03/28 14:21
KABI 281421Z 16011G21KT 10SM OVC014 17/14 A3006 RMK AO2 T01670139
