2019/03/29 08:52
KABI 290852Z 17015KT 10SM CLR 17/14 A2991 RMK AO2 SLP107 T01720139 56005
