2019/04/29 13:52
KABI 291352Z 15010KT 10SM CLR 19/17 A2988 RMK AO2 SLP097 T01890167
