2019/03/30 15:52
KABI 301552Z 02016G29KT 10SM BKN028 09/02 A3021 RMK AO2 PK WND 01035/1533 SLP218 T00940017
