2019/04/30 07:21
KABI 300721Z 01004KT 10SM BKN018 BKN035 OVC055 18/17 A2989 RMK AO2 T01780167
