2019/05/30 17:52
KABI 301752Z 06008KT 10SM CLR 26/15 A3007 RMK AO2 SLP160 T02560150 10256 20172 58001
