2019/03/31 10:52
KABI 311052Z 01004KT 10SM CLR 03/M03 A3039 RMK AO2 SLP290 T00281033
