2019/05/31 06:52
KABI 310652Z 14012KT 10SM BKN080 BKN100 20/17 A3003 RMK AO2 SLP147 T02000172
