2019/05/01 18:30
LFLP 011830Z AUTO 27003KT 240V300 CAVOK 16/06 Q1013 NOSIG
