2019/04/01 20:30
LFLP 012030Z AUTO 05004KT CAVOK 10/04 Q1014
