2019/06/01 11:30
LFLP 011130Z AUTO 28005KT 220V010 CAVOK 25/13 Q1022 NOSIG
