2019/06/02 10:30
LFLP 021030Z AUTO VRB03KT CAVOK 26/15 Q1019 NOSIG
