2019/04/02 07:30
LFLP 020730Z AUTO VRB01KT CAVOK 08/03 Q1014 NOSIG
