2019/05/02 14:30
LFLP 021430Z AUTO VRB15G28KT 2500 TSRA FEW024/// SCT068/// BKN084/// ///CB 13/09 Q1013
