2019/04/03 07:30
LFLP 030730Z AUTO VRB01KT 9999 FEW064 SCT076 OVC086 09/06 Q1003 BECMG RA
