2019/05/03 12:00
LFLP 031200Z AUTO 36006KT 290V030 9999 SCT047 SCT054 BKN074 15/06 Q1011 NOSIG
