2019/06/03 16:00
LFLP 031600Z AUTO VRB15G25KT 180V250 4000 TSRA SCT070CB 25/15 Q1016
