2019/11/03 22:00
LFLP 032200Z AUTO 18005KT 9999 -RA BKN039 BKN047 OVC056 09/07 Q1000
