2019/05/04 14:00
LFLP 041400Z AUTO 16004KT 130V230 9999 BKN040TCU BKN054 OVC064 09/06 Q1008
