2019/04/04 07:30
LFLP 040730Z AUTO 05001KT 2800 -SN BR OVC005 01/00 Q0999 BECMG 6000 NSW BKN014
