2019/11/04 13:30
LFLP 041330Z AUTO 22015G25KT 120V180 9999 RA SCT035TCU OVC040 12/09 Q0999
