2019/04/05 09:30
LFLP 050930Z AUTO 02005KT 330V070 CAVOK 06/00 Q1003 NOSIG
