2019/06/05 10:30
LFLP 051030Z AUTO 31006KT 260V360 9999 NSC 25/13 Q1007 NOSIG
