2019/05/05 10:00
LFLP 051000Z AUTO 04017G29KT 360V060 9999 BKN033 BKN054 07/00 Q1014 NOSIG
