2019/06/06 12:00
LFLP 061200Z AUTO VRB03KT 9999 BKN017 BKN022 BKN033 13/09 Q1016 NOSIG
