2019/04/06 09:30
LFLP 060930Z AUTO 13003KT CAVOK 09/03 Q1002 NOSIG
