2019/11/06 13:30
LFLP 061330Z AUTO 19003KT 140V240 9999 FEW045 BKN058 OVC068 09/05 Q1008 NOSIG
