2019/05/07 07:30
LFLP 070730Z AUTO VRB01KT CAVOK 08/01 Q1019 NOSIG
