2019/04/07 13:30
LFLP 071330Z AUTO 28006KT 240V310 4000 SHRA FEW047 BKN062 BKN170 11/05 Q1006
