2019/11/07 15:00
LFLP 071500Z AUTO 06004KT 4000 RA FEW035 BKN041 OVC048 06/05 Q1006
