2019/06/08 13:00
LFLP 081300Z AUTO 30004KT 260V020 CAVOK 22/04 Q1023 NOSIG
