2019/04/08 10:30
LFLP 081030Z AUTO VRB02KT 9999 SCT030TCU BKN035 13/05 Q1010
