2019/08/09 10:30
LFLP 091030Z AUTO 27004KT 220V320 CAVOK 29/15 Q1013 NOSIG
