2019/04/09 07:00
LFLP 090700Z AUTO VRB02KT CAVOK 06/02 Q1010 NOSIG
