2019/06/09 12:30
LFLP 091230Z AUTO 00000KT 9999 TSRA FEW028/// SCT052/// BKN080CB ///TCU 14/13 Q1022
