2019/05/09 08:00
LFLP 090800Z AUTO 16008KT 4000 SHRA BKN030TCU OVC044 10/06 Q1007
