2019/05/10 09:30
LFLP 102100Z AUTO VRB03KT 9999 -RA NSC 16/15 Q1003