2019/06/10 13:00
LFLP 101300Z AUTO 27003KT 240V320 2500 TSRA BKN008 BKN050CB/// OVC086/// ///CB 14/13 Q1015
