2019/04/11 07:00
LFLP 110700Z AUTO 36015KT 330V110 9000 FEW020 OVC034 09/06 Q1010 TEMPO BKN014 BECMG 36015KT
