2019/05/11 17:00
LFLP 111700Z AUTO VRB13KT 070V150 4500 SHRA SCT047/// OVC056/// ///TCU 09/08 Q1021
