2019/05/12 10:00
LFLP 121000Z AUTO 02017G30KT 340V070 CAVOK 13/02 Q1025 NOSIG
