2019/04/12 07:00
LFLP 120700Z AUTO 29003KT 240V360 8000 NSC 07/03 Q1015 NOSIG
