2019/05/13 10:30
LFLP 131030Z AUTO 02018KT 350V050 CAVOK 13/05 Q1024 TEMPO 02020G35KT
