2019/06/13 12:30
LFLP 131230Z AUTO 24006KT 200V300 CAVOK 23/07 Q1015 NOSIG
