2019/04/13 12:00
LFLP 131200Z AUTO 29008KT 250V330 9999 BKN052 12/01 Q1016 NOSIG
