2019/04/14 09:30
LFLP 140930Z AUTO 33009KT 270V010 CAVOK 07/M04 Q1016 NOSIG
