2019/05/14 10:00
LFLP 141000Z AUTO 04014G25KT 360V070 CAVOK 14/03 Q1020 BECMG 02015G25KT
