2019/04/15 08:30
LFLP 150830Z AUTO 07006KT 010V100 CAVOK 07/02 Q1020 NOSIG
