2019/05/15 15:30
LFLP 151530Z AUTO 02016KT 340V040 CAVOK 14/03 Q1015 BECMG 01015G25KT
