2019/06/15 16:00
LFLP 151600Z AUTO VRB15G30KT 4900 -RA BR SCT027/// SCT038/// BKN050/// ///CB 14/12 Q1021
