2019/05/16 15:30
LFLP 161530Z AUTO 33006G19KT 270V040 CAVOK 18/05 Q1009 NOSIG
