2019/06/16 10:30
LFLP 161030Z AUTO 36005KT 280V050 9999 FEW035 SCT041 20/12 Q1021 NOSIG
