2019/05/17 12:30
LFLP 171230Z AUTO VRB01KT 9999 SHRA SCT030TCU OVC050 13/07 Q1006
