2019/04/18 08:00
LFLP 170800Z AUTO VRB01KT BKN041 OVC058 12/07 Q1021 NOSIG
