2019/05/18 11:30
LFLP 181130Z AUTO VRB02KT 4000 SHRA BKN040TCU 16/09 Q1005
