2019/04/19 09:00
LFLP 190900Z AUTO 00000KT CAVOK 17/06 Q1026 NOSIG
