2019/05/19 14:30
LFLP 191430Z AUTO 31006KT 250V340 4000 SHRA BKN020TCU BKN044 OVC054 15/09 Q1004
