2019/04/20 19:30
LFLP 201930Z AUTO 02005KT CAVOK 17/04 Q1021
