2019/04/21 08:00
LFLP 210800Z AUTO 35003KT 330V030 CAVOK 13/03 Q1019 NOSIG
