2019/04/22 10:00
LFLP 221000Z AUTO 34005KT 300V040 CAVOK 21/05 Q1005 NOSIG
