2019/09/22 18:00
LFLP 221800Z AUTO 30015G25KT 3000 TSRA BKN032/// BKN039/// OVC058/// ///CB 19/18 Q1012
