2019/06/22 18:00
LFLP 221800Z AUTO VRB03KT CAVOK 23/17 Q1016 NOSIG
