2019/04/22 10:00
LFLP 221000Z AUTO 30005KT 300V040 BKN026 17/09 Q1005 NOSIG
