2019/03/24 16:00
LFLP 241600Z AUTO 24008KT CAVOK 19/03 Q1021 NOSIG
