2019/04/24 12:30
LFLP 241230Z AUTO 21020G45KT 230V300 4000 SHRA BKN021/// BKN026/// OVC041/// ///TCU 10/07 Q1006 TEMPO 21020G45KT 4000 SHRA
