2019/04/25 12:00
LFLP 251200Z AUTO VRB15G25KT 160V260 3500 TSRA SCT010 BKN060CB 20/03 Q1007
