2019/03/26 08:00
LFLP 260800Z AUTO 02015G28KT 360V060 CAVOK 06/M02 Q1024 BECMG 02010KT
