2019/04/26 12:00
LFLP 261200Z AUTO 23008KT 190V260 9999 TSRA FEW037/// BKN110/// ///CB 14/07 Q1016
