2019/05/27 14:30
LFLP 271430Z AUTO 32011KT 270V360 9999 BKN060 BKN072 BKN092 22/11 Q1009 NOSIG
