2019/03/27 10:00
LFLP 271000Z AUTO 02005KT 320V100 CAVOK 09/M02 Q1026 TEMPO 36015KT
