2019/04/27 15:30
LFLP 271530Z AUTO 28004KT 230V340 9999 SHRA BKN038 BKN046 OVC052 11/08 Q1021
