2019/05/28 08:30
LFLP 280830Z AUTO VRB15KT 230V300 4000 SHRA ///TCU 14/10 Q1011
