2019/04/28 08:30
LFLP 280830Z AUTO VRB15G25KT 4000 -SHRA BKN030TCU BKN034 BKN042 07/03 Q1023
