2019/03/28 14:30
LFLP 281430Z AUTO 31006KT 260V350 CAVOK 14/01 Q1027 NOSIG
