2019/03/29 11:00
LFLP 291100Z AUTO VRB03KT CAVOK 14/03 Q1028 NOSIG
