2019/03/30 16:00
LFLP 301600Z AUTO 28006KT 240V340 CAVOK 18/M01 Q1020 NOSIG
