2019/04/30 07:30
LFLP 300730Z AUTO 00000KT CAVOK 09/04 Q1018 BECMG 02010KT
