2019/05/31 13:30
LFLP 311330Z AUTO VRB06KT CAVOK 24/11 Q1024 NOSIG
