2019/03/31 11:00
LFLP 311100Z AUTO 27005KT 220V310 CAVOK 16/04 Q1017 NOSIG
