2019/04/01 20:20
EKYT 012020Z AUTO 15009KT 9999 BKN240/// 03/M03 Q1022
