2019/06/01 11:20
EKYT 011120Z AUTO 25019KT 9999 FEW011/// BKN014/// BKN020/// OVC026/// 14/12 Q1014
