2019/06/02 10:20
EKYT 021020Z AUTO 18003KT 9999 FEW055/// BKN110/// 18/11 Q1016
