2019/05/03 07:50
EKYT 030750Z AUTO 29013KT 9999 FEW037/// SCT043/// 07/M01 Q1002
