2019/06/03 15:50
EKYT 031550Z AUTO 25014KT 9999 SCT047/// BKN140/// BKN210/// 17/10 Q1011
