2019/04/03 07:50
EKYT 030750Z AUTO 11011KT 9999 -RA BKN037/// 07/05 Q1005
