2019/11/03 21:50
EKYT 032150Z AUTO 08013KT 6000 -SHRA BKN006/// BKN008/// 08/08 Q0991
