2019/06/04 07:20
EKYT 040720Z AUTO 23003KT 9999 NCD 13/10 Q1014
