2019/04/04 07:50
EKYT 040750Z AUTO 09015KT 9999 NCD 09/03 Q1002
