2019/05/04 14:20
EKYT 041420Z AUTO 33008KT 290V010 9999 SCT050/// 09/M03 Q1008
