2019/06/05 08:50
EKYT 050850Z AUTO 20011KT 9999 FEW140/// 21/17 Q1007
