2019/06/06 09:20
EKYT 060920Z AUTO 11015KT 9999 FEW100/// SCT130/// BKN160/// 20/16 Q1007
