2019/11/06 12:50
EKYT 061250Z AUTO 06006KT 9999 FEW021/// OVC025/// 03/M01 Q1002
