2019/04/07 13:20
EKYT 071320Z AUTO 03009KT 350V070 9999 FEW095/// 12/03 Q1012
