2019/06/08 13:03
EKYT 081303Z AUTO 20016G29KT 9999 FEW033/// BKN085/// BKN230/// 17/11 Q1011
