2019/08/09 10:20
EKYT 091020Z 24008KT 9999 SCT020 20/14 Q1010
