2019/04/09 06:50
EKYT 090650Z AUTO 04006KT 340V090 9999 NCD 03/M06 Q1022
