2019/05/09 07:50
EKYT 090750Z AUTO 13011KT 9999 -RA FEW006/// BKN008/// OVC010/// 09/09 Q0995
