2019/06/09 12:20
EKYT 091220Z AUTO 25022KT 9999 FEW036/// 16/09 Q1019
