2020/02/10 19:50
EKYT 101950Z AUTO 24019KT 9999 FEW065/// SCT100/// BKN200/// 04/02 Q0977
