2019/05/10 08:50
EKYT 100850Z AUTO 32006KT 9999 -RA FEW018/// BKN022/// OVC026/// 05/03 Q1009
