2019/06/10 12:20
EKYT 101220Z AUTO 12002KT 9999 FEW037/// BKN042/// 19/10 Q1020
