2019/04/10 07:20
EKYT 100720Z AUTO 02006KT 9999 FEW037/// OVC042/// 01/M03 Q1024
