2019/04/11 06:50
EKYT 110650Z AUTO 05005KT 020V080 9999 NCD 02/M03 Q1029
