2019/04/12 06:50
EKYT 120650Z AUTO 04006KT 9999 NCD 02/M04 Q1032
