2019/06/13 12:20
EKYT 131220Z AUTO 20007KT 130V240 9999 FEW038/// SCT047/// BKN080/// 20/12 Q1011
