2019/04/13 11:50
EKYT 131150Z AUTO 07012KT 9999 SCT039/// 06/M04 Q1032
