2019/05/14 07:20
EKYT 140720Z AUTO 24003KT 9999 BKN085/// 09/05 Q1037
