2019/04/14 09:20
EKYT 140920Z AUTO 07016KT 9999 NCD 06/M05 Q1034
