2019/04/15 07:20
EKYT 150720Z AUTO 09011KT 9999 NCD 06/M02 Q1036
