2019/06/15 15:50
EKYT 151550Z AUTO 12014G25KT 9999 FEW085/// BKN110/// 19/11 Q1013
