2019/05/15 14:20
EKYT 151420Z AUTO 11006KT 060V130 9999 NCD 15/03 Q1030
