2019/05/16 14:20
EKYT 161420Z AUTO 07014KT 030V090 9999 NCD 19/04 Q1024
