2019/06/17 13:50
EKYT 171350Z AUTO 25017KT 9999 FEW037/// BKN050/// 20/12 Q1019
