2019/05/17 07:20
EKYT 170720Z AUTO 06014KT 9999 BKN050/// 12/05 Q1018
