2019/04/17 07:50
EKYT 170750Z AUTO 10012KT 9999 NCD 08/00 Q1033
