2019/04/18 07:50
EKYT 170750Z AUTO 27005KT 9999 NSC 08/00 Q1033
