2019/05/18 11:20
EKYT 181120Z 10009KT 9999 -RA SCT007 BKN010 13/11 Q1013
