2019/05/19 14:20
EKYT 191420Z 09009KT CAVOK 19/14 Q1011 RSC/
