2019/05/20 13:50
EKYT 201350Z AUTO 31004KT 280V350 9999 OVC010/// 16/14 Q1008
