2019/04/20 19:20
EKYT 201920Z AUTO 00000KT 9999 NCD 10/02 Q1030
