2019/04/21 07:50
EKYT 210750Z AUTO 24009KT 9999 NCD 12/05 Q1025
