2019/12/21 12:01
EKYT 211201Z AUTO 21006KT 4700 -RA BR FEW010/// SCT014/// BKN026/// BKN032/// 07/06 Q0988