2019/04/22 09:20
EKYT 220920Z AUTO 12010KT 9999 NCD 15/05 Q1021
