2019/06/22 17:20
EKYT 221720Z AUTO 28008KT 9999 NCD 16/05 Q1024
