2019/09/22 13:50
EKYT 221350Z AUTO 11008KT 9999 NCD 19/13 Q1013
