2019/04/23 09:20
EKYT 220920Z AUTO 12060KT 9999 NCD 15/05 Q1011
