2019/03/24 15:45
EKYT 241545Z 27020KT 3500 SHRA -SHGR BR SCT019CB BKN031 BKN050 05/03 Q1016
