2019/04/25 11:50
EKYT 251150Z AUTO 12009KT 9999 SCT050/// 15/10 Q1010
