2019/04/26 11:50
EKYT 261150Z AUTO 08011KT 050V110 9999 FEW140/// 18/11 Q1010
