2019/03/26 06:50
EKYT 260650Z AUTO 33007KT 290V360 9999 NCD 05/M02 Q1019
