2019/05/27 06:20
EKYT 270620Z AUTO 22010KT 9999 FEW017/// SCT029/// BKN060/// 10/08 Q0999
