2019/04/27 14:50
EKYT 271450Z AUTO 04004KT 310V080 9999 SCT024/// BKN110/// 14/09 Q1009
