2019/03/27 09:20
EKYT 270920Z AUTO 29013KT 9999 FEW011/// 08/06 Q1023
