2019/04/28 08:20
EKYT 280820Z AUTO 36007KT 9999 FEW035/// BKN095/// 10/09 Q1015
