2019/03/29 08:50
EKYT 290850Z AUTO 25021KT 9999 FEW015/// 10/06 Q1024
