2019/04/29 14:20
EKYT 291420Z AUTO 05009KT 020V080 9999 NCD 19/07 Q1023
