2019/04/30 07:20
EKYT 300720Z AUTO 29007KT 260V320 9999 NCD 14/10 Q1020
