2019/05/30 18:20
EKYT 301820Z AUTO 26013KT 9999 FEW010/// BKN016/// OVC024/// 13/11 Q1013
