2019/03/30 15:50
EKYT 301550Z AUTO 25019KT 9999 FEW021/// BKN049/// 09/07 Q1013
