2019/03/31 10:50
EKYT 311050Z AUTO 32012KT 280V010 9999 NCD 06/M05 Q1024
