2019/05/31 07:20
EKYT 310720Z AUTO 29009KT 260V320 9999 FEW140/// SCT180/// 15/05 Q1020
