2019/05/01 17:51
KPHX 011751Z 10003KT 10SM FEW075 26/07 A2991 RMK AO2 SLP111 T02560067 10261 20183 50001
