2019/04/01 19:51
KPHX 011951Z 09007KT 10SM FEW150 BKN250 27/M12 A2996 RMK AO2 SLP130 T02671117
