2019/06/01 10:51
KPHX 011051Z 26006KT 10SM CLR 25/02 A2977 RMK AO2 SLP060 T02500017
