2019/06/02 09:51
KPHX 020951Z 00000KT 10SM CLR 26/08 A2976 RMK AO2 SLP057 T02560083
