2019/04/02 06:51
KPHX 020651Z 10004KT 10SM BKN250 21/M03 A2986 RMK AO2 SLP098 T02061028 402830144
