2019/05/02 13:51
KPHX 021351Z 09006KT 10SM FEW250 19/04 A2989 RMK AO2 SLP108 T01890044
