2019/05/03 11:51
KPHX 031151Z 12004KT 10SM CLR 19/02 A2983 RMK AO2 SLP087 T01890022 10261 20183 53003
