2019/06/03 15:51
KPHX 031551Z 06003KT 10SM CLR 28/08 A2982 RMK AO2 SLP077 T02830083
