2019/04/03 06:51
KPHX 030651Z 23003KT 10SM CLR 22/M02 A2982 RMK AO2 SLP082 T02171017 403110144
