2019/11/03 21:51
KPHX 032151Z 18003KT 10SM FEW180 SCT250 29/M03 A2990 RMK AO2 SLP110 T02941033
