2019/04/04 07:51
KPHX 040751Z 10006KT 10SM BKN250 18/04 A3000 RMK AO2 SLP146 T01830039
