2019/06/04 06:51
KPHX 040651Z 29011KT 10SM CLR 29/M01 A2975 RMK AO2 SLP053 T02941006 403670233
