2019/05/04 13:51
KPHX 041351Z 09008KT 10SM SCT250 21/01 A2982 RMK AO2 SLP080 T02060006
