2019/11/04 12:51
KPHX 041251Z 10004KT 10SM FEW250 16/M03 A2994 RMK AO2 SLP126 T01561028
