2019/05/05 14:51
KPHX 051451Z 08006KT 10SM FEW180 FEW250 23/01 A2976 RMK AO2 SLP060 T02280011 53015
