2019/04/05 09:51
KPHX 050951Z 09006KT 10SM BKN250 17/01 A2989 RMK AO2 SLP109 T01670006
