2019/06/05 09:51
KPHX 050951Z 29007KT 10SM FEW270 28/05 A2980 RMK AO2 SLP069 T02830050
