2019/04/06 09:51
KPHX 060951Z 23005KT 10SM BKN085 OVC100 20/06 A2987 RMK AO2 SLP100 T02000061
