2019/06/06 11:51
KPHX 061151Z 00000KT 10SM SCT140 26/05 A2987 RMK AO2 SLP093 T02610050 10328 20261 53015
