2019/11/06 12:51
KPHX 061251Z 08004KT 10SM VCTS BKN150 19/04 A2989 RMK AO2 LTG DSNT SW AND W SLP106 CONS LTGCGICCC DSNT N AND S-NW T01890039
