2019/04/07 13:51
KPHX 071351Z 00000KT 10SM CLR 17/07 A3009 RMK AO2 SLP179 T01670072
