2019/06/07 09:51
KPHX 070951Z 04004KT 10SM FEW140 FEW250 29/06 A2981 RMK AO2 SLP073 T02890056
