2019/05/07 07:51
KPHX 070751Z 27009KT 10SM SCT090 SCT250 22/07 A2981 RMK AO2 SLP077 T02220067
