2019/11/07 14:51
KPHX 071451Z 11004KT 10SM FEW250 18/07 A3008 RMK AO2 SLP173 T01780072 53025
