2019/06/08 12:51
KPHX 081251Z 10009KT 10SM FEW110 FEW150 FEW180 24/04 A2984 RMK AO2 SLP085 T02390044
