2019/04/08 10:51
KPHX 081051Z 10003KT 10SM FEW200 19/05 A3001 RMK AO2 SLP148 T01890050
