2019/04/09 06:51
KPHX 090651Z 09005KT 10SM BKN190 25/03 A2991 RMK AO2 SLP113 T02500033 403610172
