2019/05/09 07:51
KPHX 090751Z 08011KT 10SM CLR 19/11 A2980 RMK AO2 SLP075 T01940111
