2019/06/09 11:51
KPHX 091151Z 07006KT 10SM SCT120 26/04 A2991 RMK AO2 SLP108 T02560039 10311 20256 53013
