2020/02/10 19:51
KPHX 101951Z 20007G15KT 10SM FEW065 FEW085 SCT100 21/06 A2981 RMK AO2 SLP084 T02110056
