2019/04/10 07:51
KPHX 100751Z 24014KT 10SM FEW240 22/M01 A2968 RMK AO2 PK WND 26028/0706 SLP034 T02171011
