2019/06/10 12:51
KPHX 101251Z 12007KT 10SM FEW130 BKN150 BKN200 28/02 A2995 RMK AO2 SLP121 T02780017
