2019/05/10 09:51
KPHX 100951Z 35005KT 10SM FEW065 FEW100 SCT150 BKN250 36/06 A2985 RMK AO2 SLP038 T02170067
