2019/05/11 16:51
KPHX 111651Z 26003KT 10SM FEW060 FEW140 BKN250 23/07 A2990 RMK AO2 SLP110 T02330067
