2020/02/11 18:51
KPHX 111851Z 06005KT 10SM SCT033 BKN060 BKN140 13/04 A2998 RMK AO2 SLP147 T01280044
