2019/04/11 06:51
KPHX 110651Z 27009KT 10SM CLR 18/M07 A2987 RMK AO2 SLP104 T01831072 402500156
