2019/04/12 06:51
KPHX 120651Z 28017G22KT 10SM SCT100 BKN120 OVC140 21/M05 A2971 RMK AO2 SLP047 T02111050 402560128
