2019/05/12 09:51
KPHX 120951Z 03006KT 10SM FEW090 SCT120 BKN170 BKN200 20/12 A2985 RMK AO2 RAE01 SLP092 P0000 T02000122
