2019/05/13 06:51
KPHX 130651Z 10006KT 10SM CLR 22/11 A2989 RMK AO2 SLP106 T02170106 403000183
