2019/06/13 11:51
KPHX 131151Z 13006KT 10SM BKN120 BKN200 28/04 A2978 RMK AO2 SLP061 T02780039 10356 20278 53008
