2019/04/13 11:51
KPHX 131151Z 08005KT 10SM CLR 14/05 A2982 RMK AO2 SLP088 T01390050 10183 20139 53009
