2019/05/14 06:51
KPHX 140651Z 09004KT 10SM FEW090 FEW250 27/08 A2986 RMK AO2 SLP093 T02670083 403280183
