2019/04/14 08:51
KPHX 140851Z 08006KT 10SM CLR 17/03 A2992 RMK AO2 SLP121 T01720028 51003
