2019/04/15 07:51
KPHX 150751Z 13006KT 10SM BKN210 BKN250 22/00 A2980 RMK AO2 SLP076 T02170000
