2019/06/15 15:51
KPHX 151551Z 10006KT 10SM FEW250 31/04 A2985 RMK AO2 SLP088 T03060039
