2019/06/16 10:51
KPHX 161051Z 14005KT 10SM CLR 28/07 A2975 RMK AO2 SLP054 T02830072
