2019/05/16 14:51
KPHX 161451Z 15009KT 10SM FEW160 SCT200 BKN250 25/04 A2978 RMK AO2 SLP067 T02500044 51012
