2019/04/16 16:51
KPHX 161651Z 18016G20KT 10SM FEW080 FEW160 SCT250 24/03 A2987 RMK AO2 SLP101 T02390033
