2019/05/17 06:51
KPHX 170651Z 26021G31KT 10SM FEW100 FEW200 23/08 A2974 RMK AO2 PK WND 27031/0644 SLP053 T02330083 403440233 $
