2019/06/17 13:51
KPHX 171351Z 13007KT 10SM FEW150 FEW200 BKN250 28/03 A2978 RMK AO2 SLP064 T02830028
