2019/04/18 08:51
KPHX 170851Z 27019KT 10SM RA FEW050 SCT080 BKN110 BKN140 16/11 A2992 RMK AO2 RAB11E20 SLP118 OCNL LTGCGIC DSNT S CB DSNT S P0000 60000 T01610111 53007 $
