2019/05/18 10:51
KPHX 181051Z 24004KT 10SM CLR 18/01 A2983 RMK AO2 SLP089 T01780011
