2019/05/19 13:51
KPHX 191351Z 08007KT 10SM FU FEW000 BKN190 BKN250 21/03 A2978 RMK AO2 SLP069 FU SE T02060028
