2019/04/19 08:51
KPHX 190851Z 08006KT 10SM CLR 22/06 A2996 RMK AO2 SLP130 T02170056 58005
