2019/05/20 14:51
KPHX 201451Z 25009KT 10SM FEW060 FEW150 BKN180 BKN230 16/03 A2975 RMK AO2 SLP064 T01560033 51017
