2019/04/20 19:51
KPHX 201951Z 30005KT 10SM CLR 32/M04 A2977 RMK AO2 SLP063 T03221044
