2019/04/21 07:51
KPHX 210751Z 22004KT 10SM FEW180 BKN250 25/00 A2979 RMK AO2 SLP068 T02500000
