2019/12/21 11:51
KPHX 211151Z 12006KT 10SM BKN250 10/M04 A3026 RMK AO2 SLP240 T01001044 10106 20072 58000