2019/04/22 09:51
KPHX 220951Z 08009KT 10SM CLR 19/M02 A2983 RMK AO2 SLP086 T01941022
