2019/06/22 17:51
KPHX 221751Z 18004KT 10SM FEW080 FEW250 33/07 A2980 RMK AO2 SLP072 T03280072 10333 20250 50001
