2019/09/22 17:51
KPHX 221751Z VRB05KT 10SM CLR 33/02 A2996 RMK AO2 SLP127 T03280017 10328 20222 50005 $
