2019/04/23 09:51
KPHX 220951Z 10005KT 10SM FEW100 19/05 A2983 RMK AO2 SLP086 T01941022
