2019/03/24 16:51
KPHX 241651Z 12003KT 10SM CLR 19/04 A3012 RMK AO2 SLP188 T01940039
