2019/04/24 12:51
KPHX 241251Z 11007KT 10SM FEW150 FEW180 18/08 A2991 RMK AO2 SLP115 T01830078 $
