2019/03/25 15:51
KPHX 251551Z 11005KT 10SM FEW250 18/03 A3012 RMK AO2 SLP187 T01830033
