2019/04/25 07:51
KPHX 250751Z 09005KT 10SM CLR 24/04 A2985 RMK AO2 SLP090 T02390039
