2019/04/26 11:51
KPHX 261151Z 15007KT 10SM CLR 23/06 A2988 RMK AO2 SLP097 T02280061 10306 20222 53005
