2019/04/27 14:51
KPHX 271451Z 12008KT 10SM CLR 24/03 A2988 RMK AO2 SLP100 T02440028 51017
