2019/05/27 06:51
KPHX 270651Z 23010KT 10SM BKN140 BKN160 OVC250 24/03 A2978 RMK AO2 SLP069 T02390028 402940189 $
