2019/03/27 09:51
KPHX 270951Z 08008KT 10SM OVC250 19/05 A2990 RMK AO2 SLP110 T01940050
