2019/03/28 14:51
KPHX 281451Z 08006KT 10SM CLR 16/04 A3004 RMK AO2 SLP160 T01610039 53016
