2019/05/28 07:51
KPHX 280751Z 26006KT 10SM CLR 21/M01 A2982 RMK AO2 SLP086 T02061006 $
