2019/04/28 08:51
KPHX 280851Z 09005KT 10SM BKN250 25/00 A2977 RMK AO2 SLP060 T02500000 50001
