2019/03/29 10:51
KPHX 291051Z 20003KT 10SM CLR 16/02 A2999 RMK AO2 SLP141 T01610017
