2019/04/30 07:51
KPHX 300751Z 08012KT 10SM BKN080 BKN090 18/12 A2980 RMK AO2 SLP078 T01780117
