2019/03/30 15:51
KPHX 301551Z 28003KT 10SM FEW250 BKN300 18/M04 A3003 RMK AO2 SLP159 T01831039
