2019/05/30 17:51
KPHX 301751Z 32004KT 10SM FEW110 FEW250 29/02 A2986 RMK AO2 SLP092 T02940022 10306 20217 50003
