2019/03/31 10:51
KPHX 311051Z 13003KT 10SM FEW250 15/M03 A2991 RMK AO2 SLP115 T01501033 $
