2019/05/31 06:51
KPHX 310651Z 25009KT 10SM CLR 28/02 A2980 RMK AO2 SLP071 T02830022 403560217
