2019/05/01 17:53
KPIE 011753Z 08008KT 10SM CLR 30/18 A3015 RMK AO2 SLP207 T03000178 10300 20228 58018
