2019/06/01 10:53
KPIE 011053Z 26004KT 10SM CLR 25/23 A2994 RMK AO2 SLP138 T02500228
