2019/04/01 20:53
KPIE 012053Z 07005KT 10SM FEW011 SCT100 20/17 A3002 RMK AO2 SLP167 60004 T02000172 56032
