2019/06/02 10:53
KPIE 021053Z AUTO 26005KT 10SM CLR 26/22 A2990 RMK AO2 SLP125 T02560222
