2019/05/02 14:53
KPIE 021453Z 10012G16KT 10SM CLR 28/21 A3008 RMK AO2 SLP184 T02780206 55001
