2019/04/02 07:53
KPIE 020753Z AUTO 14004KT 7SM BKN120 18/17 A3002 RMK AO2 SLP164 T01780167
