2019/04/03 06:53
KPIE 030653Z AUTO 06010KT 10SM CLR 16/14 A3019 RMK AO2 SLP224 T01610139
