2019/06/03 15:53
KPIE 031553Z 30009KT 10SM SCT035 31/22 A2999 RMK AO2 SLP157 T03110222
