2019/05/03 11:53
KPIE 031153Z 18006KT 9SM CLR 23/22 A3000 RMK AO2 SLP159 70076 T02330222 10233 20222 53013
