2019/11/03 21:53
KPIE 032153Z 07009KT 10SM FEW037 OVC050 26/17 A3004 RMK AO2 SLP171 T02560172
