2019/04/04 06:53
KPIE 040653Z AUTO 09008KT 10SM CLR 19/14 A3025 RMK AO2 SLP241 T01890139
