2019/05/04 13:53
KPIE 041353Z 17008KT 10SM BKN012 27/22 A2997 RMK AO2 SLP149 T02670222
