2019/11/04 12:53
KPIE 041253Z 06008KT 10SM SCT070 23/18 A3009 RMK AO2 SLP190 T02330178
