2019/04/05 09:57
KPIE 050957Z 14006KT 5SM RA BR BKN038 BKN075 OVC095 18/17 A3012 RMK AO2 LTG DSNT SW P0001 T01780172
