2019/06/05 13:53
KPIE 051353Z 13004KT 10SM CLR 28/23 A3003 RMK AO2 SLP169 T02830228
