2019/05/05 15:00
KPIE 051500Z 20012KT 10SM FEW020 BKN048 28/23 A2991 RMK AO2 T02780233
