2019/06/06 12:53
KPIE 061253Z 16006KT 10SM CLR 29/22 A2995 RMK AO2 SLP141 T02890222
