2019/04/06 09:53
KPIE 060953Z 00000KT 10SM CLR 19/19 A3008 RMK AO2 SLP187 T01940194
