2019/11/06 13:26
KPIE 061326Z 05008KT 10SM OVC005 24/22 A3019 RMK AO2 T02390217 $
