2019/05/07 07:53
KPIE 070753Z AUTO 36005KT 10SM CLR 23/21 A3001 RMK AO2 SLP162 T02330206
