2019/04/07 13:53
KPIE 071353Z 12008KT 10SM BKN011 24/21 A3019 RMK AO2 SLP221 T02440211
