2019/11/07 14:53
KPIE 071453Z 06006KT 10SM SCT006 26/22 A3015 RMK AO2 SLP210 T02610222 51011
