2019/06/08 12:53
KPIE 081253Z 33003KT 10SM FEW090 29/23 A2991 RMK AO2 LTG DSNT NE TSE03B04E49 SLP128 T02890233
