2019/04/08 11:53
KPIE 081153Z 12008KT 10SM SCT009 22/21 A3006 RMK AO2 SLP179 T02170206 10233 20217 53003
