2019/05/09 07:53
KPIE 090753Z AUTO 11009KT 10SM CLR 23/19 A2999 RMK AO2 SLP155 T02330194 $
