2019/08/09 09:53
KPIE 090953Z 20004KT 10SM FEW021 26/26 A2994 RMK AO2 SLP137 T02610261
