2019/06/09 12:53
KPIE 091253Z 16008KT 10SM VCTS FEW012 SCT070 BKN110 27/25 A2993 RMK AO2 LTG DSNT NW RAB37E46 SLP136 P0000 T02720250
