2019/04/09 06:53
KPIE 090653Z AUTO 21003KT 10SM CLR 22/21 A2993 RMK AO2 SLP134 T02170206 $
