2019/04/10 07:53
KPIE 100753Z AUTO 23004KT 10SM BKN075 OVC095 21/19 A2976 RMK AO2 SLP077 T02060189 $
