2019/05/10 09:53
KPIE 100953Z 35004KT 10SM CLR 23/21 A3004 RMK AO2 SLP151 T02280206
