2019/06/10 12:53
KPIE 101253Z 18008KT 10SM CLR 26/23 A3001 RMK AO2 SLP163 T02610228
