2019/04/11 06:53
KPIE 110653Z 07003KT 10SM CLR 21/18 A2983 RMK AO2 SLP101 T02110183
