2019/04/12 06:53
KPIE 120653Z AUTO 03004KT 10SM CLR 23/19 A2994 RMK AO2 SLP137 T02280194
