2019/05/12 10:53
KPIE 121053Z 15006KT 10SM CLR 23/23 A2992 RMK AO2 SLP131 T02330228
