2019/06/13 12:39
KPIE 131239Z 29005KT 10SM BKN023 BKN030 28/22 A3003 RMK AO2 TSB04E23 T02780222 $
