2019/05/13 11:53
KPIE 131153Z 23008KT 10SM SCT019 BKN033 BKN047 27/24 A2991 RMK AO2 SLP129 T02670239 10267 20256 53017
