2019/04/14 08:53
KPIE 140853Z AUTO 15012KT 10SM CLR 23/21 A2990 RMK AO2 SLP124 T02280206 56005
