2019/05/15 14:53
KPIE 151453Z 09004KT 10SM FEW100 25/18 A3000 RMK AO2 SLP158 T02500178 51010
