2019/04/15 08:53
KPIE 150853Z AUTO 31013KT 10SM SCT028 19/16 A2994 RMK AO2 SLP137 T01940156 53005
