2019/06/15 15:53
KPIE 151553Z 08005KT 10SM CLR 29/22 A3013 RMK AO2 SLP202 T02940222
