2019/04/16 16:53
KPIE 161653Z 07006KT 10SM CLR 24/09 A3018 RMK AO2 SLP218 T02390094
