2019/06/16 10:53
KPIE 161053Z 10005KT 10SM SCT013 25/24 A3001 RMK AO2 SLP162 T02500239
