2019/05/16 15:53
KPIE 161553Z 09006KT 10SM SCT035 28/19 A3005 RMK AO2 SLP175 T02780189
