2019/04/17 08:53
KPIE 170853Z AUTO 11004KT 10SM CLR 18/16 A3010 RMK AO2 SLP191 T01830156 56008
