2019/05/18 11:53
KPIE 181153Z 13004KT 10SM CLR 23/19 A3003 RMK AO2 SLP170 T02280194 10239 20200 53008
