2019/04/18 08:53
KPIE 170853Z AUTO 27005KT 10SM BKN031 OVC041 18/16 A3010 RMK AO2 SLP191 T01830156 56008
