2019/05/19 13:53
KPIE 191353Z 15005KT 10SM CLR 27/21 A3003 RMK AO2 SLP170 T02720211
