2019/04/19 08:53
KPIE 190853Z AUTO 17011KT 10SM CLR 24/22 A2982 RMK AO2 SLP098 T02390217 56018
