2019/04/20 19:53
KPIE 201953Z AUTO 30016G24KT 10SM CLR 21/07 A3000 RMK AO2 PK WND 28028/1922 SLP159 T02110067 PNO
