2019/04/21 07:53
KPIE 210753Z AUTO 30007KT 10SM CLR 16/07 A3005 RMK AO2 SLP175 T01610072 PNO
