2019/09/22 17:53
KPIE 221753Z 08010KT 10SM SCT050 32/19 A3006 RMK AO2 SLP180 T03170189 10317 20239 58014
