2019/06/22 17:53
KPIE 221753Z 31008KT 10SM FEW031 SCT045 32/24 A3014 RMK AO2 LTG DSNT E SLP207 T03170239 10322 20272 58002
