2019/04/22 09:53
KPIE 220953Z AUTO 10005KT 10SM CLR 14/10 A3017 RMK AO2 SLP215 T01440100 PNO
