2019/04/23 09:53
KPIE 220953Z AUTO 12005KT 10SM CLR 19/14 A3017 RMK AO2 SLP215 T01440100 PNO
