2019/03/24 16:53
KPIE 241653Z 14009KT 10SM FEW041 25/14 A3023 RMK AO2 SLP238 T02500139
