2019/04/24 12:53
KPIE 241253Z 15004KT 10SM CLR 21/17 A3008 RMK AO2 SLP185 T02110167 PNO
