2019/04/25 07:53
KPIE 250753Z AUTO 10004KT 10SM CLR 19/17 A2996 RMK AO2 SLP145 T01940167 PNO $
