2019/03/25 16:53
KPIE 251653Z 18005KT 10SM SCT048 26/14 A3012 RMK AO2 SLP199 T02610139
