2019/04/26 11:53
KPIE 261153Z 18012KT 10SM SCT016 BKN070 23/21 A2989 RMK AO2 LTG DSNT NW SLP120 T02330211 10233 20222 58001
