2019/03/26 08:53
KPIE 260853Z AUTO 31005KT 9SM FEW022 FEW029 SCT035 20/19 A3002 RMK AO2 SLP164 T02000189 56005
