2019/05/27 14:53
KPIE 271453Z 05006KT 10SM CLR 28/23 A3008 RMK AO2 SLP187 T02830233 58001
