2019/04/27 15:53
KPIE 271553Z 07009KT 10SM CLR 25/07 A3006 RMK AO2 SLP177 T02500067
