2019/03/27 09:53
KPIE 270953Z AUTO 00000KT 9SM CLR 14/12 A3001 RMK AO2 SLP161 T01390122
