2019/03/28 14:53
KPIE 281453Z 05010KT 10SM CLR 21/13 A3026 RMK AO2 SLP246 T02060133 51015
