2019/05/28 08:53
KPIE 280853Z AUTO 15005KT 10SM CLR 25/21 A2997 RMK AO2 SLP150 T02500211 55007
