2019/04/28 08:53
KPIE 280853Z AUTO 03004KT 10SM CLR 20/16 A3001 RMK AO2 SLP161 T02000156 55004 $
