2019/03/29 10:53
KPIE 291053Z 06005KT 10SM CLR 16/14 A3017 RMK AO2 SLP217 T01560139
