2019/04/30 07:53
KPIE 300753Z AUTO 09006KT 10SM CLR 22/20 A3013 RMK AO2 SLP203 T02220200
