2019/03/30 15:53
KPIE 301553Z 13010KT 10SM CLR 25/13 A3012 RMK AO2 SLP197 T02500133
