2019/05/31 13:53
KPIE 311353Z 14008KT 10SM FEW024 29/23 A3002 RMK AO2 SLP166 T02890228
