2019/03/31 10:53
KPIE 311053Z 15004KT 10SM -RA CLR 16/15 A3002 RMK AO2 RAB48 SLP164 P0000 T01610150 $
