2019/06/01 11:20
LTAI 011120Z 16007KT 120V200 9999 FEW030 29/19 Q1011 NOSIG
