2019/05/01 18:20
LTAI 011820Z 08003KT 050V110 9999 FEW030 BKN200 18/14 Q1012 NOSIG
