2019/06/02 10:50
LTAI 021050Z 16010KT 9999 FEW030TCU BKN200 27/21 Q1014 NOSIG
