2019/04/02 07:20
LTAI 020720Z 18005KT 140V230 9999 SCT030 16/08 Q1011 NOSIG
