2019/05/02 14:50
LTAI 021450Z 11010KT 070V150 9999 SCT030 20/15 Q1009 NOSIG
