2019/04/03 07:20
LTAI 030720Z 09003KT 030V180 9999 SCT030 BKN100 18/11 Q1013 NOSIG
