2019/05/03 11:50
LTAI 031150Z 20012KT 9999 FEW030 23/13 Q1010 NOSIG
