2019/11/03 22:20
LTAI 032220Z 01004KT 9999 BKN030 17/14 Q1021 NOSIG
