2019/06/04 07:20
LTAI 040720Z 04004KT 340V100 CAVOK 26/20 Q1013 NOSIG
