2019/04/04 07:20
LTAI 040720Z VRB02KT 9999 SCT030 17/09 Q1014 NOSIG
