2019/04/05 09:50
LTAI 050950Z 18006KT 150V220 9999 FEW030 19/09 Q1015 NOSIG
