2019/05/05 09:50
LTAI 050950Z 16006KT 120V200 9999 -SHRA FEW020CB BKN030 19/15 Q1017 NOSIG
