2019/06/06 13:20
LTAI 061320Z 17007KT 140V210 CAVOK 27/15 Q1013 NOSIG
