2019/04/06 09:50
LTAI 060950Z 11004KT 070V140 9999 BKN030 17/12 Q1014 NOSIG
