2019/11/06 13:20
LTAI 061320Z 19007KT CAVOK 24/14 Q1015 NOSIG
