2019/05/07 10:20
LTAI 071020Z 11012KT 9999 FEW020CB BKN030 21/14 Q1009 TEMPO FM1200 TS
