2019/11/07 15:20
LTAI 071520Z 23002KT CAVOK 20/13 Q1015 NOSIG
