2019/04/08 11:50
LTAI 081150Z 18009KT 9999 SCT030 21/10 Q1008 NOSIG
