2019/06/08 13:20
LTAI 081320Z 18009KT 9999 FEW020CB 28/16 Q1010 NOSIG
