2019/06/09 12:50
LTAI 091250Z 26008KT 9999 FEW020CB BKN030 30/17 Q1008 BECMG 16012KT
