2019/08/09 10:20
LTAI 091020Z 18011KT CAVOK 35/20 Q1004 NOSIG
