2019/04/09 07:20
LTAI 090720Z 18015KT 9999 SCT030 18/12 Q1004 NOSIG
