2019/05/10 10:20
LTAI 101020Z 14008KT 090V180 9999 SCT030 BKN100 21/13 Q1013 NOSIG
