2019/06/10 12:50
LTAI 101250Z 12007KT 090V170 9999 FEW020CB BKN030 26/23 Q1007 NOSIG
