2019/05/11 17:20
LTAI 111720Z 24004KT 9999 SCT030 18/13 Q1016 NOSIG
