2019/04/11 07:20
LTAI 110720Z 07005KT 040V120 9999 FEW020TCU BKN030 16/12 Q1015 NOSIG
