2019/05/12 10:50
LTAI 121050Z 18011KT 9999 FEW030 24/14 Q1015 NOSIG
