2019/06/13 12:20
LTAI 131220Z 18007KT 9999 -TSRA FEW020CB SCT030 26/21 Q1009
