2019/05/13 11:50
LTAI 131150Z 17007KT 140V210 CAVOK 28/06 Q1014 NOSIG
