2019/04/14 09:20
LTAI 140920Z 17006KT 130V240 9999 SCT030 BKN200 26/07 Q1005 NOSIG
