2019/05/15 15:20
LTAI 151520Z 15005KT 100V180 CAVOK 25/16 Q1009 NOSIG
