2019/06/15 16:20
LTAI 151620Z 35009KT 310V010 9999 -TSRA FEW020CB SCT030 25/16 Q1007
