2019/06/16 10:50
LTAI 161050Z 19007KT 140V240 9999 FEW020CB 29/17 Q1007 NOSIG
