2019/04/16 16:50
LTAI 161650Z VRB01KT 9999 -SHRA FEW015CB BKN025 15/09 Q1010 NOSIG
