2019/05/16 15:50
LTAI 161550Z 14004KT 9999 FEW030 29/10 Q1007 NOSIG
