2019/05/17 12:20
LTAI 171220Z 15008KT 120V180 9999 FEW030 SCT150 28/13 Q1005 NOSIG
