2019/04/18 08:50
LTAI 170850Z 34009KT 290V020 9999 NSC 20/03 Q1010 NOSIG
