2019/05/18 11:50
LTAI 181150Z 15009KT 120V190 9999 SCT030 23/14 Q1010 NOSIG
