2019/05/19 14:20
LTAI 191420Z 13007KT 9999 FEW030 24/17 Q1013 NOSIG
