2019/04/20 19:20
LTAI 201920Z 32014KT CAVOK 12/M02 Q1016 NOSIG
