2019/06/22 17:50
LTAI 221750Z VRB02KT 9999 FEW020CB SCT030 28/21 Q1009 NOSIG
