2019/09/22 17:50
LTAI 221750Z 06006KT CAVOK 23/12 Q1013 NOSIG
