2019/04/22 09:50
LTAI 220950Z 02011KT 350V060 CAVOK 20/M02 Q1015 NOSIG
