2019/04/23 09:50
LTAI 220950Z 22011KT 350V060 9999 FEW080 20/08 Q1020 NOSIG
