2019/04/24 12:50
LTAI 241250Z 19007KT 150V220 9999 FEW030 BKN200 19/12 Q1026 NOSIG
