2019/03/24 17:20
LTAI 241720Z 34015KT CAVOK 14/M07 Q1010 NOSIG
