2019/04/25 07:50
LTAI 250750Z 22007KT 9999 SCT030 OVC200 22/12 Q1023 NOSIG
