2019/03/25 16:50
LTAI 251650Z 15003KT 120V190 CAVOK 14/07 Q1004 NOSIG
