2019/03/26 08:50
LTAI 260850Z 15007KT 110V190 CAVOK 18/07 Q1010 NOSIG
