2019/04/27 15:20
LTAI 271520Z 18009KT 9999 FEW030 SCT200 20/14 Q1014 NOSIG
