2019/05/27 14:50
LTAI 271450Z 18006KT 140V210 CAVOK 26/18 Q1013 NOSIG
