2019/04/28 08:50
LTAI 280850Z 18006KT 9999 FEW030 BKN200 24/12 Q1015 NOSIG
