2019/05/28 08:50
LTAI 280850Z 23007KT CAVOK 32/15 Q1013 NOSIG
