2019/03/28 15:20
LTAI 281520Z 16003KT 9999 BKN030 16/13 Q1016 NOSIG
