2019/03/30 16:20
LTAI 301620Z 01011KT 9999 SCT030 BKN100 15/01 Q1005 NOSIG
