2019/04/30 07:50
LTAI 300750Z 15008KT 110V180 CAVOK 22/13 Q1016 NOSIG
