2019/03/31 11:20
LTAI 311120Z 08006KT 9999 -SHRA BKN030 BKN100 14/06 Q1005 NOSIG
