2019/05/31 13:50
LTAI 311350Z 15007KT 120V190 9999 FEW030 29/20 Q1009 NOSIG
