2019/06/01 11:20
ENGM 011120Z 18006KT 150V210 9999 FEW001 SCT004 BKN008 11/10 Q1006 TEMPO BKN018
