2019/04/01 20:20
ENGM 012020Z 18009KT CAVOK M00/M05 Q1021 NOSIG
