2019/05/01 18:20
ENGM 011820Z 22005KT 190V250 9999 SHRA VCSH FEW035 BKN060 09/07 Q0998
