2019/04/02 10:20
ENGM 021020Z 15005KT 110V200 9999 FEW020 BKN023 04/M01 Q1015
