2019/06/02 10:50
ENGM 021050Z VRB07KT CAVOK 17/06 Q1013 NOSIG
