2019/05/02 07:50
ENGM 030750Z VRB04KT 4000 -RA BKN030 07/M01 Q0998 NOSIG
