2019/05/03 07:50
ENGM 030750Z VRB04KT CAVOK 05/M08 Q0998 NOSIG
