2019/06/03 16:20
ENGM 031620Z 20018KT 9999 FEW035 SCT140 17/08 Q1005 NOSIG
