2019/04/03 09:20
ENGM 030920Z 02007KT 360V060 CAVOK 02/M05 Q1011 NOSIG
