2019/11/03 21:50
ENGM 032150Z 02011KT 9999 BKN036 M01/M05 Q1000 NOSIG
