2019/06/04 07:20
ENGM 040720Z 17007KT 120V200 9999 FEW024 14/07 Q1010 NOSIG
