2019/04/04 07:50
ENGM 040750Z 03007KT 010V070 CAVOK 03/M00 Q1009 NOSIG
