2019/05/04 14:50
ENGM 041450Z 35015G25KT 240V030 9999 SHRA FEW025 FEW040CB SCT065 BKN100 05/M00 Q1005
