2019/04/05 09:50
ENGM 050950Z 02010KT 9999 BKN024 06/00 Q1018 NOSIG
