2019/05/05 09:50
ENGM 050950Z 22004KT 160V310 CAVOK 07/M08 Q1006 NOSIG
