2019/06/05 10:20
ENGM 051020Z 36005KT 330V030 9999 -RA BKN032 10/09 Q1011 NOSIG
