2019/06/06 11:50
ENGM 061150Z 06005G15KT 360V140 9999 TSRA FEW029 SCT039CB SCT052 25/14 Q1011
