2019/11/06 13:20
ENGM 061320Z 03006KT CAVOK M03/M08 Q1004 NOSIG
