2019/04/07 13:20
ENGM 071320Z 36012KT 9999 BKN045 08/M04 Q1014 NOSIG
