2019/05/07 07:20
ENGM 070720Z 35008KT 300V030 9999 FEW030 SCT100 02/M04 Q1005 NOSIG
