2019/11/07 14:50
ENGM 071450Z 03006KT 9999 VCSH SCT011 BKN014 M04/M05 Q1009 NOSIG
