2019/06/08 13:20
ENGM 081320Z 20006KT 170V230 9999 RA SCT049 BKN056 14/12 Q1011
