2019/04/08 10:20
ENGM 081020Z 03014KT 9999 FEW048 06/M07 Q1020 NOSIG
