2019/04/09 06:50
ENGM 090650Z 02006KT 350V050 CAVOK M00/M08 Q1022 NOSIG
