2019/06/10 12:50
ENGM 101250Z 21009KT 160V240 CAVOK 18/05 Q1017 NOSIG
