2019/05/10 09:20
ENGM 100920Z 33005KT 300V010 9999 -SHRA OVC005 07/06 Q1003 NOSIG
