2020/02/10 19:50
ENGM 101950Z 19008KT CAVOK 02/M03 Q0966 NOSIG
