2019/04/10 07:50
ENGM 100750Z 01010KT 340V040 9999 FEW044 M00/M09 Q1026 NOSIG
