2020/02/11 18:50
ENGM 111850Z 21009KT CAVOK 02/M03 Q0972 NOSIG
