2019/04/11 07:20
ENGM 110720Z 03007KT 350V060 CAVOK M01/M09 Q1030 NOSIG
