2019/04/12 06:50
ENGM 120650Z 02006KT CAVOK M00/M09 Q1032 NOSIG
