2019/05/12 09:50
ENGM 120950Z 36018G28KT 330V030 CAVOK 08/M06 Q1023
