2019/04/13 11:50
ENGM 131150Z VRB06KT CAVOK 08/M11 Q1034 NOSIG
