2019/05/13 10:50
ENGM 131050Z 34006KT 280V020 CAVOK 09/M06 Q1035 NOSIG
