2019/06/13 12:20
ENGM 131220Z 04004KT 270V080 4200 BR BKN003 12/11 Q1011 TEMPO 5000 BR BKN006
