2019/04/14 09:20
ENGM 140920Z VRB02KT CAVOK 06/M07 Q1037 NOSIG
