2019/05/14 07:20
ENGM 140720Z VRB02KT CAVOK 07/M01 Q1034 NOSIG
