2019/06/15 15:50
ENGM 151550Z VRB04KT CAVOK 24/06 Q1015 NOSIG
