2019/04/15 07:50
ENGM 150750Z VRB01KT CAVOK 03/M06 Q1037 NOSIG
