2019/05/16 15:20
ENGM 161520Z 06007KT 020V130 CAVOK 20/01 Q1026 NOSIG
