2019/04/16 16:50
ENGM 161650Z VRB02KT CAVOK 09/M04 Q1031 NOSIG
