2019/06/16 10:20
ENGM 161020Z 18006KT 9999 VCSH NSC 18/11 Q1013 NOSIG
