2019/06/17 13:50
ENGM 171350Z 19015KT 160V240 9999 FEW047 21/10 Q1014 NOSIG
