2019/04/17 08:20
ENGM 170820Z 06003KT 360V120 CAVOK 07/M03 Q1036 NOSIG
