2019/05/17 10:50
ENGM 171050Z 09009KT 020V150 9999 FEW031 SCT035 20/03 Q1023 NOSIG
