2019/05/18 11:50
ENGM 181150Z 01008KT 9999 BKN029 11/08 Q1016
