2019/05/19 14:20
ENGM 191420Z VRB02KT 9999 FEW025 BKN045 15/10 Q1014 NOSIG
