2019/04/19 09:20
ENGM 190920Z 03004KT 350V070 CAVOK 10/M02 Q1038 NOSIG
