2019/05/20 15:20
ENGM 201520Z 01007KT 9999 BKN022 14/11 Q1011 NOSIG
