2019/04/20 19:20
ENGM 201920Z 22004KT CAVOK 12/00 Q1027 NOSIG
