2019/04/21 07:50
ENGM 210750Z VRB02KT CAVOK 10/02 Q1022 NOSIG
