2019/12/21 12:20
ENGM 211220Z VRB01KT 3000 -DZ 1500N BR OVC003 02/02 Q0986