2019/06/22 17:50
ENGM 221750Z 26005KT 200V340 CAVOK 18/01 Q1018 NOSIG
