2019/09/22 17:50
ENGM 221750Z 10007KT 020V150 9999 FEW020 BKN032 12/07 Q1019 NOSIG
