2019/04/22 09:50
ENGM 220950Z 17006KT 140V210 CAVOK 14/05 Q1021 NOSIG
