2019/04/23 09:50
ENGM 220950Z 15006KT 140V210 CAVOK 16/01 Q1019 NOSIG
