2019/03/24 15:50
ENGM 241550Z 20010KT CAVOK 04/M02 Q1008 NOSIG
