2019/04/24 12:50
ENGM 241250Z 10013G23KT 030V130 CAVOK 19/M05 Q1016 TEMPO 11013KT
