2019/03/25 17:50
ENGM 251750Z 28003KT 230V330 CAVOK 04/M08 Q1014 NOSIG
