2019/04/25 06:50
ENGM 250650Z 04006KT 360V070 9999 VCSH NSC 12/00 Q1015 NOSIG
