2019/03/26 07:20
ENGM 260720Z 33008KT 280V010 CAVOK 02/M09 Q1017 NOSIG
