2019/04/26 11:50
ENGM 261150Z 02008KT 330V050 CAVOK 17/06 Q1014 NOSIG
