2019/03/27 09:20
ENGM 270920Z VRB02KT CAVOK 05/M02 Q1020 NOSIG
