2019/03/28 14:20
ENGM 281420Z 21007KT 160V300 CAVOK 11/00 Q1021 NOSIG
