2019/04/28 08:20
ENGM 280820Z 36008KT 9999 VCSH NSC 09/05 Q1019 NOSIG
