2019/03/29 10:20
ENGM 291020Z 20012KT CAVOK 07/02 Q1013 NOSIG
