2019/05/30 18:20
ENGM 301820Z 25003KT 200V300 9999 FEW048 BKN210 11/06 Q1005 NOSIG
