2019/03/30 15:50
ENGM 301550Z 19010KT CAVOK 05/02 Q1005 NOSIG
