2019/04/30 07:50
ENGM 300750Z 02008KT 340V050 CAVOK 15/07 Q1019 
