2019/03/31 11:20
ENGM 311120Z 34009KT 290V030 CAVOK 04/M13 Q1018 NOSIG
