2019/05/31 07:20
ENGM 310720Z 22012G22KT 180V260 CAVOK 16/M01 Q1013 NOSIG
