2019/06/01 11:00
RJGG 011100Z 18006KT 9999 FEW030 BKN/// 21/18 Q1009 NOSIG
