2019/04/01 20:30
RJGG 012030Z 30014KT 9999 FEW010 05/01 Q1018 NOSIG
