2019/05/02 18:00
RJGG 011800Z 30020KT 2500 -RA FEW010 BKN050 17/12 Q1008 NOSIG
