2019/06/02 10:30
RJGG 021030Z 14006KT 110V180 8000 -RA FEW007 SCT030 BKN100 20/19 Q1009 NOSIG
