2019/05/03 08:00
RJGG 030800Z 22005KT 9999 FEW030 BKN/// 19/14 Q1012 NOSIG
