2019/11/03 22:00
RJGG 032200Z 32021KT 9999 FEW020 17/11 Q1014 NOSIG
