2019/05/04 14:30
RJGG 041430Z 30003KT 9999 FEW025 17/14 Q1019 NOSIG
