2019/04/04 08:00
RJGG 040800Z 18005KT 9999 FEW030 14/04 Q1013 NOSIG
