2019/06/05 10:30
RJGG 051030Z 15007KT 9999 FEW030 23/19 Q1010 NOSIG
