2019/04/05 09:30
RJGG 050930Z 30014KT 9999 FEW030 BKN/// 16/03 Q1005 NOSIG
