2019/05/05 10:00
RJGG 051000Z 16010KT 9999 FEW030 19/14 Q1017 NOSIG
