2019/06/06 11:30
RJGG 061130Z 27004KT CAVOK 25/19 Q1010 NOSIG
