2019/11/06 13:00
RJGG 061300Z VRB02KT 9999 FEW030 17/10 Q1014 NOSIG
