2019/04/07 13:30
RJGG 071330Z 33008KT 8000 NSC 14/11 Q1006 NOSIG
