2019/06/07 10:00
RJGG 071000Z 35011KT 9999 FEW005 BKN007 19/18 Q1001 NOSIG
