2019/11/07 14:30
RJGG 071430Z 30017KT 9999 FEW030 18/11 Q1013 NOSIG
