2019/04/08 10:00
RJGG 081000Z 33028KT 9999 FEW030 14/06 Q1009 TEMPO 31034G45KT
