2019/05/10 09:00
RJGG 100900Z 32019KT 9999 FEW015 SCT030 18/14 Q1005 NOSIG
