2019/04/10 07:30
RJGG 100730Z 33009KT 3000 -RA BR FEW003 SCT005 BKN025 10/09 Q1000
