2019/06/10 12:30
RJGG 101230Z 24003KT 9999 FEW030 20/17 Q1003 NOSIG
