2019/05/11 16:30
RJGG 111630Z 01003KT 340V050 4000 BR NSC 16/15 Q1013
