2019/04/11 07:00
RJGG 110700Z 31022KT 9999 FEW030 BKN/// 13/03 Q1009 NOSIG
