2020/02/11 18:30
RJGG 111830Z 06003KT CAVOK 04/M02 Q1028 NOSIG
