2019/05/12 10:00
RJGG 121000Z 12013KT 9999 FEW030 BKN/// 20/17 Q1014 NOSIG
