2019/05/13 07:00
RJGG 130700Z 15018KT 9999 FEW030 SCT050 BKN/// 23/17 Q1016 NOSIG
