2019/06/13 12:00
RJGG 131200Z 14006KT 110V180 9999 BKN025 22/19 Q1013 NOSIG
