2019/04/13 12:00
RJGG 131200Z 14008KT 9999 FEW030 BKN140 BKN/// 14/06 Q1022 NOSIG
