2019/05/14 07:30
RJGG 140730Z 09004KT 9000 -SHRA FEW010 SCT020 BKN030 17/15 Q1017 NOSIG
