2019/07/14 16:30
RJGG 141630Z 33002KT 3000 -RA BR FEW015 BKN035 23/22 Q1002 TEMPO 4000 -RA BR
