2019/06/15 16:00
RJGG 151600Z 27024KT 9999 FEW030 BKN100 BKN/// 20/17 Q0989 NOSIG
