2019/05/16 15:30
RJGG 161530Z VRB01KT 9999 FEW030 18/16 Q1016 NOSIG
