2019/04/16 16:30
RJGG 161630Z 36004KT 9999 FEW020 BKN/// 12/09 Q1018 NOSIG
