2019/06/17 13:30
RJGG 171330Z 28008KT 9999 FEW030 BKN/// 21/14 Q1012 NOSIG
