2019/05/17 10:30
RJGG 171030Z 14009KT 9999 FEW030 SCT090 BKN/// 22/16 Q1019 NOSIG
