2019/04/18 08:00
RJGG 170800Z 07008KT 9999 +RA FEW010 BKN060 14/12 Q1013 NOSIG
