2019/05/18 11:30
RJGG 181130Z 12015KT 9999 FEW020 SCT180 BKN/// 20/13 Q1021 NOSIG
