2019/05/19 14:00
RJGG 191400Z 13011KT 9999 FEW025 BKN/// 20/15 Q1019 NOSIG
