2019/05/20 15:00
RJGG 201500Z 11022KT 2000 SHRA BR FEW004 BKN007 BKN020 19/18 Q1005
