2019/04/21 07:30
RJGG 210730Z 15005KT 100V170 CAVOK 21/13 Q1011 NOSIG
