2019/06/22 17:30
RJGG 221730Z 32011KT 9999 FEW030 BKN/// 22/17 Q1003 NOSIG
