2019/04/22 09:30
RJGG 220930Z 29011KT CAVOK 21/12 Q1012 NOSIG
