2019/09/22 17:30
RJGG 221730Z 14030G40KT 9999 FEW010 SCT013 BKN030 26/24 Q1007
