2019/04/23 09:30
RJGG 220930Z 20011KT 7000 BKN015 20/15 Q1010 NOSIG
