2019/03/23 16:00
RJGG 231600Z 28019KT 9999 FEW030 07/M01 Q1015 NOSIG
