2019/04/24 12:30
RJGG 241230Z 15020KT 8000 -SHRA FEW006 SCT008 BKN015 19/18 Q1009 TEMPO FEW008 BKN013
