2019/03/25 18:00
RJGG 251800Z 34007KT 9999 FEW030 BKN090 09/05 Q1014 NOSIG
