2019/03/26 07:00
RJGG 260700Z 31022KT 9999 FEW030 15/05 Q1009 NOSIG
