2019/04/26 11:30
RJGG 261130Z 32018KT 9999 FEW020 BKN060 16/11 Q1006 NOSIG
