2019/03/27 09:00
RJGG 270900Z 31004KT 9999 FEW030 SCT/// 15/06 Q1011 NOSIG
