2019/05/27 06:30
RJGG 270630Z 14014KT 9000 NSC 27/15 Q1012 NOSIG
