2019/03/28 14:30
RJGG 281430Z 29020KT 9999 FEW030 BKN/// 09/03 Q1013 NOSIG
