2019/05/28 07:30
RJGG 280730Z 36011KT 7000 -SHRA SCT008 BKN012 BKN020 19/18 Q1007
