2019/04/28 08:30
RJGG 280830Z 17006KT 9999 FEW020 BKN150 14/07 Q1020 NOSIG
