2019/03/29 09:30
RJGG 290930Z 16006KT CAVOK 10/03 Q1014 NOSIG
