2019/05/30 18:00
RJGG 301800Z 11005KT 9999 FEW020 BKN/// 20/17 Q1012 NOSIG
