2019/03/30 16:00
RJGG 301600Z 11005KT 9999 FEW015 SCT120 10/08 Q1006 BECMG 06006KT
