2019/04/30 07:30
RJGG 300730Z 27010KT 6000 -SHRA FEW007 SCT025 BKN030 16/15 Q1006 NOSIG
