2019/05/31 07:30
RJGG 310730Z 35009KT 9999 FEW015 BKN110 22/15 Q1008 NOSIG
