2019/03/31 11:00
RJGG 311100Z 31013KT 9999 FEW020 10/03 Q1014 NOSIG
