2019/05/01 18:20
LIMC 011820Z 23006KT 200V270 CAVOK 20/04 Q1011 NOSIG
