2019/06/01 11:20
LIMC 011120Z 23007KT 180V280 CAVOK 25/11 Q1022 NOSIG
