2019/04/01 20:20
LIMC 012020Z 01004KT CAVOK 12/02 Q1015 NOSIG
