2019/06/02 10:50
LIMC 021050Z 23006KT 190V280 CAVOK 27/14 Q1018 NOSIG
