2019/04/02 12:20
LIMC 021220Z 11004KT 060V190 9999 SCT070 19/04 Q1013 NOSIG
