2019/05/02 14:50
LIMC 021450Z 20011KT 170V250 9999 BKN040 19/10 Q1009 NOSIG
