2019/04/03 07:20
LIMC 030720Z 02005KT 9999 -RA BKN080 12/05 Q1009 NOSIG
