2019/06/03 16:20
LIMC 031620Z 27004KT 210V010 CAVOK 30/12 Q1013 NOSIG
