2019/11/03 22:20
LIMC 032220Z 27004KT 7000 FEW003 SCT010 10/10 Q0994 NOSIG
