2019/04/04 07:50
LIMC 040750Z 13014KT 9999 -RA BKN006 BKN025 11/10 Q0996 NOSIG
