2019/06/04 07:20
LIMC 040720Z 36003KT 310V030 CAVOK 24/15 Q1014 NOSIG
