2019/11/04 13:20
LIMC 041320Z 08005KT CAVOK 16/10 Q0998 NOSIG
