2019/05/05 09:50
LIMC 050950Z 02025KT 9999 BKN070 12/M06 Q1002 WS R35R NOSIG
