2019/04/05 09:50
LIMC 050950Z VRB03KT CAVOK 13/03 Q1001 NOSIG
