2019/06/05 10:20
LIMC 051020Z 18005KT 150V230 CAVOK 26/16 Q1011 NOSIG
