2019/06/06 12:50
LIMC 061250Z 20008KT 9999 SCT040 BKN090 23/13 Q1012 NOSIG
