2019/04/06 09:50
LIMC 060950Z 24005KT 190V290 9999 BKN050 13/05 Q1006 NOSIG
