2019/11/06 13:20
LIMC 061320Z VRB01KT 9999 FEW060 12/09 Q1003 NOSIG
