2019/05/07 07:50
LIMC 070750Z VRB02KT CAVOK 13/02 Q1019 NOSIG
