2019/11/07 15:20
LIMC 071520Z VRB02KT 9999 BKN050 10/08 Q1007 NOSIG
