2019/04/08 11:50
LIMC 081150Z 24008G20KT 190V280 CAVOK 17/07 Q1007 NOSIG
