2019/06/08 13:20
LIMC 081320Z 19007KT 140V240 9999 SCT046 26/14 Q1020 NOSIG
