2019/04/09 07:20
LIMC 090720Z VRB02KT CAVOK 13/07 Q1008 NOSIG
