2019/08/09 08:50
LIMC 090850Z 13004KT 070V170 CAVOK 27/21 Q1016 NOSIG
