2019/06/09 12:50
LIMC 091250Z 02006KT 350V070 9999 -SHRA BKN035 23/16 Q1021 NOSIG
