2019/05/10 09:50
LIMC 100950Z 29005KT 150V260 9999 -RA SCT045 BKN060 16/15 Q1009 NOSIG
