2019/06/10 12:50
LIMC 101250Z 01008KT 9999 -RA SCT040 BKN070 22/18 Q1013 NOSIG
