2019/05/11 17:20
LIMC 111720Z 26004KT 9999 SCT060 11/10 Q1010 NOSIG
