2019/04/11 07:20
LIMC 110720Z 16004KT 130V200 4000 -DZ BR BKN008 BKN040 10/09 Q1009 NOSIG
