2019/05/12 10:50
LIMC 121050Z 01019KT CAVOK 18/M02 Q1015 NOSIG
