2019/04/12 07:20
LIMC 120720Z 01003KT 350V060 9999 SCT030 BKN050 11/10 Q1013 NOSIG
