2019/05/13 11:50
LIMC 131150Z VRB05KT CAVOK 22/04 Q1019 NOSIG
