2019/06/13 12:20
LIMC 131220Z 20006KT 150V230 9999 FEW050 24/12 Q1016 NOSIG
