2019/04/14 09:20
LIMC 140920Z 13009KT 090V160 9999 BKN030 10/05 Q1012 NOSIG
