2019/05/15 15:20
LIMC 151520Z 15008KT 120V190 9999 SCT030 14/05 Q1014 NOSIG
