2019/06/15 16:20
LIMC 151620Z 17004KT 110V230 9999 FEW030 27/17 Q1013 NOSIG
