2019/04/15 08:20
LIMC 150820Z VRB01KT CAVOK 13/03 Q1020 NOSIG
