2019/06/16 10:50
LIMC 161050Z 32007KT 260V050 CAVOK 28/08 Q1015 NOSIG
