2019/05/16 15:50
LIMC 161550Z 13004KT 070V210 9999 SCT050 19/05 Q1010 NOSIG
