2019/05/17 12:20
LIMC 171220Z 32008KT 300V360 9999 SCT040 BKN060 16/10 Q1010 NOSIG
