2019/04/17 08:50
LIMC 170850Z VRB01KT CAVOK 18/06 Q1021 NOSIG
