2019/04/18 08:50
LIMC 170850Z VRB01KT NSC 18/06 Q1021 NOSIG
