2019/05/18 11:50
LIMC 181150Z 36010KT 9999 DZ BKN050 13/11 Q1008 NOSIG
