2019/05/19 14:20
LIMC 191420Z 22003KT 9999 SCT010 BKN040 15/13 Q1005 NOSIG
