2019/04/19 09:20
LIMC 190920Z 09004KT 030V140 CAVOK 18/04 Q1031 NOSIG
