2019/04/20 19:50
LIMC 201950Z 02002KT CAVOK 16/06 Q1025 NOSIG
