2019/04/21 07:50
LIMC 210750Z 01006KT CAVOK 17/07 Q1022 NOSIG
