2019/09/22 17:50
LIMC 221750Z 34006KT 9999 -DZ BKN035 16/12 Q1017 NOSIG
