2019/06/22 17:50
LIMC 221750Z 25005KT 200V280 9999 SCT070 24/14 Q1015 NOSIG
