2019/04/22 09:50
LIMC 220950Z VRB03KT 9999 SCT080 18/01 Q1014 NOSIG
