2019/04/23 09:50
LIMC 220950Z VRB08KT 9999 BKN010 16/09 Q1014 NOSIG
