2019/03/24 17:20
LIMC 241720Z 24005KT CAVOK 21/M02 Q1017 NOSIG
