2019/04/24 12:50
LIMC 241250Z 20011G21KT 170V230 1000 R35R/P1500N R17L/P1500N R35L/1400D RA BKN010 OVC030 14/13 Q1013 RESHRA NOSIG
