2019/04/25 07:50
LIMC 250750Z 01007KT CAVOK 16/09 Q1019 NOSIG
