2019/03/25 16:20
LIMC 251620Z 06020KT CAVOK 20/M08 Q1007 NOSIG
