2019/03/26 08:50
LIMC 260850Z 33006KT 290V010 CAVOK 09/01 Q1023 NOSIG
