2019/04/26 11:50
LIMC 261150Z 01019KT 9999 FEW030 12/05 Q1013 WS R35R NOSIG
