2019/03/27 10:20
LIMC 271020Z 15006KT 090V210 9999 FEW040 13/M04 Q1027 NOSIG
