2019/04/27 15:20
LIMC 271520Z 25006KT 180V290 CAVOK 20/03 Q1014 NOSIG
