2019/04/28 08:50
LIMC 280850Z 04013KT 360V060 CAVOK 17/M05 Q1014 NOSIG
