2019/05/28 08:50
LIMC 280850Z 22003KT 190V270 7000 SCT015 BKN020 15/14 Q1005 NOSIG
