2019/03/28 14:50
LIMC 281450Z VRB04KT CAVOK 15/M00 Q1028 NOSIG
