2019/03/29 11:20
LIMC 291120Z 33005KT 300V030 CAVOK 16/M01 Q1031 NOSIG
