2019/03/30 16:20
LIMC 301620Z 14005KT 100V200 CAVOK 20/M02 Q1021 NOSIG
