2019/03/31 11:20
LIMC 311120Z VRB03KT CAVOK 19/M03 Q1018 NOSIG
