2019/04/01 20:20
LSZB 012020Z AUTO 15003KT 9999 NCD 07/04 Q1014
