2019/05/01 18:20
LSZB 011820Z 22003KT CAVOK 16/03 Q1013 NOSIG
