2019/06/01 11:20
LSZB 011120Z 25004KT 150V300 CAVOK 23/13 Q1022 NOSIG
