2019/04/02 07:20
LSZB 020720Z 00000KT CAVOK 07/04 Q1013 NOSIG
