2019/06/02 10:50
LSZB 021050Z 28005KT 260V320 CAVOK 26/13 Q1019 NOSIG
