2019/05/02 14:20
LSZB 021420Z 35003KT 270V030 9999 FEW018 SCT055 BKN150 13/10 Q1011 NOSIG
