2019/06/03 16:20
LSZB 031620Z AUTO 16010KT 9999 VCTS BKN100 SCT120 SCT///CB 23/16 Q1016
