2019/11/03 22:20
LSZB 032220Z AUTO 23004KT 160V300 9999 FEW046 SCT080 BKN110 09/05 Q0997
