2019/06/04 07:20
LSZB 040720Z 18002KT CAVOK 20/13 Q1014 NOSIG
