2019/04/04 07:50
LSZB 040750Z VRB01KT 1400 R14/1200U SN BKN007 OVC013 00/00 Q0997 NOSIG
