2019/11/04 13:20
LSZB 041320Z 24009KT 200V320 9999 FEW020 SCT050 15/06 Q0996 NOSIG
