2019/05/05 09:50
LSZB 050950Z 36006KT 320V070 9999 FEW015 BKN040 04/01 Q1016 NOSIG
