2019/06/05 10:50
LSZB 051050Z AUTO 30005KT 260V360 9999 FEW130 26/13 Q1007
