2019/04/06 09:50
LSZB 060950Z VRB02KT CAVOK 07/02 Q1002 NOSIG
