2019/05/07 07:50
LSZB 070750Z 13005KT CAVOK 07/01 Q1019 NOSIG
