2019/04/07 13:50
LSZB 071350Z 27005KT 230V310 9999 FEW020 BKN026 BKN034 08/04 Q1006 NOSIG
