2019/04/08 10:50
LSZB 081050Z VRB03KT 9999 SCT030 BKN070 12/02 Q1010 NOSIG
