2019/06/08 13:20
LSZB 081320Z 31006KT CAVOK 22/04 Q1024 NOSIG
