2019/08/09 10:20
LSZB 091020Z 34003KT 270V020 CAVOK 27/16 Q1014 NOSIG
