2019/06/10 12:50
LSZB 101250Z 28004KT 9999 RA FEW009 BKN020 OVC069 16/14 Q1014
