2019/04/10 07:50
LSZB 100750Z 00000KT 8000 BKN018 06/04 Q1009 NOSIG
