2019/05/10 09:50
LSZB 100950Z 31004KT 230V030 9999 FEW016 BKN050 12/09 Q1013 NOSIG
