2019/04/11 07:20
LSZB 110720Z 05004KT 360V130 6000 BKN016 08/04 Q1013 NOSIG
