2019/05/11 16:50
LSZB 111650Z 29012KT 250V320 5000 RA FEW021 SCT026 BKN031 10/07 Q1018 NOSIG
