2019/04/12 07:20
LSZB 120720Z 36004KT 260V060 7000 NSC 06/01 Q1016 NOSIG
