2019/05/12 10:50
LSZB 121050Z 33005KT 300V040 9999 VCSH FEW035 SCT050 BKN070 10/02 Q1028 NOSIG
