2019/04/13 12:20
LSZB 131220Z 30004KT 250V330 8000 FEW041 BKN050 11/M00 Q1015 NOSIG
