2019/05/13 11:50
LSZB 131150Z 07011KT 020V120 9999 BKN050 12/02 Q1029 NOSIG
