2019/06/13 12:20
LSZB 131220Z VRB02KT 9999 FEW050 21/11 Q1015 NOSIG
