2019/04/14 09:20
LSZB 140920Z 10005KT 9999 SCT026 BKN031 04/M02 Q1017 NOSIG
