2019/06/15 16:20
LSZB 151620Z 04004KT 320V130 9999 VCTS FEW050CB BKN070 20/15 Q1015 NOSIG
