2019/06/16 10:50
LSZB 161050Z AUTO 35004KT 270V070 9999 FEW032 SCT070 19/11 Q1022
