2019/04/16 16:50
LSZB 161650Z 29009KT 9999 -RA SCT035 BKN050 11/07 Q1019 NOSIG
