2019/04/17 08:20
LSZB 170820Z VRB01KT 9999 SCT011 12/09 Q1021 NOSIG
