2019/05/17 12:20
LSZB 171220Z 29007KT 260V320 9999 SHRA FEW050 BKN093 17/07 Q1005
