2019/05/18 11:50
LSZB 181150Z 31004KT 270V030 9999 SCT031 BKN043 16/09 Q1005 NOSIG
