2019/05/19 14:20
LSZB 191420Z VRB03KT 9999 SHRA FEW018 SCT028 BKN060 15/12 Q1004
