2019/04/19 09:20
LSZB 190920Z 32002KT CAVOK 17/05 Q1026 NOSIG
