2019/04/20 19:50
LSZB 201950Z AUTO VRB02KT CAVOK 12/04 Q1022
