2019/04/21 07:50
LSZB 210750Z VRB01KT CAVOK 12/05 Q1019 NOSIG
