2019/09/22 17:50
LSZB 221750Z VRB02KT 9999 BKN070 BKN100 19/16 Q1011 NOSIG
