2019/04/22 09:50
LSZB 220950Z VRB02KT CAVOK 18/03 Q1006 NOSIG
