2019/06/22 17:50
LSZB 221750Z 33009KT 9999 VCTS SCT039CB SCT044 20/15 Q1016 NOSIG
