2019/04/24 12:50
LSZB 241250Z 24011KT 220V280 9999 FEW060 22/09 Q1002 NOSIG
