2019/03/24 16:20
LSZB 241620Z 29009KT CAVOK 18/01 Q1021 NOSIG
