2019/03/25 15:50
LSZB 251550Z 31010KT 9999 FEW060 08/M04 Q1022 NOSIG
