2019/04/25 06:50
LSZB 250650Z 14003KT CAVOK 08/07 Q1009 NOSIG
