2019/04/26 11:50
LSZB 261150Z AUTO 11003KT 060V160 9999 SCT014 BKN019 //////TCU 10/06 Q1017
