2019/03/26 08:50
LSZB 260850Z 04009KT 330V100 9999 BKN050 05/M00 Q1028 NOSIG
