2019/05/27 14:50
LSZB 271450Z 35004KT 310V050 9999 FEW045 BKN050 19/11 Q1009 NOSIG
