2019/04/27 15:20
LSZB 271520Z 27009KT 230V330 9999 -RA FEW015 SCT040 BKN055 10/07 Q1018 RERA NOSIG
