2019/03/27 09:50
LSZB 270950Z 02006KT 310V080 CAVOK 08/M02 Q1027 NOSIG
