2019/05/28 08:50
LSZB 280850Z 26004KT 6000 RA FEW017 SCT020 BKN042 11/09 Q1011 NOSIG
