2019/04/28 08:50
LSZB 280850Z VRB02KT 7000 -RA FEW009 BKN028 06/05 Q1021 NOSIG
