2019/03/29 10:50
LSZB 291050Z VRB03KT CAVOK 12/02 Q1028 NOSIG
