2019/03/30 16:20
LSZB 301620Z 30005KT 260V340 CAVOK 18/M01 Q1020 NOSIG
