2019/04/30 07:50
LSZB 300750Z 19003KT 140V290 9999 FEW039 SCT060 11/05 Q1019 NOSIG
