2019/03/31 11:20
LSZB 311120Z 30006KT 240V360 CAVOK 16/04 Q1018 NOSIG
