2019/05/31 13:20
LSZB 311320Z 02006KT 300V080 CAVOK 23/09 Q1024 NOSIG
