2019/04/01 20:20
ESSD 012020Z AUTO 21009KT 9999 NCD 03/M08 Q1022
