2019/05/01 18:20
ESSD 011820Z AUTO 32007KT 9999 OVC047/// 11/02 Q0997
