2019/06/01 11:20
ESSD 011120Z AUTO 17006KT 130V210 9999 -RA OVC010/// 10/09 Q1009 REDZ
