2019/05/02 14:20
ESSD 021420Z 01011KT 5000 -SN BKN023 02/00 Q0991
