2019/04/02 06:50
ESSD 020650Z 17007KT CAVOK 02/M07 Q1020
