2019/06/02 10:20
ESSD 021020Z AUTO 26007KT 220V300 9999 NCD 16/05 Q1014
