2019/05/03 11:50
ESSD 031150Z 25008KT 3600 -SN BKN031 02/M02 Q0998
