2019/06/03 16:20
ESSD 031620Z AUTO 20008KT 9999 SCT043/// BKN055/// BKN078/// 22/14 Q1007
