2019/04/03 07:20
ESSD 030720Z 08003KT CAVOK 01/M03 Q1014
