2019/05/04 13:50
ESSD 041350Z AUTO VRB03KT 350V180 9999 SCT068/// 07/M05 Q1001
