2019/04/04 07:20
ESSD 040720Z 11003KT CAVOK 03/M00 Q1012
