2019/04/05 09:50
ESSD 050950Z 03005KT 3200 -SN SCT005 OVC009 00/00 Q1021
