2019/05/05 09:50
ESSD 050950Z AUTO 23011KT 9999 FEW064/// 09/M06 Q1006
