2019/06/05 10:20
ESSD 051020Z 08008KT CAVOK 20/10 Q1013
