2019/06/06 11:50
ESSD 061150Z AUTO 14015KT 9999 FEW068/// 28/13 Q1014
