2019/04/06 09:20
ESSD 060920Z AUTO 07005KT 9999 BKN074/// 02/01 Q1017
