2019/05/07 07:50
ESSD 070750Z 16006KT 120V220 9999 BKN015 04/01 Q1002
