2019/04/07 13:20
ESSD 071320Z AUTO 33010KT 9999 BKN031/// OVC042/// 05/00 Q1011
