2019/04/08 10:20
ESSD 081020Z 32015KT CAVOK 03/M06 Q1017
