2019/06/08 13:20
ESSD 081320Z AUTO 15010KT 9999 NCD 24/14 Q1011
