2019/04/09 06:50
ESSD 090650Z 34012KT CAVOK M02/M10 Q1018
