2020/02/09 16:50
ESSD 092350Z AUTO 20018KT 9999 -RA SCT013/// OVC017/// 06/05 Q0958
