2019/08/09 10:20
ESSD 091020Z AUTO 02005KT 9999 SCT020/// BKN035/// BKN043/// 18/14 Q1010
