2019/06/09 12:20
ESSD 091220Z AUTO 21011KT 170V230 9999 BKN023/// 16/12 Q1014
