2019/05/10 09:20
ESSD 100920Z 33007KT 9999 OVC027/// 01/M02 Q1006
