2019/06/10 12:50
ESSD 101250Z 23009KT CAVOK 20/06 Q1017
