2019/04/11 07:20
ESSD 110720Z 35003KT 310V020 CAVOK M02/M06 Q1030
