2019/05/11 16:50
ESSD 111650Z AUTO 25007KT 9999 NCD 14/03 Q1010
