2019/04/12 06:50
ESSD 120650Z VRB02KT CAVOK M02/M08 Q1032
