2019/06/13 12:20
ESSD 131220Z VRB03KT 4000 BR OVC005 11/11 Q1013
