2019/05/13 10:50
ESSD 131050Z 32009KT CAVOK 09/M06 Q1034
