2019/05/14 10:20
ESSD 141020Z 20005KT 160V260 CAVOK 12/M02 Q1032
