2019/04/14 09:20
ESSD 140920Z AUTO 07004KT 030V110 9999 NCD 04/M07 Q1038
