2019/05/15 15:20
ESSD 151520Z VRB03KT CAVOK 17/01 Q1029
