2019/06/15 15:50
ESSD 151550Z AUTO 09003KT 050V130 9999 NCD 25/05 Q1015
