2019/04/15 08:20
ESSD 150820Z VRB02KT CAVOK 06/M03 Q1037
