2019/04/17 07:50
ESSD 170750Z 10001KT CAVOK 07/M01 Q1036
