2019/05/17 12:20
ESSD 171220Z 08015KT CAVOK 18/04 Q1024
