2019/05/18 11:50
ESSD 181150Z AUTO 09007KT 9999 FEW048/// BKN096/// 19/06 Q1018
