2019/04/19 08:50
ESSD 190850Z AUTO 34004KT 9999 NCD 13/M04 Q1037
