2019/04/20 19:20
ESSD 201920Z AUTO 25004KT 9999 NCD 09/01 Q1026
