2019/04/21 07:50
ESSD 210750Z AUTO VRB02KT 9999 NCD 13/01 Q1022
