2019/09/22 17:50
ESSD 221750Z AUTO 08003KT 9999 FEW040/// 07/04 Q1022
