2019/04/22 09:50
ESSD 220950Z AUTO 20010KT 180V240 9999 NCD 17/01 Q1022
