2019/04/23 09:50
ESSD 220950Z AUTO 19010KT 180V240 8000 NSC 18/01 Q1022
