2019/03/24 15:50
ESSD 241550Z AUTO 25016KT 9999 FEW055/// 07/M03 Q1007
