2019/04/24 12:20
ESSD 241220Z 13019G30KT CAVOK 19/M04 Q1021
