2019/04/25 06:50
ESSD 250650Z VRB03KT CAVOK 10/02 Q1019
