2019/03/26 08:50
ESSD 260850Z 36010KT 320V030 9999 BKN034 01/M06 Q1015
