2019/04/26 11:50
ESSD 261150Z 09008KT CAVOK 18/05 Q1016
