2019/03/27 09:20
ESSD 270920Z 32011KT CAVOK 07/M01 Q1018
