2019/04/28 08:20
ESSD 280820Z AUTO 01006KT 340V050 9999 NCD 11/04 Q1021
