2019/03/28 14:20
ESSD 281420Z 26012KT CAVOK 13/02 Q1019
