2019/03/29 10:50
ESSD 291050Z 24019KT CAVOK 10/03 Q1010
