2019/03/30 15:50
ESSD 301550Z AUTO 29008KT 6000 RA OVC022/// 06/05 Q1004 RESHRA
