2019/04/30 07:20
ESSD 300720Z 34008KT CAVOK 13/09 Q1018
