2019/03/31 11:20
ESSD 311120Z AUTO 33015KT 9999 NCD 05/M07 Q1014
