2019/03/24 17:30
LFQB 241730Z AUTO 36010KT 9999 FEW033 OVC054 12/05 Q1026
