2019/06/01 11:20
LGTS 011120Z 27008KT 9999 FEW025 25/11 Q1014 NOSIG
