2019/05/01 18:20
LGTS 011820Z 11005KT 9999 SCT025 18/08 Q1007 NOSIG
