2019/04/01 20:50
LGTS 012050Z VRB03KT CAVOK 11/04 Q1015 NOSIG
