2019/06/02 10:50
LGTS 021050Z 12007KT 9999 FEW020TCU SCT025 22/15 Q1013 RETS NOSIG
