2019/04/02 07:50
LGTS 020750Z 29004KT CAVOK 15/08 Q1018 NOSIG
