2019/04/03 06:50
LGTS 030650Z VRB02KT CAVOK 10/01 Q1019 NOSIG
