2019/05/03 11:50
LGTS 031150Z 19008KT 9999 FEW020 24/05 Q1011 NOSIG
