2019/04/05 09:50
LGTS 050950Z 31005KT 9999 FEW025 15/07 Q1014 NOSIG
