2019/06/06 13:20
LGTS 061320Z 20006KT 9999 FEW020 27/16 Q1014 NOSIG
