2019/11/06 13:20
LGTS 061320Z 32005KT 9999 FEW025 21/17 Q1011 NOSIG
