2019/04/07 13:50
LGTS 071350Z 19009KT 9999 FEW018 SCT025 16/09 Q1007 NOSIG
