2019/11/07 15:20
LGTS 071520Z 14008KT CAVOK 22/14 Q1011 NOSIG
