2019/06/08 13:20
LGTS 081320Z 26008KT CAVOK 34/15 Q1015 NOSIG
