2019/06/09 12:50
LGTS 091250Z 28006KT 9999 FEW030 34/14 Q1013 NOSIG
