2019/04/09 07:20
LGTS 090720Z 35011KT 9999 -RA FEW008 SCT025 13/10 Q0999 NOSIG
