2019/06/10 12:50
LGTS 101250Z 33016KT 4000 TSRA VCTS FEW020CB SCT025 27/19 Q1012
