2019/05/10 10:20
LGTS 101020Z 28004KT 9999 FEW025 20/11 Q1008 NOSIG
