2019/05/11 17:20
LGTS 111720Z 15009KT CAVOK 21/08 Q1014 NOSIG
