2019/04/11 07:20
LGTS 110720Z VRB03KT 9999 FEW025 16/10 Q1009 NOSIG
