2019/05/12 10:50
LGTS 121050Z 15012KT 9999 FEW025 24/09 Q1014 NOSIG
