2019/04/12 07:20
LGTS 120720Z VRB03KT 8000 +RA FEW018 SCT025 13/11 Q1011 NOSIG
