2019/04/14 09:20
LGTS 140920Z 30005KT 9999 FEW025TCU 16/08 Q1010 NOSIG
