2019/06/15 16:20
LGTS 151620Z 26006KT 9999 FEW018TCU SCT025 33/17 Q1009 NOSIG
