2019/04/15 08:50
LGTS 150850Z 32007KT 9999 -RA SCT006 SCT020 13/10 Q1014 NOSIG
