2019/04/16 16:50
LGTS 161650Z 16007KT 9999 FEW020TCU SCT030 15/08 Q1016 NOSIG
