2019/05/16 15:50
LGTS 161550Z 28008KT 9999 FEW020 22/12 Q1007 NOSIG
