2019/06/16 10:50
LGTS 161050Z 28009KT 9999 FEW025 31/19 Q1011 NOSIG
