2019/05/17 12:20
LGTS 171220Z 29010KT 9999 FEW025 23/14 Q1008 NOSIG
