2019/05/18 11:50
LGTS 181150Z 26007KT 9999 FEW030 25/10 Q1008 NOSIG
