2019/04/19 09:20
LGTS 190920Z 27004KT 9999 FEW020 14/06 Q1025 NOSIG
