2019/05/19 14:20
LGTS 191420Z 33006KT 9999 FEW030 22/17 Q1006 NOSIG
