2019/04/20 19:50
LGTS 201950Z 11004KT 9999 FEW025 11/07 Q1027 NOSIG
