2019/04/21 07:50
LGTS 210750Z 32004KT 9999 FEW025 14/07 Q1026 NOSIG
