2019/09/22 17:50
LGTS 221750Z VRB03KT CAVOK 19/12 Q1020 NOSIG
