2019/06/22 17:50
LGTS 221750Z 18007KT CAVOK 30/17 Q1013 NOSIG
