2019/04/22 09:50
LGTS 220950Z 28006KT CAVOK 16/08 Q1020 NOSIG
