2019/04/22 09:50
LGTS 220950Z 32006KT 9999 NSC 17/09 Q1021 NOSIG
