2019/04/24 12:50
LGTS 241250Z 34007KT 9999 FEW025 18/10 Q1023 NOSIG
