2019/03/24 17:20
LGTS 241720Z 17009KT CAVOK 13/06 Q1018 NOSIG
