2019/03/25 16:50
LGTS 251650Z 17004KT CAVOK 15/05 Q1010 NOSIG
