2019/04/25 07:50
LGTS 250750Z 29005KT CAVOK 16/12 Q1023 NOSIG
