2019/04/26 12:20
LGTS 261220Z 33005KT 9999 FEW025 21/13 Q1018 NOSIG
