2019/04/27 15:20
LGTS 271520Z 26015KT 9999 FEW018TCU SCT020 18/13 Q1012 NOSIG
