2019/05/28 08:50
LGTS 280850Z 30007KT CAVOK 23/15 Q1010 NOSIG
