2019/04/28 08:50
LGTS 280850Z 32012KT CAVOK 21/09 Q1013 NOSIG
