2019/03/28 14:50
LGTS 281450Z 09007KT 9999 FEW020 14/M00 Q1022 NOSIG
