2019/04/30 07:50
LGTS 300750Z VRB03KT CAVOK 21/05 Q1009 NOSIG
