2019/03/30 16:20
LGTS 301620Z 16010KT CAVOK 14/00 Q1017 NOSIG
