2019/03/31 11:20
LGTS 311120Z 26007KT CAVOK 16/02 Q1014 NOSIG
