2019/05/01 18:56
KEWK 011856Z AUTO 07004KT 10SM OVC009 13/12 A2997 RMK AO2 SLP147 T01330117
