2019/06/01 10:56
KEWK 011056Z AUTO 20006KT 10SM CLR 18/16 A2993 RMK AO2 SLP122 T01720156
