2019/04/01 20:56
KEWK 012056Z AUTO 22014G19KT 10SM CLR 13/M02 A3009 RMK AO2 SLP193 T01281022 56032
