2019/04/02 09:56
KEWK 020956Z AUTO 22009KT 10SM CLR 04/M02 A3003 RMK AO2 SLP168 T00391017
