2019/04/03 12:56
KEWK 031256Z AUTO 14015KT 10SM OVC110 08/04 A3006 RMK AO2 SLP180 T00830039
