2019/05/03 18:56
KEWK 011856Z AUTO 08004KT 5SM RA OVC003 13/12 A2997 RMK AO2 SLP147 T01330117
