2019/11/03 21:56
KEWK 032156Z AUTO 20020G23KT 10SM CLR 17/01 A2991 RMK AO2 SLP126 T01720011
