2019/05/04 14:56
KEWK 041456Z AUTO 00000KT 7SM OVC003 12/12 A3005 RMK AO2 SLP173 T01170117 51013
