2019/04/04 07:56
KEWK 040756Z AUTO 14008KT 10SM SCT020 OVC042 11/09 A2995 RMK AO2 RAB14E42 SLP135 P0000 T01110094
