2019/06/04 15:56
KEWK 041556Z AUTO VRB04KT 10SM CLR 26/17 A2987 RMK AO2 SLP100 T02560172
