2019/11/04 16:56
KEWK 041656Z AUTO 06008KT 10SM CLR 10/02 A3010 RMK AO2 SLP193 T01000022
