2019/06/05 13:56
KEWK 051356Z AUTO 30011KT 10SM CLR 23/16 A2987 RMK AO2 SLP097 T02280161
