2019/05/05 09:56
KEWK 050956Z AUTO 16008KT 10SM BKN110 13/11 A2987 RMK AO2 SLP106 T01280111
