2019/04/05 09:58
KEWK 050958Z AUTO 17008KT 2SM BR SCT001 08/08 A3002 RMK AO2 TSNO
