2019/04/06 09:56
KEWK 060956Z AUTO 19009KT 10SM CLR 11/08 A2995 RMK AO2 SLP132 T01060083
