2019/06/06 13:23
KEWK 061323Z AUTO 07008G15KT 10SM BKN009 BKN047 OVC110 19/18 A2987 RMK AO2
