2019/04/07 13:56
KEWK 071356Z AUTO 19007KT 1/4SM FG OVC002 12/12 A2990 RMK AO2 SLP122 T01170117
