2019/11/07 14:56
KEWK 071456Z AUTO 01017KT 10SM CLR M04/M10 A3057 RMK AO2 SLP364 T10441100 53019 FZRANO
