2019/04/08 11:56
KEWK 081156Z AUTO 15005KT 10SM CLR 11/06 A3002 RMK AO2 SLP159 6//// 7//// T01110056 10156 20094 51002
