2019/06/08 12:56
KEWK 081256Z AUTO 15007KT 10SM CLR 22/18 A2991 RMK AO2 SLP112 T02170178
