2019/04/09 07:56
KEWK 090756Z AUTO 03004KT 10SM CLR 16/06 A2996 RMK AO2 SLP133 T01560061
