2019/05/09 11:56
KEWK 091156Z AUTO 36017G28KT 10SM OVC015 05/02 A2997 RMK AO2 PK WND 01028/1149 SLP147 70027 T00500022 10094 20050 51026
