2019/06/09 12:56
KEWK 091256Z AUTO 01010KT 10SM FEW005 18/17 A3001 RMK AO2 RAE45 PRESRR SLP148 P0006 T01780172
