2019/05/10 09:56
KEWK 100956Z AUTO 10003KT 10SM CLR 06/06 A3017 RMK AO2 SLP218 T00610056
