2019/04/10 07:56
KEWK 100756Z AUTO 17016KT 10SM CLR 19/08 A2958 RMK AO2 SLP999 T01890083
