2019/06/10 13:56
KEWK 101356Z AUTO 32009KT 10SM CLR 17/10 A3044 RMK AO2 SLP302 T01720100
