2019/05/11 17:03
KEWK 111703Z AUTO 15006KT 10SM BKN022 BKN040 12/08 A2999 RMK AO2
