2019/04/11 07:56
KEWK 110756Z AUTO 29018G23KT 10SM OVC008 06/04 A2933 RMK AO2 PK WND 29027/0747 SLP923 T00610039
