2019/04/12 06:56
KEWK 120656Z AUTO 26009KT 10SM CLR M01/M06 A2981 RMK AO2 SLP103 T10061056 FZRANO
