2019/05/12 10:56
KEWK 121056Z AUTO 32008KT 10SM CLR 09/08 A2983 RMK AO2 SLP098 T00940083
