2019/06/13 12:56
KEWK 131256Z AUTO 24004KT 10SM CLR 16/09 A3016 RMK AO2 SLP203 T01560094
