2019/04/13 15:56
KEWK 131556Z AUTO 05013G19KT 10SM CLR 08/M04 A3014 RMK AO2 SLP209 T00781039
