2019/04/14 19:56
KEWK 141956Z AUTO 27010KT 10SM CLR 16/M01 A2987 RMK AO2 SLP113 T01611006
