2019/05/15 14:56
KEWK 151456Z AUTO 00000KT 10SM CLR 23/16 A2997 RMK AO2 SLP136 T02280161 51012
