2019/04/15 13:56
KEWK 151356Z AUTO 18018KT 10SM CLR 13/04 A2982 RMK AO2 SLP094 T01330044
