2019/04/16 16:56
KEWK 161656Z AUTO 20021G26KT 10SM CLR 23/12 A2981 RMK AO2 PK WND 21027/1643 SLPNO T02280122
