2019/06/16 12:56
KEWK 161256Z AUTO 13003KT 10SM FEW120 19/17 A2988 RMK AO2 SLP101 T01890172
