2019/05/17 12:56
KEWK 171256Z AUTO 20019G26KT 10SM CLR 21/17 A2974 RMK AO2 PK WND 20027/1230 SLP056 T02060167
