2019/04/18 14:56
KEWK 171456Z AUTO 21017KT 10SM BKN014 19/15 A2968 RMK AO2 SLP040 T01890150 58001
