2019/05/18 11:56
KEWK 181156Z AUTO 18014KT 10SM OVC016 22/19 A2962 RMK AO2 SLP016 T02170194 10222 20217 50002
