2019/05/19 14:56
KEWK 191456Z AUTO 31010G17KT 10SM SCT021 14/09 A2992 RMK AO2 SLP127 T01390089 52033
