2019/04/19 09:56
KEWK 190956Z AUTO 34011KT 10SM CLR 04/02 A3006 RMK AO2 SLP176 T00440022
