2019/04/20 19:56
KEWK 201956Z AUTO 20019G24KT 10SM CLR 26/07 A2987 RMK AO2 SLP105 T02560072
