2019/04/21 07:56
KEWK 210756Z AUTO 16016G22KT 10SM CLR 16/09 A2978 RMK AO2 SLP070 T01610089
