2019/06/22 19:56
KEWK 221956Z AUTO 17016G20KT 10SM SCT031 SCT042 29/23 A2982 RMK AO2 SLP081 T02940233
