2019/09/22 17:56
KEWK 221756Z AUTO 33006KT 10SM CLR 21/18 A2993 RMK AO2 SLP122 T02110178 10233 20178 50009
