2019/04/22 09:56
KEWK 220956Z AUTO 15010KT 10SM BKN037 16/13 A2986 RMK AO2 SLP096 T01610128
