2019/04/23 09:56
KEWK 220956Z AUTO 18010KT 5SM BKN017 12/09 A2986 RMK AO2 SLP096 T01610128
