2019/03/24 19:56
KEWK 241956Z AUTO 33015KT 10SM OVC030 15/07 A3001 RMK AO2 SLP160 T01500072
