2019/03/25 17:56
KEWK 251756Z AUTO 35009KT 10SM BKN016 OVC021 09/06 A3032 RMK AO2 SLP269 T00940061 10094 20072 51015
