2019/04/25 10:56
KEWK 251056Z AUTO 23006KT 5SM BR CLR 09/09 A2981 RMK AO2 SLP086 T00890089
