2019/03/26 09:56
KEWK 260956Z AUTO 18005KT 6SM BR SCT095 04/03 A3033 RMK AO2 SLP273 T00390028
