2019/04/26 20:56
KEWK 262056Z AUTO 19017G22KT 10SM BKN100 23/06 A3003 RMK AO2 SLP161 T02330061 58035
