2019/03/27 10:56
KEWK 271056Z AUTO 18012KT 10SM CLR 09/04 A3014 RMK AO2 SLP202 T00890044
