2019/04/27 15:56
KEWK 271556Z AUTO 31026G31KT 10SM CLR 20/07 A2976 RMK AO2 PK WND 32037/1519 SLP065 T02000067
