2019/05/27 14:56
KEWK 271456Z AUTO 20022G27KT 10SM OVC017 22/19 A2978 RMK AO2 PK WND 20029/1413 SLP071 P0001 60001 T02220194 58005
