2019/03/28 16:56
KEWK 281656Z AUTO 19017KT 10SM OVC024 18/12 A2993 RMK AO2 SLP126 T01830122
