2019/05/28 11:56
KEWK 281156Z AUTO 17016KT 10SM CLR 21/19 A2963 RMK AO2 SLP017 70001 T02060189 10217 20206 56004
