2019/04/28 08:56
KEWK 280856Z AUTO 08009KT 10SM CLR 04/02 A3001 RMK AO2 SLP160 T00440017 56009
