2019/03/29 11:56
KEWK 291156Z AUTO 05011KT 1SM BR OVC002 08/08 A2993 RMK AO2 SLP134 60000 70001 T00830083 10089 20083 58004
