2019/03/30 15:56
KEWK 301556Z AUTO 35021G27KT 10SM OVC010 03/01 A3024 RMK AO2 PK WND 34027/1554 SLP246 T00280011
