2019/04/30 08:09
KEWK 300809Z AUTO 01013KT 4SM VCTS RA BR OVC003 09/09 A2997 RMK AO2 LTG DSNT ALQDS P0009
