2019/03/31 10:56
KEWK 311056Z AUTO 36008KT 10SM CLR M04/M06 A3044 RMK AO2 SLP318 T10391061 FZRANO
