2019/05/31 13:56
KEWK 311356Z AUTO 21006KT 10SM CLR 19/13 A3004 RMK AO2 SLP162 T01940133
