2019/03/24 20:00
CYAT 242000Z AUTO 30021G26KT 9SM OVC042 M12/M20 A3007 RMK SLP187
