2019/05/01 18:50
LOWS 011850Z 20002KT CAVOK 11/05 Q1014 NOSIG
