2019/04/01 20:50
LOWS 012050Z VRB02KT CAVOK 07/03 Q1016
