2019/06/01 11:20
LOWS 011120Z 04005KT 010V100 9999 FEW050 SCT090 23/12 Q1024 NOSIG
