2019/05/02 14:50
LOWS 021450Z 30006KT 250V350 9999 FEW060 20/04 Q1007 NOSIG
