2019/06/03 16:20
LOWS 031620Z 03005KT 310V080 9999 FEW060 29/08 Q1014 NOSIG
