2019/04/03 07:50
LOWS 030750Z 27003KT 220V300 9999 FEW070 BKN180 11/03 Q1004 NOSIG
