2019/11/03 22:20
LOWS 032220Z AUTO 25010KT 210V280 9999 -SHRA FEW036 BKN050 11/06 Q0994
