2019/06/04 07:50
LOWS 040750Z VRB02KT CAVOK 22/13 Q1015 NOSIG
