2019/04/04 07:20
LOWS 040720Z 17003KT 100V220 9999 FEW080 BKN300 06/03 Q0994 BECMG 15013KT
