2019/05/04 14:20
LOWS 041420Z 19006KT 9999 SHRA FEW030 FEW050TCU BKN070 11/06 Q1003
