2019/05/05 10:20
LOWS 051020Z 35005KT 9999 -RA FEW003 BKN007 BKN015 03/01 Q1015 RERA NOSIG
