2019/04/05 09:50
LOWS 050950Z VRB02KT 9999 FEW015 BKN026 08/03 Q1004 NOSIG
