2019/06/06 13:20
LOWS 061320Z 30008KT 270V330 9999 FEW040 SCT060 BKN075 23/13 Q1011 NOSIG
