2019/11/06 13:20
LOWS 061320Z 35004KT 320V030 9999 FEW030 BKN050 BKN300 10/04 Q1005 NOSIG
