2019/04/07 13:50
LOWS 071350Z 35006KT 320V040 9999 FEW042 SCT300 16/06 Q1003 NOSIG
