2019/11/07 15:20
LOWS 071520Z VRB01KT CAVOK 10/05 Q1004 NOSIG
