2019/06/08 13:20
LOWS 081320Z 17004KT 120V240 9999 FEW050 BKN070 20/04 Q1025 NOSIG
