2019/04/08 11:50
LOWS 081150Z 04004KT 9999 FEW006 SCT022 BKN032 09/07 Q1010 NOSIG
