2019/05/09 09:50
LOWS 090950Z 14011KT 100V170 9999 FEW025 SCT050 BKN300 12/06 Q1004 NOSIG
