2019/06/09 12:50
LOWS 091250Z 34006KT 310V030 9999 FEW060 SCT300 27/13 Q1020 NOSIG
