2019/04/09 07:50
LOWS 090750Z 17004KT 120V210 9999 FEW030 SCT100 12/07 Q1010 NOSIG
