2019/08/09 10:20
LOWS 091020Z VRB03KT 9999 FEW060 SCT300 27/18 Q1014 NOSIG
