2019/06/10 12:50
LOWS 101250Z VRB02KT 9999 FEW100 BKN160 BKN300 23/16 Q1012 TEMPO 05010KT
