2019/05/11 17:20
LOWS 111720Z 18007KT 9999 FEW045 SCT060 BKN080 08/06 Q1016 NOSIG
