2019/04/11 07:20
LOWS 110720Z 33005KT 300V360 9000 FEW018 BKN050 08/04 Q1014 NOSIG
