2019/04/12 07:20
LOWS 120720Z 34005KT 310V010 9999 FEW030 BKN053 05/M00 Q1018 NOSIG
