2019/05/12 10:50
LOWS 121050Z 27003KT 220V330 9999 RA FEW007 SCT013 BKN026 06/03 Q1026
