2019/05/13 11:50
LOWS 131150Z 33005KT 9999 FEW035 SCT050 BKN070 10/03 Q1032 NOSIG
