2019/06/15 16:20
LOWS 151620Z 26015G30KT 4000 TSRA FEW025 FEW040CB SCT070 BKN110 20/16 Q1015
