2019/06/16 10:50
LOWS 161050Z 31010KT 9999 FEW026 SCT035 BKN045 19/13 Q1022 NOSIG
