2019/05/16 15:50
LOWS 161550Z 36005KT 320V040 9999 FEW026 BKN034 11/06 Q1012 NOSIG
