2019/05/17 12:50
LOWS 171250Z 36007KT 330V030 9999 SCT060 20/11 Q1005 NOSIG
