2019/04/17 08:50
LOWS 170850Z 30004KT 240V050 9999 FEW060 SCT300 12/03 Q1023 NOSIG
