2019/04/18 08:50
LOWS 170850Z 30004KT 240V050 7000 FEW025 BKN031 12/03 Q1023 NOSIG
