2019/04/19 09:20
LOWS 190920Z 12005KT CAVOK 19/02 Q1028 NOSIG
