2019/05/19 14:50
LOWS 191450Z 09009KT 050V130 9999 SHRA FEW026 FEW040CB SCT060 BKN080 20/09 Q1001
