2019/04/20 19:50
LOWS 201950Z 25003KT CAVOK 11/03 Q1024 NOSIG
