2019/04/21 08:20
LOWS 210820Z VRB02KT CAVOK 17/04 Q1021 NOSIG
