2019/04/22 09:50
LOWS 220950Z VRB05KT CAVOK 20/06 Q1010 NOSIG
