2019/09/22 18:20
LOWS 221820Z 17003KT 9999 SCT100 BKN150 15/13 Q1012 NOSIG
