2019/04/23 09:50
LOWS 220950Z VRB08KT 9999 FEW080 22/06 Q1008 NOSIG
