2019/04/24 12:50
LOWS 241250Z 13014KT 9999 FEW080 SCT300 26/05 Q1005 NOSIG
