2019/03/24 17:20
LOWS 241720Z 32005KT 290V350 CAVOK 14/04 Q1019 NOSIG
