2019/03/25 17:50
LOWS 251750Z 29007KT 250V310 9999 FEW024 SCT035 BKN110 04/M01 Q1020 NOSIG
