2019/04/26 12:20
LOWS 261220Z 30018KT 270V330 9999 SHRA FEW030 BKN050 BKN090 15/06 Q1012
