2019/03/26 08:50
LOWS 260850Z VRB05KT 9999 SCT022 BKN055 04/00 Q1028 NOSIG
