2019/04/27 15:50
LOWS 271550Z 15004KT 110V190 9999 SHRA FEW060 12/05 Q1015
