2019/04/28 08:50
LOWS 280850Z 29004KT 250V320 9999 FEW025 SCT050 BKN100 08/01 Q1020 NOSIG
