2019/05/28 08:50
LOWS 280850Z VRB01KT 9999 RA FEW004 BKN012 BKN035 14/12 Q1006
