2019/03/29 11:50
LOWS 291150Z VRB04KT 9999 FEW045 14/03 Q1029 NOSIG
