2019/03/30 16:20
LOWS 301620Z 34003KT 300V030 CAVOK 17/01 Q1021 NOSIG
