2019/05/31 13:50
LOWS 311350Z 19009KT 150V230 9999 FEW038 SCT048 BKN070 17/11 Q1027 NOSIG
