2019/03/31 11:20
LOWS 311120Z VRB05KT 9999 FEW050 17/03 Q1020 NOSIG
