2019/05/01 18:00
LFLB 011800Z AUTO 28002KT CAVOK 16/10 Q1013 NOSIG
