2019/06/01 11:00
LFLB 011100Z AUTO 34003KT 280V020 CAVOK 24/13 Q1022 NOSIG
