2019/06/02 10:30
LFLB 021030Z AUTO 36006KT CAVOK 24/17 Q1018 NOSIG
