2019/05/02 08:00
LFLB 030800Z AUTO 30056KT 9999 FEW008 SCT048 14/10 Q1013
