2019/04/02 10:00
LFLB 021000Z AUTO 36005KT CAVOK 13/06 Q1013 NOSIG
