2019/06/03 16:00
LFLB 031600Z AUTO VRB02KT FEW100TCU 27/17 Q1015 TEMPO FEW100TCU
