2019/04/03 08:30
LFLB 030830Z AUTO VRB02KT CAVOK 11/08 Q1003 TEMPO 3000 BKN014 SCT070TCU
