2019/11/03 21:30
LFLB 032130Z AUTO 20009KT 3000 SHRA BKN030 SCT035TCU FEW046 BKN062 BKN076 10/08 Q1001
