2019/05/04 14:30
LFLB 041430Z AUTO 36014KT 4000 SHRA BKN018 OVC024 05/03 Q1008
