2019/04/04 08:00
LFLB 040800Z AUTO 00000KT 7000 -RA BKN005 BKN014 BKN023 02/02 Q1001 BECMG BKN035
