2019/06/04 07:30
LFLB 040730Z AUTO VRB02KT CAVOK 22/14 Q1013 NOSIG
