2019/11/04 13:00
LFLB 041300Z AUTO 20015G25KT 170V230 9999 FEW056 BKN066 OVC082 11/09 Q1000
