2019/06/05 09:00
LFLB 050900Z AUTO 36004KT 9000 NSC 22/13 Q1007 NOSIG
