2019/04/05 09:30
LFLB 050930Z AUTO VRB02KT CAVOK 07/01 Q1004 NOSIG
