2019/05/05 10:00
LFLB 051000Z AUTO 35020G33KT 320V020 9999 BKN046 BKN060 08/M00 Q1014 NOSIG
