2019/04/06 10:00
LFLB 061000Z AUTO 33005KT 300V020 CAVOK 11/04 Q1002 NOSIG
