2019/08/06 14:30
LFLB 061430Z AUTO VRB15G25KT 320V020 4500 TSRA BKN055CB 32/16 Q1010 TEMPO VRB15G25KT 4500 TSRA BKN055CB
