2019/06/06 11:30
LFLB 061130Z AUTO VRB03KT 9999 BKN030 BKN066 15/10 Q1016 NOSIG
