2019/11/06 13:00
LFLB 061300Z AUTO VRB03KT 9999 FEW041 OVC062 10/06 Q1008 NOSIG
