2019/05/07 07:30
LFLB 070730Z AUTO 01003KT 280V090 CAVOK 08/02 Q1020 NOSIG
