2019/06/07 10:00
LFLB 071000Z AUTO 36004KT 290V050 CAVOK 20/11 Q1010 BECMG 20015G25KT
