2019/11/07 14:30
LFLB 071430Z AUTO VRB03KT 5000 RA BR FEW037/// OVC044/// ///TCU 07/06 Q1006 TEMPO BKN014
