2019/04/08 09:00
LFLB 080900Z AUTO VRB01KT 9999 BKN034 10/08 Q1011 NOSIG
