2019/06/08 13:00
LFLB 081300Z AUTO 01008KT CAVOK 23/07 Q1023 NOSIG
