2019/04/09 07:00
LFLB 090700Z AUTO VRB01KT CAVOK 06/05 Q1011 NOSIG
