2019/06/09 12:30
LFLB 091230Z AUTO 31005KT 280V340 4000 TSRA SCT013/// BKN019/// BKN080CB ///TCU 15/13 Q1021
