2019/08/09 10:30
LFLB 091030Z AUTO 20006KT 150V260 CAVOK 32/16 Q1012 NOSIG
