2019/05/09 08:00
LFLB 090800Z AUTO 22010KT 190V250 4000 SHRA BKN035TCU OVC078 11/08 Q1007
