2020/02/10 19:30
LFLB 101930Z AUTO 16020G37KT 130V210 3000 SHRA BKN030TCU BKN072 BKN086 16/04 Q1019
