2019/06/10 12:30
LFLB 101230Z AUTO 33006KT 270V350 2500 TSRA VCTS OVC080/// ///CB 15/14 Q1015
