2019/05/10 09:00
LFLB 102030Z AUTO 35005KT 290V100 9999 -RA BKN041/// BKN066/// OVC100/// ///TCU 17/15 Q1003 NOSIG
