2019/04/10 07:00
LFLB 100700Z AUTO VRB03KT 3000 SCT040TCU BKN041 08/06 Q1009
