2019/05/11 16:30
LFLB 111630Z AUTO VRB20G40KT 2500 TSGSRA BKN030CB/// BKN040TCU/// OVC084/// ///TCU 13/07 Q1020
