2020/02/11 16:00
LFLB 111600Z AUTO 30004KT 250V330 5000 1900 RA BR BKN030TCU BKN050 OVC060 08/05 Q1022
