2019/04/11 07:00
LFLB 110700Z AUTO 36006KT 6000 BKN027 BKN036 OVC046 11/08 Q1011 TEMPO BKN014
