2019/05/12 10:00
LFLB 121000Z AUTO 34020G30KT 9999 2800 FEW058 15/05 Q1025 NOSIG
