2019/04/12 07:00
LFLB 120700Z AUTO 36011KT 8000 OVC034 10/03 Q1015 NOSIG
