2019/06/13 12:00
LFLB 131200Z AUTO 35006KT 320V020 CAVOK 22/11 Q1014 NOSIG
