2019/04/13 12:00
LFLB 131200Z AUTO 10005KT 070V160 9999 FEW054 13/02 Q1016 BECMG 36010KT
