2019/04/14 09:30
LFLB 140930Z AUTO 36013KT CAVOK 09/M02 Q1017 NOSIG
