2019/05/14 07:30
LFLB 140730Z AUTO 35010KT 300V030 CAVOK 12/03 Q1022 TEMPO 36015G25KT
