2019/04/15 07:30
LFLB 150730Z AUTO 36003KT 300V050 9000 NSC 06/01 Q1021 NOSIG
