2019/06/15 16:00
LFLB 151600Z AUTO VRB20G40KT 3000 TSRA FEW034/// BKN096/// OVC120/// ///CB 15/13 Q1021
