2019/05/15 14:30
LFLB 151430Z AUTO 34014KT CAVOK 16/05 Q1015 NOSIG
