2019/05/16 15:30
LFLB 161530Z AUTO 01006KT CAVOK 19/07 Q1009 NOSIG
