2019/06/16 10:30
LFLB 161030Z AUTO 35009KT CAVOK 21/15 Q1021 NOSIG
