2019/04/16 16:30
LFLB 161630Z AUTO 36004KT 9999 BKN056 OVC072 13/09 Q1020 NOSIG
