2019/06/17 13:30
LFLB 171330Z AUTO 34004KT 310V010 CAVOK 26/17 Q1016 NOSIG
