2019/04/17 08:00
LFLB 170800Z AUTO 00000KT CAVOK 11/09 Q1021 NOSIG
