2019/05/18 11:30
LFLB 181130Z AUTO 35005KT 320V030 9999 FEW068 BKN130 17/08 Q1005 NOSIG
