2019/04/18 08:00
LFLB 170800Z AUTO 27005KT BKN031 11/09 Q1021 NOSIG
