2019/05/19 14:00
LFLB 191400Z AUTO 19004KT 150V210 4000 SHRA FEW011 BKN020TCU BKN056 14/12 Q1005
