2019/04/19 09:00
LFLB 190900Z AUTO 01004KT 330V040 CAVOK 16/09 Q1026 NOSIG
