2019/05/20 15:00
LFLB 201500Z AUTO VRB02KT 4000 RA SCT020/// BKN033/// OVC043/// ///TCU 14/12 Q1011
