2019/04/20 19:30
LFLB 201930Z AUTO 23003KT 200V270 CAVOK 17/05 Q1020
