2019/04/21 07:30
LFLB 210730Z AUTO VRB01KT CAVOK 13/07 Q1019 NOSIG
