2019/12/21 12:00
LFLB 211200Z AUTO VRB03KT 9999 FEW041 BKN064 12/07 Q0998 NOSIG