2019/06/22 17:30
LFLB 221730Z AUTO 33003KT 300V010 9999 FEW054 22/16 Q1015 NOSIG
