2019/04/22 09:30
LFLB 220930Z AUTO 34006KT 310V020 CAVOK 18/08 Q1005 NOSIG
