2019/09/22 13:30
LFLB 221330Z AUTO 11005KT 070V190 3000 TSRA BKN030CB OVC100/// ///TCU 25/15 Q1010
