2019/04/22 21:30
LFLB 222130Z AUTO 22010KT 9999 2000 FEW058 18/01 Q1002
