2019/03/24 16:00
LFLB 241600Z AUTO 34003KT 300V020 CAVOK 21/05 Q1021 NOSIG
