2019/04/24 12:00
LFLB 241200Z AUTO VRB25G45KT 4000 SHRA FEW058/// BKN076/// BKN094/// ///TCU 16/08 Q1005
