2019/03/25 18:00
LFLB 251800Z AUTO 35021G31KT 9999 FEW072 10/M02 Q1021 NOSIG
