2019/04/25 07:00
LFLB 250700Z AUTO 21012KT 180V240 5000 0750 R18/2400D R36/3000D // NSC 17/02 Q1007
