2019/04/26 11:30
LFLB 261130Z AUTO 36006KT 340V040 9999 FEW040 SCT078 BKN092 15/08 Q1017 BECMG 20012KT SCT060TCU
