2019/05/27 06:30
LFLB 270630Z AUTO 35003KT 310V030 CAVOK 17/11 Q1012 NOSIG
