2019/04/27 15:00
LFLB 271500Z AUTO 34015G25KT 9999 +RA BKN030TCU BKN066 OVC170 13/09 Q1020
