2019/03/27 09:00
LFLB 270900Z AUTO 01011KT CAVOK 09/M01 Q1027 NOSIG
