2019/04/28 08:30
LFLB 280830Z AUTO VRB15G30KT 130V190 4000 SHRA FEW027 BKN035 BKN043 09/06 Q1024
