2019/05/28 07:30
LFLB 280730Z AUTO 35010KT 100V160 4000 RA BKN014 OVC082 15/12 Q1011
