2019/03/29 09:00
LFLB 290900Z AUTO 35004KT 320V020 CAVOK 10/03 Q1030 NOSIG
