2019/05/30 18:00
LFLB 301800Z AUTO 35010KT CAVOK 20/08 Q1024 NOSIG
