2019/04/30 07:30
LFLB 300730Z AUTO 35004KT 310V040 CAVOK 10/04 Q1018 NOSIG
