2019/03/30 16:00
LFLB 301600Z AUTO 33005KT CAVOK 19/01 Q1020 NOSIG
