2019/05/31 07:30
LFLB 310730Z AUTO 35008KT 320V030 CAVOK 25/10 Q1023 NOSIG
