2019/03/31 11:00
LFLB 311100Z AUTO 02004KT 330V070 CAVOK 16/03 Q1018 NOSIG
