2019/06/01 11:00
CYFB 011100Z 16004KT 30SM FEW020 M00/M02 A3018 RMK SC1 SC TR SLP225
