2019/04/01 20:00
CYFB 012000Z 04004KT 25SM FEW017 FEW240 M14/M19 A2976 RMK SC1CI1 CI TR SLP084
