2019/05/01 18:00
CYFB 011800Z 33018KT 30SM FEW014 BKN024 M04/M07 A3033 RMK SC1SC7 SC TR SLP276
