2019/04/02 07:00
CYFB 020700Z VRB02KT 15SM IC SCT160 M18/M24 A2949 RMK AC3 SLP992
