2019/05/02 14:00
CYFB 021400Z 32017KT 30SM BKN013 BKN030 M06/M10 A3045 RMK SC5SC1 SC TR SLP315
