2019/06/02 10:00
CYFB 021000Z 17003KT 30SM FEW015 FEW250 00/M02 A3026 RMK SC1CI1 SC TR CI TR SLP253
