2019/06/03 16:27
CYFB 031627Z 14005KT 090V160 20SM SCT006 02/M00 A3031 RMK ST4 SLP267
