2019/04/03 07:00
CYFB 030700Z 33009KT 15SM SCT041 M18/M22 A2949 RMK SC4 SLP991
