2019/05/03 12:00
CYFB 031200Z 35012G18KT 30SM SCT150 M08/M11 A3032 RMK AC3 SLP273
