2019/11/03 22:00
CYFB 032200Z 06010KT 15SM -SN SCT022 OVC072 M04/M08 A2995 RMK SC3AC5 SLP147
