2019/04/04 07:00
CYFB 040700Z 32006KT 300V010 15SM FEW064 M19/M25 A2992 RMK SC1 SC TR SLP137
