2019/05/04 14:00
CYFB 041400Z 33020KT 30SM SCT058 BKN100 M06/M08 A3001 RMK SC4AC2 SLP166
