2019/06/04 07:00
CYFB 040700Z 15004KT 30SM OVC009 02/00 A3028 RMK SC8 SLP257
