2019/11/04 13:00
CYFB 041300Z 33004KT 30SM FEW018 SCT092 BKN250 M07/M10 A2978 RMK SC1AC3CI1 SLP090
