2019/05/05 10:00
CYFB 051000Z 32011KT 30SM FEW052 FEW100 BKN190 BKN250 M05/M08 A2997 RMK SC1AC1CS3CI2 HALO SLP154
