2019/04/05 09:00
CYFB 050900Z 34024G30KT 1SM R34/2400FT/N -SN BLSN VV019 M17/M19 A2972 RMK SN8 SLP069
