2019/06/05 10:00
CYFB 051000Z 00000KT 30SM BKN140 BKN200 06/01 A2997 RMK AC5CI2 SLP154
