2019/04/06 12:48
CYFB 061248Z 34002KT 3SM -SN OVC032 M09/M11 A2954 RMK SN6SC2 SLP010
