2019/06/06 13:00
CYFB 061300Z 18003KT 150V220 30SM OVC026 05/01 A2965 RMK SC8 SLP044
