2019/11/06 13:37
CYFB 061337Z 02007KT 25SM -SN BKN024 M08/M13 A2995 RMK SC7 WSHFT 1320 SLP146
