2019/04/07 13:04
CYFB 071304Z 32010KT 15SM -SN FEW012 BKN041 BKN170 M06/M08 A2971 RMK NS1SC6AC1 NS TR -SN INTMT VIS N LWR SLP066
