2019/05/07 07:00
CYFB 070700Z 14012KT 20SM FEW010 OVC019 01/M02 A3021 RMK SF2SC6 SLP236
