2019/11/07 15:00
CYFB 071500Z 32015G20KT 30SM FEW015 FEW230 M14/M18 A2972 RMK SC1CI2 SC TR SLP070
