2019/06/08 13:00
CYFB 081300Z VRB03KT 30SM FEW048 SCT077 07/03 A3007 RMK SC1AC2 CU ASOCTD SLP187
