2019/04/08 11:26
CYFB 081126Z 34016KT 3SM -SN DRSN OVC025 M11/M14 A3020 RMK SN6SC2 SLP231
