2019/08/09 08:00
CYFB 090800Z 12009KT 20SM OVC014 06/04 A3007 RMK SC8 SLP188
