2019/05/09 08:00
CYFB 090800Z 34002KT 30SM BKN099 01/M00 A3048 RMK AC6 SLP325
