2019/06/09 12:51
CYFB 091251Z 14005KT 1/2SM R34/3000FT/N FG VV003 01/01 A3038 RMK FG8 VIS VRB 1/4-3/4 SLP291
