2019/04/09 07:00
CYFB 090700Z 32019KT 15SM DRSN SKC M20/M23 A3038 RMK SLP292
