2019/04/10 07:00
CYFB 100700Z 32020KT 15SM DRSN SKC M21/M25 A3041 RMK SLP304
