2019/06/10 13:00
CYFB 101300Z 15013KT 30SM SCT003 BKN050 OVC110 03/01 A3024 RMK ST4SC2AC2 SLP246
