2019/05/10 10:00
CYFB 101000Z 09020KT 4SM BR FEW004 OVC051 01/01 A2980 RMK SF2SC6 SLP257