2019/04/11 07:00
CYFB 110700Z 32014KT 15SM DRSN SKC M19/M22 A3029 RMK SLP264
