2019/05/11 17:00
CYFB 111700Z 14024G32KT 30SM FEW015 BKN024 BKN200 02/M01 A2996 RMK SC1SC4CI1 SLP148
