2019/04/12 07:00
CYFB 120700Z 33011KT 15SM -SN OVC018 M08/M11 A3013 RMK SC8 SLP208
