2019/05/12 11:00
CYFB 121100Z 14018G25KT 25SM BKN021 01/M01 A3005 RMK SC7 SLP180
