2019/06/13 12:00
CYFB 131200Z 23003KT 20SM OVC025 04/02 A2993 RMK SC8 SLP138
