2019/05/13 11:00
CYFB 131100Z 14002KT 30SM FEW033 SCT250 01/M01 A3003 RMK SC1CI2 SLP172
