2019/04/13 12:15
CYFB 131215Z 33020KT 20SM -SN DRSN SCT010 OVC022 M06/M08 A2979 RMK SC4SC4 SLP093
