2019/04/14 09:00
CYFB 140900Z 31011KT 30SM BKN015 OVC034 M10/M13 A2973 RMK SC7SC1 SLP073
