2019/05/15 15:00
CYFB 151500Z 16004KT 120V180 30SM FEW015 FEW046 03/M00 A2987 RMK SC1SC1 SC TR SC TR SLP120
