2019/04/15 08:00
CYFB 150800Z 33014G21KT 15SM IC DRSN FEW011 BKN110 M14/M17 A2984 RMK SC2AC3 SLP108
