2019/06/15 16:00
CYFB 151600Z 14005KT 2SM BR OVC002 03/02 A3013 RMK FG7ST1 VIS VRB 1 1/2-2 1/2 SLP206
