2019/04/16 17:00
CYFB 161700Z 32012KT 30SM SCT020 M13/M19 A3006 RMK SC3 SLP185
