2019/06/16 10:00
CYFB 161000Z VRB02KT 10SM -RA OVC020 02/02 A3003 RMK SC8 SLP174
