2019/05/16 15:30
CYFB 161530Z 14011KT 15SM -RA SCT006 OVC008 01/01 A3005 RMK SF4SC4 SLP178
