2019/04/17 09:00
CYFB 170900Z 32014KT 30SM SKC M22/M27 A3010 RMK SLP197
