2019/05/17 12:00
CYFB 171200Z 14011KT 10SM -DZ OVC003 01/01 A3018 RMK ST8 INTMT -DZ SLP223
