2019/04/18 09:00
CYFB 170900Z 32014KT 6000 SCT020 BRK025 M15/M17 Q1019
