2019/05/18 11:22
CYFB 181122Z 15007KT 20SM FEW005 OVC011 01/M00 A3025 RMK SF1SC7 SLP249
