2019/05/19 14:31
CYFB 191431Z 14004KT 30SM FEW008 BKN015 OVC050 01/M00 A3026 RMK SF1SC6SC1 SLP251
