2019/04/19 09:00
CYFB 190900Z 14013KT 15SM -SN DRSN OVC028 M05/M07 A2952 RMK SC8 SLP000
