2019/04/20 19:00
CYFB 201900Z 33016KT 30SM DRSN FEW011 M14/M18 A2981 RMK SC1 SC TR SLP101
