2019/04/21 08:00
CYFB 210800Z 33003KT 2SM -SN VV018 BRK011 M15/M17 A2976 RMK SN8 PRESFR SLP082
