2019/09/22 18:00
CYFB 221800Z 05005KT 350V070 30SM FEW030 BKN220 06/M01 A2930 RMK SC2CI4 SLP925
