2019/06/22 18:00
CYFB 221800Z 32022G30KT 30SM FEW045 FEW250 12/01 A2993 RMK SC1CI1 CVCTV EMBD SLP140
