2019/04/22 10:00
CYFB 221000Z 33019KT 30SM DRSN FEW020 SCT160 BKN230 M24/M28 A2992 RMK SC1AC3CI2 SC TR SLP138
