2019/04/23 10:00
CYFB 221000Z 34019KT 30SM FEW020 SCT160 BKN230 M24/M28 Q1001
