2019/04/24 12:00
CYFB 241200Z VRB02KT 30SM BKN033 M16/M19 A3010 RMK SC7 SLP199
