2019/03/24 17:00
CYFB 241700Z VRB02KT 20SM SCT049 M14/M21 A2895 RMK SC4 SLP809
