2019/03/25 16:00
CYFB 251600Z 09014G24KT 050V110 3SM R34/4500VP6000FT/D -SN BLSN OVC042 M13/M17 A2894 RMK BLSN6SC2 SLP804
