2019/04/25 07:00
CYFB 250700Z 14015G20KT 15SM -SN DRSN BKN110 BKN140 M11/M14 A2992 RMK AC5AC1 SLP138
