2019/03/26 09:00
CYFB 260900Z 33013KT 15SM BKN085 M21/M27 A2958 RMK AC5 SLP023
