2019/04/26 12:14
CYFB 261214Z 15014KT 1 1/2SM -SN DRSN BKN008 OVC015 M03/M04 A2975 RMK SN6SC1SC1 VIS VRB 1-2 SLP078
