2019/04/27 15:00
CYFB 271500Z 00000KT 30SM SCT008 BKN250 M04/M06 A3005 RMK SC4CI3 SLP182
