2019/05/27 14:00
CYFB 271400Z 17008KT 30SM FEW005 FEW009 OVC033 01/M01 A2991 RMK SF1SC1SC8 SF TR SC TR SLP131
