2019/03/27 10:00
CYFB 271000Z VRB02KT 15SM IC BKN032 BKN250 M24/M27 A2975 RMK SC5CI1 SLP080
