2019/05/28 08:49
CYFB 280849Z 15011KT 10SM -SN SCT012 OVC024 01/M01 A2992 RMK SN1SC2SC5 SLP134
