2019/04/28 08:00
CYFB 280800Z 17003KT 20SM BKN024 OVC092 M04/M06 A2997 RMK SC6AC2 SLP155
