2019/03/29 11:10
CYFB 291110Z 11009KT 2SM -SN DRSN BKN019 BKN061 M05/M07 A2903 RMK SN4SC2SC1 VIS VRB 1 1/2-2 1/2 SLP834
