2019/03/30 16:00
CYFB 301600Z 15005KT 2 1/2SM -SN OVC035 M14/M18 A2947 RMK SC8 VIS VRB 2-3 SLP985
