2019/04/30 07:00
CYFB 300700Z 34019KT 15SM FEW040 SCT150 SCT280 M04/M09 A2992 RMK SC1AC3CI1 SC TR SLP138
