2019/05/31 13:00
CYFB 311300Z 15002KT 30SM FEW040 FEW250 05/02 A3010 RMK SC1CI1 SC TR SLP197
