2019/03/31 11:34
CYFB 311134Z 15005KT 6SM IC SCT040 BKN100 M17/M19 A2970 RMK SC4AC2 SLP063
