2019/05/01 16:50
EDQM 011650Z 25008KT 230V290 9999 -DZ FEW013 BKN048 OVC061 13/07 Q1013
