2019/06/01 11:20
EDQM 011120Z VRB03KT CAVOK 23/11 Q1024
