2019/05/02 14:50
EDQM 021450Z 27010KT 230V330 CAVOK 15/03 Q1007
