2019/06/02 10:50
EDQM 021050Z 17005KT 120V230 CAVOK 25/12 Q1020
