2019/04/02 07:20
EDQM 020720Z 17007KT CAVOK 05/M03 Q1013
