2019/06/03 16:20
EDQM 031620Z 21008KT CAVOK 26/10 Q1014
