2019/04/03 07:20
EDQM 030720Z VRB03KT CAVOK 08/05 Q1004
