2019/11/03 17:50
EDQM 031750Z 14004KT 110V170 3900 BR OVC013 08/07 Q0989
