2019/06/04 07:20
EDQM 040720Z VRB02KT CAVOK 21/14 Q1015
