2019/04/04 07:20
EDQM 040720Z 06005KT 030V090 9999 NSC 07/03 Q0996
