2019/05/04 13:50
EDQM 041350Z 36006KT 310V030 9999 -SN BKN006 OVC010 00/M00 Q1006
