2019/11/04 13:20
EDQM 041320Z 20007KT 8000 -SHRA SCT013 BKN028 OVC043 08/07 Q0992
