2019/06/05 13:50
EDQM 051350Z 05009KT 360V110 CAVOK 27/13 Q1009
