2019/05/05 09:50
EDQM 050950Z 36005KT 310V050 9999 SCT025 BKN032 BKN041 03/M00 Q1016
