2019/04/05 09:50
EDQM 050950Z VRB03KT 0400 R26/0800N FG VV/// 06/05 Q1004
