2019/06/06 13:20
EDQM 061320Z 25013KT 9999 SCT015 BKN028 16/12 Q1013
