2019/04/06 09:50
EDQM 060950Z 13009KT 100V170 9999 FEW039 14/05 Q1006
