2019/04/07 13:50
EDQM 071350Z 12011KT 080V160 CAVOK 15/04 Q1005
