2019/05/07 07:50
EDQM 070750Z 24006KT 210V280 CAVOK 05/01 Q1018
