2019/11/07 15:20
EDQM 071520Z 16006KT 140V210 9999 FEW070 07/04 Q1003
