2019/04/08 11:50
EDQM 081150Z 08006KT 030V130 9999 SCT049 BKN070 14/06 Q1009
