2019/06/08 13:20
EDQM 081320Z 22014KT 180V260 CAVOK 18/05 Q1023
