2019/05/09 08:20
EDQM 090820Z 21014KT 9999 FEW010 SCT016 BKN053 08/06 Q1001
