2019/08/09 08:50
EDQM 090850Z 20007KT 150V250 CAVOK 25/13 Q1015
