2019/06/09 12:20
EDQM 091220Z 13008KT 080V210 CAVOK 23/09 Q1022
