2019/05/10 09:50
EDQM 100950Z 24015KT 9999 FEW040 19/11 Q1005
