2019/06/10 12:50
EDQM 101250Z VRB05KT CAVOK 23/13 Q1014
