2019/05/11 16:50
EDQM 111650Z 32006KT 290V350 9999 -RA SCT007 BKN037 09/08 Q1011
