2019/04/11 07:20
EDQM 110720Z 03008KT 350V080 CAVOK 00/M04 Q1018
