2019/05/12 10:50
EDQM 121050Z 36010KT 310V050 9999 SCT021 BKN035 BKN100 08/03 Q1027
