2019/04/12 07:20
EDQM 120720Z 05005KT 350V100 9999 BKN034 M01/M06 Q1021
