2019/04/13 12:20
EDQM 131220Z 04004KT 350V100 9999 FEW035 04/M06 Q1018
