2019/05/13 11:50
EDQM 131150Z 01010KT 300V040 CAVOK 10/M01 Q1034
