2019/06/13 12:20
EDQM 131220Z VRB04KT CAVOK 21/08 Q1016
