2019/04/14 09:20
EDQM 140920Z 03009KT 0350 R26/0750N FZFG VV/// M01/M01 Q1019
