2019/05/15 15:20
EDQM 151520Z 03009KT 340V080 9999 OVC023 06/01 Q1022
