2019/06/15 16:20
EDQM 151620Z 27013KT 230V300 9999 FEW041 21/11 Q1015
