2019/04/15 08:20
EDQM 150820Z 03006KT 3400 BR OVC005 03/02 Q1025
