2019/05/16 15:50
EDQM 161550Z VRB02KT 4800 RA OVC004 05/04 Q1013 REDZ
