2019/04/16 16:50
EDQM 161650Z 12006KT 070V140 CAVOK 13/M03 Q1019
