2019/06/16 10:50
EDQM 161050Z 02004KT 350V080 9999 FEW035 OVC076 17/09 Q1022
