2019/05/17 12:20
EDQM 171220Z 09007KT 050V130 9999 BKN026 12/06 Q1009
