2019/04/17 08:50
EDQM 170850Z 12003KT 060V220 CAVOK 12/M01 Q1024
