2019/05/18 11:50
EDQM 181150Z 10007KT 060V140 9999 FEW025 17/11 Q1007
