2019/04/18 08:50
EDQM 170850Z 27005KT 060V220 NSC 12/M01 Q1024
