2019/05/19 14:20
EDQM 191420Z 06012KT 020V090 CAVOK 20/09 Q1003
