2019/04/19 09:20
EDQM 190920Z 11014KT 090V150 CAVOK 17/03 Q1031
