2019/04/20 16:50
EDQM 201650Z 03007KT 320V070 CAVOK 18/02 Q1027
