2019/04/21 07:50
EDQM 210750Z 10006KT CAVOK 14/03 Q1023
