2019/06/22 16:50
EDQM 221650Z 07012KT CAVOK 19/13 Q1019
