2019/09/22 17:20
EDQM 221720Z 12006KT CAVOK 15/07 Q1012
