2019/04/22 09:50
EDQM 220950Z 10011KT CAVOK 17/02 Q1013
