2019/04/23 09:50
EDQM 220950Z 12011KT CAVOK 19/03 Q1010
