2019/04/24 12:50
EDQM 241250Z 13009KT 100V170 CAVOK 21/08 Q1005
