2019/03/24 17:20
EDQM 241720Z 01004KT 340V050 4100 BR SCT008 BKN010 OVC013 06/04 Q1021
