2019/04/25 07:50
EDQM 250750Z 11008KT CAVOK 15/04 Q1013
