2019/03/25 16:50
EDQM 251650Z 28010KT 9999 FEW016 SCT022 BKN027 02/00 Q1016
