2019/04/26 11:50
EDQM 261150Z 25012KT CAVOK 14/08 Q1010
