2019/04/27 15:20
EDQM 271520Z 23012KT 7000 TSRA BKN020CB BKN035 07/06 Q1013
