2019/03/27 10:20
EDQM 271020Z 31007KT 270V340 9999 BKN022 OVC028 04/00 Q1030
