2019/05/27 14:50
EDQM 271450Z 26009KT 9999 SCT041 BKN062 17/10 Q1009
