2019/05/28 08:50
EDQM 280850Z 04009KT 9999 FEW018 SCT047 BKN057 12/09 Q1006
