2019/03/28 14:50
EDQM 281450Z 02006KT 350V050 2100 +DZ BKN009 07/06 Q1032 REDZ
