2019/04/28 08:50
EDQM 280850Z 22008KT 8000 -DZ SCT007 BKN010 OVC033 04/02 Q1018
