2019/03/29 11:20
EDQM 291120Z 10004KT 030V180 9999 FEW027 10/04 Q1031
