2019/03/30 16:20
EDQM 301620Z 25006KT CAVOK 14/02 Q1021
