2019/04/30 07:50
EDQM 300750Z 34008KT 270V060 9999 FEW012 05/02 Q1017
