2019/03/31 11:20
EDQM 311120Z 02008KT 330V060 CAVOK 13/05 Q1021
