2019/05/31 13:50
EDQM 311350Z 29004KT 260V320 CAVOK 18/12 Q1025
