2019/05/01 17:50
EDFM 011750Z VRB03KT CAVOK 20/01 Q1013
