2019/04/01 19:50
EDFM 011950Z 03005KT CAVOK 14/03 Q1015
