2019/06/01 11:20
EDFM 011120Z VRB03KT CAVOK 26/12 Q1022
