2019/04/02 09:50
EDFM 020950Z 16007KT 110V200 CAVOK 16/05 Q1010
