2019/06/02 10:20
EDFM 021020Z 16007KT 100V210 CAVOK 28/13 Q1017
