2019/06/03 15:50
EDFM 031550Z VRB03KT CAVOK 22/17 Q1014
