2019/04/03 09:20
EDFM 030920Z 23005KT 180V290 9999 FEW008 BKN014 BKN040 10/08 Q1004
