2019/05/03 07:50
EDFM 030750Z 33009KT 280V040 9999 SCT026 13/06 Q1012
