2019/11/03 19:20
EDFM 031920Z 15004KT 120V190 9999 FEW041 SCT047 OVC064 12/10 Q0988
