2019/04/04 07:50
EDFM 040750Z 30007KT 270V330 9999 BKN008 BKN019 06/04 Q0999
