2019/06/04 07:20
EDFM 040720Z VRB02KT CAVOK 22/14 Q1013
