2019/05/04 14:50
EDFM 041450Z VRB02KT 9999 FEW029 08/01 Q1010
