2019/11/04 13:20
EDFM 041320Z 23009KT 190V260 9999 FEW047 BKN068 13/09 Q0992
