2019/05/05 09:50
EDFM 050950Z 35008KT 320V040 9999 BKN046 08/M02 Q1019
