2019/06/05 10:20
EDFM 051020Z 14004KT 090V200 CAVOK 27/13 Q1008
