2019/04/06 09:50
EDFM 060950Z VRB04KT CAVOK 12/06 Q1004
