2019/11/06 13:20
EDFM 061320Z 21006KT 180V240 9999 FEW016 OVC056 11/07 Q1004
