2019/05/07 07:20
EDFM 070720Z 14004KT 100V210 CAVOK 09/03 Q1020
