2019/04/07 13:20
EDFM 071320Z 18004KT 110V270 CAVOK 18/07 Q1004
