2019/06/07 10:20
EDFM 071020Z 09005KT 040V200 CAVOK 21/12 Q1010
