2019/11/07 14:50
EDFM 071450Z 19009KT 150V220 9999 FEW019 BKN035 11/07 Q1001
