2019/06/08 12:50
EDFM 081250Z 23008KT 170V290 CAVOK 20/06 Q1023
