2019/04/08 10:20
EDFM 081020Z VRB03KT 9999 BKN014 OVC019 13/09 Q1010
