2019/05/09 07:50
EDFM 090750Z 14004KT 9999 -DZ FEW027 BKN041 10/08 Q1000
