2019/06/09 12:20
EDFM 091220Z 08004KT 350V160 CAVOK 24/10 Q1020

