2019/04/09 06:50
EDFM 090650Z 10002KT CAVOK 10/08 Q1010
