2019/04/10 07:20
EDFM 100720Z 34007KT 8000 -RA BKN037 09/06 Q1011
