2019/06/10 12:50
EDFM 101250Z 14005KT 070V210 9999 FEW024 21/14 Q1012

