2020/02/10 18:20
EDFM 101820Z 22009KT 180V250 9999 -RA FEW041 SCT052 09/02 Q1003
