2019/05/10 09:20
EDFM 100920Z 23006KT 180V290 9999 SCT026 SCT060 BKN068 26/11 Q1004
