2019/04/11 06:50
EDFM 110650Z 02007KT 350V050 CAVOK 06/M02 Q1019
