2019/05/11 16:50
EDFM 111650Z 33013KT 310V010 9999 SCT020 BKN027 OVC036 12/08 Q1015
