2020/02/11 18:50
EDFM 111850Z 23009KT 190V250 9999 -RA SCT007 03/01 Q1012
