2019/05/12 09:50
EDFM 120950Z 01007KT 340V050 9999 BKN022 09/04 Q1031
