2019/04/12 06:50
EDFM 120650Z 35006KT CAVOK 03/M04 Q1022
