2019/06/13 12:20
EDFM 131220Z VRB05KT CAVOK 23/11 Q1014
