2019/05/13 07:20
EDFM 130720Z 02009KT CAVOK 10/02 Q1036
