2019/04/13 11:50
EDFM 131150Z 03010KT 360V060 9999 FEW010 SCT026 BKN030 05/M01 Q1021
