2019/07/14 16:50
EDFM 141650Z 01010KT CAVOK 20/10 Q1017
