2019/05/14 07:20
EDFM 140720Z 02009KT 350V060 CAVOK 11/00 Q1031
