2019/04/14 09:20
EDFM 140920Z 03007KT 9999 FEW025 BKN073 07/01 Q1021
