2019/05/15 14:50
EDFM 151450Z 02008KT 300V060 CAVOK 16/M01 Q1021
