2019/04/15 07:50
EDFM 150750Z VRB03KT CAVOK 08/03 Q1024
