2019/06/15 15:50
EDFM 151550Z 27008KT 220V330 CAVOK 25/12 Q1015
