2019/04/16 16:50
EDFM 161650Z VRB03KT CAVOK 18/04 Q1017
