2019/05/16 15:20
EDFM 161520Z 36005KT 310V040 CAVOK 18/05 Q1012
