2019/06/17 13:50
EDFM 171350Z VRB04KT CAVOK 27/11 Q1018
