2019/04/17 07:50
EDFM 170750Z VRB02KT 9999 SCT007 BKN094 OVC100 13/11 Q1022
