2019/05/17 07:20
EDFM 170720Z VRB03KT CAVOK 14/07 Q1008
