2019/05/18 11:20
EDFM 181120Z 32004KT 270V050 CAVOK 19/10 Q1005
