2019/04/18 07:50
EDFM 170750Z VRB02KT 7999 SCT007 BKN094 13/11 Q1022
