2019/05/19 14:20
EDFM 191420Z 30006KT 210V330 9999 SCT049TCU 23/10 Q1002
