2019/04/19 08:50
EDFM 190850Z VRB02KT CAVOK 19/04 Q1027
