2019/05/20 15:20
EDFM 201520Z 32010KT 290V350 9000 -DZ SCT019 BKN030 BKN080 16/13 Q1005
