2019/04/21 07:20
EDFM 210720Z VRB03KT CAVOK 17/04 Q1021
