2019/09/22 17:50
EDFM 221750Z 00000KT CAVOK 21/11 Q1009
