2019/06/22 17:50
EDFM 221750Z 07004KT CAVOK 21/16 Q1017
