2019/04/22 09:20
EDFM 220920Z VRB03KT CAVOK 22/02 Q1009
