2019/04/23 09:20
EDFM 220920Z VRB03KT CAVOK 21/01 Q1007
