2019/04/24 12:20
EDFM 241220Z 06008KT 010V100 CAVOK 23/08 Q1002
