2019/03/24 15:50
EDFM 241550Z 33009KT CAVOK 14/05 Q1023
