2019/03/25 17:50
EDFM 251750Z 31012KT 9999 FEW024 SCT035 BKN041 08/01 Q1023
