2019/04/25 06:50
EDFM 250650Z 17004KT 120V230 CAVOK 13/06 Q1010
