2019/03/26 07:20
EDFM 260720Z 34004KT 310V020 9999 FEW025 SCT045 06/02 Q1030
