2019/04/26 11:50
EDFM 261150Z 25006KT 220V280 9999 SCT014 BKN028 11/08 Q1015
