2019/05/27 06:50
EDFM 270650Z 20005KT 170V230 CAVOK 16/11 Q1011
