2019/03/27 09:20
EDFM 270920Z 35005KT 310V040 9999 FEW030 10/02 Q1033
