2019/04/27 15:20
EDFM 271520Z 19005KT 140V240 9999 FEW041 SCT073 11/07 Q1014
