2019/04/28 08:20
EDFM 280820Z 19005KT 140V230 9999 FEW019 BKN023 09/04 Q1020
