2019/05/28 07:50
EDFM 280750Z VRB02KT 9999 BKN007 BKN014 BKN017 15/13 Q1007
