2019/03/29 10:20
EDFM 291020Z 06006KT 010V100 9999 SCT040 15/05 Q1031
