2019/03/30 15:50
EDFM 301550Z 16006KT 120V200 CAVOK 21/01 Q1020
