2019/05/30 17:20
EDFM 301720Z 26007KT 230V290 CAVOK 20/10 Q1025
