2019/04/30 07:20
EDFM 300720Z 36005KT 330V050 9999 OVC029 11/07 Q1020
