2019/03/31 10:50
EDFM 311050Z VRB02KT CAVOK 18/05 Q1020
