2019/05/31 07:20
EDFM 310720Z VRB03KT CAVOK 24/12 Q1024
