2019/05/01 18:30
LFSG 011830Z AUTO 34003KT CAVOK 15/06 Q1014
