2019/04/01 20:30
LFSG 012030Z AUTO 36004KT CAVOK 10/05 Q1014
