2019/06/01 11:30
LFSG 011130Z AUTO VRB03KT CAVOK 25/13 Q1022
