2019/05/02 15:00
LFSG 021500Z AUTO 20004KT 180V240 2300 RA BR FEW012/// BKN018/// BKN026/// ///TCU 11/10 Q1011
