2019/04/02 08:00
LFSG 020800Z AUTO 19007KT CAVOK 12/04 Q1010
