2019/06/02 11:00
LFSG 021100Z AUTO 18009KT 150V210 CAVOK 27/14 Q1017
