2019/05/03 12:00
LFSG 031200Z AUTO 30003KT 270V350 9999 SCT030 OVC098 13/06 Q1013
