2019/04/03 07:30
LFSG 030730Z AUTO 18007KT 9999 -RA BKN030/// OVC036/// ///TCU 04/03 Q1004
