2019/06/03 16:30
LFSG 031630Z AUTO 23008KT CAVOK 22/15 Q1015
