2019/11/03 22:30
LFSG 032230Z AUTO 22015KT 7000 -RA BKN013/// BKN020/// OVC026/// ///TCU 10/09 Q0993
