2019/06/04 07:30
LFSG 040730Z AUTO 10003KT CAVOK 19/15 Q1011
