2019/04/04 07:30
LFSG 040730Z AUTO 24003KT 8000 -SN BKN004 OVC016 01/00 Q0998
