2019/11/04 13:30
LFSG 041330Z AUTO 21013KT 9999 BKN036 BKN052 BKN070 13/09 Q0992
