2019/04/05 10:00
LFSG 051000Z AUTO 03007KT 010V070 CAVOK 08/03 Q1004
