2019/05/05 10:00
LFSG 051000Z AUTO 35011KT 9999 BKN044 BKN054 06/00 Q1019
