2019/06/05 14:00
LFSG 051400Z AUTO 15005KT 110V190 9999 NSC 27/10 Q1005
