2019/04/06 10:00
LFSG 061000Z AUTO 02006KT 360V060 CAVOK 09/05 Q1002
