2019/11/06 13:30
LFSG 061330Z AUTO 23011KT 9999 FEW010/// SCT024/// BKN032/// ///TCU 09/07 Q1005
