2019/05/07 10:30
LFSG 071030Z AUTO 01004KT 270V060 CAVOK 11/00 Q1018
