2019/04/07 14:00
LFSG 071400Z AUTO 19010KT 9999 -RA BKN044/// OVC060/// ///TCU 11/06 Q1006
