2019/11/07 15:30
LFSG 071530Z AUTO 22010KT CAVOK 08/04 Q1003
