2019/04/08 12:00
LFSG 081200Z AUTO 26006KT 9999 BKN015 OVC020 10/07 Q1011
