2019/06/08 13:30
LFSG 081330Z AUTO 23011KT 200V270 CAVOK 18/07 Q1024
