2019/04/09 08:00
LFSG 090800Z AUTO VRB02KT 0200 R26/0250N FG VV/// 06/05 Q1010
