2019/06/09 13:00
LFSG 091300Z AUTO 09005KT 050V130 CAVOK 20/09 Q1019
