2019/08/09 10:30
LFSG 091030Z AUTO 19010KT 170V230 9999 ///TCU 27/17 Q1010
