2019/05/09 10:00
LFSG 091000Z AUTO 23020G33KT 9999 BKN018/// OVC025/// ///CB 12/10 Q0999
