2019/06/10 13:00
LFSG 101300Z AUTO 17012KT 9999 FEW021/// BKN078/// OVC092/// ///CB 18/13 Q1013
