2019/04/10 08:00
LFSG 100800Z AUTO VRB03KT 2200 R26/1200U BR OVC002 07/06 Q1010
