2019/05/10 10:30
LFSG 101030Z AUTO 24007KT 070V170 4800 +RA SCT037/// BKN047/// OVC056/// 17/15 Q1003
