2019/05/11 17:30
LFSG 111730Z AUTO 34007KT 300V020 9999 FEW026/// SCT033/// ///CB 12/08 Q1020
