2019/04/11 07:30
LFSG 110730Z AUTO 01012KT CAVOK 05/00 Q1016
