2019/04/12 07:30
LFSG 120730Z AUTO 01012KT CAVOK 03/M02 Q1019
