2019/05/12 11:00
LFSG 121100Z AUTO 01010KT 330V050 9999 SCT032 11/04 Q1031
