2019/04/13 12:30
LFSG 131230Z AUTO 02007KT 320V060 9999 SCT041 BKN047 OVC056 05/M02 Q1020
