2019/06/13 12:30
LFSG 131230Z AUTO 20009KT 160V250 CAVOK 20/08 Q1015
