2019/05/13 12:00
LFSG 131200Z AUTO 07018KT CAVOK 15/00 Q1032
