2019/04/14 09:30
LFSG 140930Z AUTO 03006KT 350V060 9999 OVC011 01/M01 Q1021
