2019/04/15 08:30
LFSG 150830Z AUTO 04008KT CAVOK 07/01 Q1021
