2019/06/16 11:00
LFSG 161100Z AUTO 26005KT 220V310 9999 FEW043 SCT054 19/10 Q1023
