2019/05/16 16:00
LFSG 161600Z AUTO 01008KT 340V040 CAVOK 15/05 Q1011
