2019/04/16 17:00
LFSG 161700Z AUTO 17009KT 9000 -RA BKN009 OVC015 10/09 Q1017
