2019/04/17 09:00
LFSG 170900Z AUTO VRB02KT 9999 FEW009 BKN058 12/09 Q1021
