2019/05/17 12:30
LFSG 171230Z AUTO VRB03KT CAVOK 17/08 Q1004
