2019/05/18 12:00
LFSG 181200Z AUTO 02005KT 340V060 CAVOK 17/08 Q1006
