2019/04/18 09:00
LFSG 170900Z AUTO VRB02KT 6000 FEW009 BKN058 12/09 Q1021
