2019/04/19 09:30
LFSG 190930Z AUTO VRB02KT CAVOK 18/10 Q1026
