2019/04/20 20:00
LFSG 202000Z AUTO 05007KT CAVOK 15/03 Q1022
