2019/04/21 08:00
LFSG 210800Z AUTO 03008KT CAVOK 14/06 Q1019
