2019/06/22 18:00
LFSG 221800Z AUTO 05008KT CAVOK 22/15 Q1017
