2019/04/22 10:00
LFSG 221000Z AUTO 03005KT 350V090 CAVOK 18/07 Q1006
