2019/09/22 18:00
LFSG 221800Z AUTO 28010KT 8000 RA FEW015/// BKN048/// BKN066/// ///TCU 16/15 Q1011
