2019/04/23 10:00
LFSG 221000Z AUTO 13005KT 350V090 9999 SCT040 16/07 Q1004
