2019/04/24 13:00
LFSG 241300Z AUTO 21028G40KT 9999 FEW040/// SCT047/// OVC058/// ///TCU 14/08 Q1003
