2019/03/24 17:30
LFSG 241730Z AUTO 35006KT 9999 FEW044 11/05 Q1024
