2019/04/25 07:30
LFSG 250730Z AUTO 13004KT 100V170 CAVOK 11/07 Q1006
