2019/03/25 17:30
LFSG 251730Z AUTO 33011KT CAVOK 08/M02 Q1025
