2019/03/26 09:00
LFSG 260900Z AUTO 02009KT 9999 BKN022 BKN028 BKN039 06/01 Q1031
