2019/04/26 12:00
LFSG 261200Z AUTO 17008KT 140V200 9999 FEW024 SCT054 12/07 Q1016
