2019/03/27 11:00
LFSG 271100Z AUTO 03013KT 9999 FEW036 SCT044 BKN050 10/01 Q1031
