2019/05/27 15:00
LFSG 271500Z AUTO 28010KT 9999 BKN028/// BKN033/// BKN054/// ///TCU 18/13 Q1010
