2019/04/27 15:30
LFSG 271530Z AUTO 28018KT CAVOK 10/03 Q1016
