2019/05/28 09:00
LFSG 280900Z AUTO 28008KT 250V310 9999 FEW022 SCT029 OVC058 13/09 Q1010
