2019/03/28 16:30
LFSG 281630Z AUTO 05012KT CAVOK 13/01 Q1030
