2019/04/27 20:00
LFSG 272000Z AUTO 23010KT CAVOK 06/03 Q1020
