2019/03/29 12:00
LFSG 291200Z AUTO 11005KT 040V150 CAVOK 15/04 Q1027
