2019/04/30 08:00
LFSG 300800Z AUTO 02005KT 9999 BKN017 OVC024 10/08 Q1021
