2019/03/30 16:30
LFSG 301630Z AUTO 15003KT 100V250 CAVOK 18/M00 Q1020
