2019/03/31 11:30
LFSG 311130Z AUTO 33003KT 280V010 CAVOK 17/04 Q1019
