2019/05/31 14:00
LFSG 311400Z AUTO 29005KT 250V340 CAVOK 24/11 Q1025
