2019/05/01 18:53
KOWD 011853Z 20006KT 10SM OVC055 16/M01 A3038 RMK AO2 SLP288 T01611011
