2019/04/01 20:53
KOWD 012053Z 29015KT 10SM CLR 08/M14 A3014 RMK AO2 PK WND 31027/2012 SLP207 60000 T00781139 53029
