2019/04/02 11:53
KOWD 021153Z 00000KT 10SM CLR M01/M05 A3047 RMK AO2 SLP318 I6000 T10061050 11006 21067 53021
