2019/05/02 16:01
KOWD 011853Z 16006KT 5SM -RA OVC055 16/M01 A3038 RMK AO2 SLP288 T01611011
