2019/04/03 13:27
KOWD 031327Z 33009G16KT 10SM OVC010 06/02 A2988 RMK AO2 T00560022
