2019/06/03 16:53
KOWD 031653Z 24014G21KT 10SM CLR 22/01 A2978 RMK AO2 SLP085 T02170011
