2019/05/03 12:10
KOWD 011853Z 14006KT 5SM RA OVC025 15/M01 A3038 RMK AO2 SLP288 T01611011
