2019/11/03 22:53
KOWD 032253Z 27005KT 10SM CLR 08/M04 A3011 RMK AO2 SLP195 T00831039
