2019/06/04 15:53
KOWD 041553Z 25006KT 10SM BKN070 19/03 A3004 RMK AO2 SLP172 T01890033
