2019/05/04 17:00
KOWD 041700Z 08004KT 10SM BKN013 OVC023 14/09 A2991 RMK AO2 T01390094
