2019/11/04 16:53
KOWD 041653Z 20009KT 10SM CLR 12/M04 A3035 RMK AO2 SLP277 T01221039
