2019/06/05 14:53
KOWD 051453Z 22011KT 10SM SCT090 SCT120 24/12 A2986 RMK AO2 SLP111 T02440122 58006
