2019/05/05 09:53
KOWD 050953Z AUTO 03004KT 10SM FEW044 BKN060 BKN110 10/07 A2988 RMK AO2 RAB13E27 SLP118 P0000 T01000072
