2019/04/05 09:53
KOWD 050953Z AUTO 12003KT 10SM CLR M01/M12 A3050 RMK AO2 SLP327 T10111117 TSNO
