2019/04/06 10:06
KOWD 061006Z AUTO 00000KT 10SM BKN007 OVC028 04/02 A3019 RMK AO2 CIG 003V009 T00390017 TSNO
