2019/06/06 13:21
KOWD 061321Z 24005KT 10SM BKN019 BKN024 OVC065 24/19 A2965 RMK AO2 T02390189
