2019/04/07 13:53
KOWD 071353Z 17006KT 10SM FEW120 15/01 A3025 RMK AO2 SLP243 T01500006
