2019/05/07 11:53
KOWD 071153Z 22007KT 10SM CLR 13/05 A3015 RMK AO2 SLP210 T01330050 10133 20039 50001
