2019/11/07 14:53
KOWD 071453Z 22009KT 10SM OVC100 13/03 A3015 RMK AO2 SLP209 T01280028 55022
