2019/04/08 11:53
KOWD 081153Z 05007KT 020V080 3SM RA BR OVC005 07/05 A3002 RMK AO2 SLP166 P0012 60032 70032 T00720050 10111 20072 58017
