2019/06/08 12:53
KOWD 081253Z 04009G15KT 10SM CLR 21/09 A3016 RMK AO2 SLP214 T02110094
