2019/04/09 07:53
KOWD 090753Z AUTO 36005KT 10SM OVC005 03/01 A2977 RMK AO2 SLP081 T00330011 TSNO
