2019/05/09 11:53
KOWD 091153Z 04006KT 10SM CLR 11/02 A3040 RMK AO2 SLP292 T01110017 10111 20028 51007
