2019/06/09 12:53
KOWD 091253Z 20006KT 10SM CLR 22/06 A3034 RMK AO2 SLP275 T02170056
