2019/04/10 10:20
KOWD 101020Z AUTO 23007KT 10SM BKN026 OVC039 04/02 A2969 RMK AO2 T00440022 TSNO
