2019/06/10 13:53
KOWD 101353Z 00000KT 10SM CLR 22/09 A3020 RMK AO2 SLP226 T02220094
