2019/05/10 09:53
KOWD 100953Z AUTO 15006KT 10SM OVC038 11/02 A3023 RMK AO2 SLP236 T01060017
