2019/04/11 07:53
KOWD 110753Z AUTO 00000KT 10SM CLR 01/M07 A3010 RMK AO2 SLP193 T00111072 TSNO
