2019/05/11 17:53
KOWD 111753Z 01009KT 10SM CLR 21/04 A2994 RMK AO2 SLP139 T02110039 10211 20150 56009
