2019/04/12 06:53
KOWD 120653Z AUTO 00000KT 10SM CLR 03/M01 A3030 RMK AO2 SLP261 T00331006 TSNO
