2019/05/12 10:53
KOWD 121053Z 06004KT 4SM -RA SCT007 OVC070 11/01 A3010 RMK AO2 SLP191 T01110006
