2019/04/13 15:53
KOWD 131553Z 20007KT 10SM BKN008 17/14 A3004 RMK AO2 RAE03 SLP173 P0000 T01720139
