2019/06/13 12:53
KOWD 131253Z 11007KT 10SM -RA BKN080 OVC100 15/10 A3003 RMK AO2 SLP170 P0000 T01500100
