2019/04/14 19:53
KOWD 141953Z 07007KT 10SM BKN060 23/03 A2982 RMK AO2 SLP098 T02280033
