2019/05/15 15:53
KOWD 151553Z 32009KT 10SM OVC050 13/03 A2978 RMK AO2 SLP082 T01330033
