2019/06/15 18:53
KOWD 151853Z 23014G23KT 10SM CLR 28/10 A2997 RMK AO2 SLP146 T02830100 $
