2019/04/15 13:53
KOWD 151353Z 14007KT 10SM FEW007 SCT120 16/13 A2929 RMK AO2 RAE18 SLP919 P0000 T01610128
