2019/04/16 16:53
KOWD 161653Z 30011G21KT 10SM CLR 13/M03 A2984 RMK AO2 PK WND 30027/1554 SLP104 T01331033
