2019/06/16 12:53
KOWD 161253Z 21006KT 10SM FEW041 BKN070 BKN100 22/17 A2990 RMK AO2 RAB02E16 SLPNO P0000 T02170167 $
