2019/04/17 14:53
KOWD 171453Z 36008KT 10SM CLR 14/M05 A3014 RMK AO2 SLP207 T01391050 50004
