2019/05/17 12:53
KOWD 171253Z 13003KT 9SM OVC085 12/10 A2981 RMK AO2 RAE50 SLP094 P0000 T01220100
