2019/05/18 11:53
KOWD 181153Z 28010G18KT 10SM CLR 14/04 A2990 RMK AO2 SLP124 70008 T01440039 10144 20078 51027
