2019/05/19 14:53
KOWD 191453Z 19015G23KT 10SM BKN044 19/09 A3009 RMK AO2 SLP187 T01940089 58003 $
