2019/04/19 09:53
KOWD 190953Z AUTO 20010G22KT 10SM OVC026 18/13 A2982 RMK AO2 SLP099 T01830133 TSNO
