2019/04/20 19:53
KOWD 201953Z 18013G26KT 10SM BKN015 BKN100 21/17 A2987 RMK AO2 PK WND 16026/1948 RAE1858B34E44 SLP113 P0000 T02110167
