2019/04/21 08:06
KOWD 210806Z AUTO 16005KT 10SM SCT009 OVC065 16/13 A2997 RMK AO2 T01610133 TSNO
