2019/09/22 17:53
KOWD 221753Z 21010KT 10SM CLR 31/13 A3006 RMK AO2 SLP179 T03060128 10311 20161 58021
