2019/06/22 19:53
KOWD 221953Z 32012G21KT 10SM SCT090 SCT110 25/09 A2977 RMK AO2 PK WND 29026/1854 LTG DSNT E AND SE SLP082 T02500094
