2019/04/23 09:53
KOWD 220953Z AUTO 17020KT 1/2SM FG VV002 OVC016 09/08 A3007 RMK AO2 SLP182 T00940078 TSNO
