2019/04/24 12:53
KOWD 241253Z 27006KT 9SM OVC006 12/09 A2968 RMK AO2 SLP049 T01220094
