2019/04/25 11:53
KOWD 251153Z 31009KT 10SM CLR 11/02 A2996 RMK AO2 SLP146 T01060022 10106 20067 53021
