2019/03/25 18:53
KOWD 251853Z VRB03KT 10SM CLR 11/M16 A3003 RMK AO2 SLP168 T01061161
