2019/04/26 20:53
KOWD 262053Z 05005KT 1SM BR OVC006 09/07 A2970 RMK AO2 RAE1959 CIG 004V010 SLP057 P0000 60001 T00940072 55013
