2019/03/26 10:53
KOWD 261053Z 00000KT 10SM CLR M01/M15 A3021 RMK AO2 SLP229 T10111150
