2019/05/27 14:53
KOWD 271453Z 01006KT 10SM CLR 25/12 A2989 RMK AO2 SLP121 T02500117 58003
