2019/04/27 15:53
KOWD 271553Z 26016G29KT 10SM FEW043 OVC060 11/01 A2944 RMK AO2 PK WND 27032/1529 RAE03 SLP968 P0000 T01110011
