2019/03/27 12:53
KOWD 271253Z 33006KT 10SM CLR 02/M14 A3053 RMK AO2 SLP340 T00221139
