2019/03/28 17:53
KOWD 281753Z 19017G24KT 10SM CLR 12/M01 A3032 RMK AO2 SLP267 T01171006 10122 20017 56039
