2019/05/28 11:53
KOWD 281153Z 08005KT 10SM OVC050 16/03 A3003 RMK AO2 SLP169 T01560028 10156 20122 51015
