2019/04/28 08:53
KOWD 280853Z AUTO 26008KT 10SM CLR 08/M01 A2989 RMK AO2 SLP121 T00831006 53019
