2019/03/29 11:53
KOWD 291153Z 18006KT 10SM BKN075 09/03 A3011 RMK AO2 SLP195 T00890028 10089 20072 58003
