2019/03/30 15:53
KOWD 301553Z 18008G16KT 150V210 10SM SCT110 18/07 A3012 RMK AO2 SLP198 T01780072
