2019/04/30 07:53
KOWD 300753Z AUTO 19003KT 10SM -RA OVC050 08/04 A3024 RMK AO2 SLP238 P0004 T00780044
