2019/05/31 14:27
KOWD 311427Z 36009KT 320V040 10SM SCT027 BKN038 24/16 A2973 RMK AO2 T02390156
