2019/05/01 18:00
LFPG 011800Z 36006KT 8000 FEW043 BKN260 16/08 Q1015 NOSIG
