2019/04/01 20:30
LFPG 012030Z 11008KT CAVOK 17/03 Q1013 NOSIG
