2019/06/01 11:00
LFPG 011100Z 08004KT 030V130 9999 FEW040 SCT260 25/14 Q1022 NOSIG
