2019/05/02 14:00
LFPG 021400Z 30015G25KT 3000 SHRAGS EW020 FEW013CB SCT066 BKN260 14/09 Q1013
