2019/06/02 10:30
LFPG 021030Z 19013KT CAVOK 30/14 Q1014 NOSIG
