2019/06/03 16:00
LFPG 031600Z 26006KT 230V290 4000 +RA BKN023 20/14 Q1015 NOSIG
