2019/04/03 07:30
LFPG 030730Z 26006KT 230V290 9999 BKN015 06/02 Q1001 NOSIG
