2019/05/03 08:00
LFPG 030800Z 34005KT 310V010 9999 BKN008 10/07 Q1015 BECMG BKN020
