2019/05/04 14:00
LFPG 041400Z 34015G35KT 2000 SHRA BKN020CB FEW043TCU SCT260 09/01 Q1015
