2019/04/04 07:30
LFPG 040730Z 20005KT CAVOK 06/01 Q0998 NOSIG
