2019/06/04 07:00
LFPG 040700Z 09006KT 4000 SHRA SCT030CB FEW095TCU BKN098 16/14 Q1009
