2019/04/05 09:30
LFPG 050930Z 13010KT CAVOK 11/00 Q1003 NOSIG
