2019/06/05 10:30
LFPG 051030Z VRB02KT 3000 RA BKN012 BKN023 15/12 Q1009
