2019/05/05 10:00
LFPG 051000Z 01013KT 9999 SCT030 BKN073 10/02 Q1023 NOSIG
