2019/06/06 09:30
LFPG 060930Z 23008KT 180V300 9999 FEW026 SCT030TCU 15/09 Q1014
