2019/04/06 09:30
LFPG 060930Z 08014KT CAVOK 11/02 Q1002 NOSIG
