2019/11/06 13:00
LFPG 061300Z 26008KT 210V290 9999 SCT025TCU SCT044 12/06 Q1005
