2019/05/07 07:00
LFPG 070700Z 16007KT CAVOK 09/03 Q1019 NOSIG
