2019/06/07 09:30
LFPG 070930Z 21016KT 190V250 9999 FEW030 BKN056 BKN083 16/09 Q1005 NOSIG
