2019/04/07 13:30
LFPG 071330Z 30009KT 280V340 CAVOK 15/05 Q1007 NOSIG
