2019/06/08 13:00
LFPG 081300Z 23015KT 200V260 3000 SHRA FEW025 SCT030CB FEW040TCU SCT066 18/09 Q1021
