2019/04/08 10:30
LFPG 081030Z 35003KT 280V030 9999 FEW030 SCT110 BKN260 14/06 Q1011 NOSIG
