2019/06/09 12:00
LFPG 091200Z 12008KT 090V180 9999 FEW026 BKN066 BKN110 17/10 Q1020 NOSIG
