2020/02/09 17:00
LFPG 100000Z 27022G55KT 3000 +RA BKN008 SCT018TCU OVC023 11/10 Q1000
