2019/08/09 08:30
LFPG 090830Z VRB02KT 4000 SHRA FEW043 SCT050TCU BKN065 21/19 Q1006 RERA TEMPO 4000 SHRA SCT050TCU
