2019/04/09 07:00
LFPG 090700Z VRB05KT 5000 -RA BR FEW046TCU BKN051 BKN061 10/08 Q1011 NOSIG
