2019/04/10 07:30
LFPG 100730Z 02011KT 1500 -DZ BR BKN005 BKN018 10/09 Q1011 NOSIG
