2019/05/10 16:00
LFPG 102200Z 03011KT 2500 RA BR BKN003 BKN011 13/10 Q1008
