2019/06/10 12:30
LFPG 101230Z 23012KT 190V270 9999 -SHRA SCT025TCU BKN030 FEW040TCU 17/10 Q1012
