2020/02/10 19:30
LFPG 101930Z 29020G31KT 2000 TSRAGS SCT010 BKN020CB BKN026 07/06 Q1007
