2020/02/11 16:00
LFPG 111600Z 26014KT 9999 FEW026 SCT250 07/01 Q1016 NOSIG
