2019/04/11 07:30
LFPG 110730Z 02012KT 010V100 CAVOK 05/M00 Q1020 NOSIG
