2019/05/11 16:30
LFPG 111630Z 36008KT 9999 VCSH FEW048 BKN098 15/07 Q1021 NOSIG
