2019/05/12 09:30
LFPG 120930Z 05012KT 9999 SCT032 11/02 Q1034 NOSIG
