2019/04/12 07:00
LFPG 120700Z 01010KT 330V040 6000 NSC 04/00 Q1023 NOSIG
