2019/04/13 12:00
LFPG 131200Z 02012KT CAVOK 08/M05 Q1024 NOSIG
