2019/06/13 12:00
LFPG 131200Z 20015G25KT 9999 SCT030TCU BKN040 BKN053 18/09 Q1012
