2019/05/13 07:00
LFPG 130700Z 04011KT 010V070 CAVOK 10/04 Q1037 NOSIG
