2019/05/14 07:00
LFPG 140700Z 05010KT 020V080 CAVOK 11/01 Q1032 NOSIG
