2019/04/14 09:30
LFPG 140930Z 05009KT 020V100 9999 SCT025 07/M02 Q1023 NOSIG
