2019/06/15 15:30
LFPG 151530Z 24009KT 210V270 CAVOK 21/08 Q1017 NOSIG
