2019/05/17 07:30
LFPG 170730Z 36004KT 330V040 9999 FEW036 BKN066 18/07 Q1005 NOSIG
