2019/04/17 09:00
LFPG 170900Z 11005KT 040V180 9999 FEW012 SCT260 13/08 Q1020 NOSIG
