2019/06/17 13:30
LFPG 171330Z 13008KT 100V170 9999 SCT048 26/12 Q1018 NOSIG
