2019/04/18 09:00
LFPG 170900Z 27005KT 040V180 5SM FEW016 BKN031 13/08 Q1020 NOSIG
