2019/05/18 11:30
LFPG 181130Z 25005KT 220V280 9999 SHRA SCT025TCU BKN036 16/09 Q1005
