2019/05/19 14:00
LFPG 191400Z 33006KT 300V360 2500 +TSRA SCT015CB BKN015CB 15/12 Q1007
