2019/04/19 09:00
LFPG 190900Z 04007KT 010V100 CAVOK 18/08 Q1025 NOSIG
