2019/05/20 14:00
LFPG 201400Z 33009KT 9999 SCT035 BKN046 18/10 Q1011 NOSIG
