2019/04/21 08:00
LFPG 210800Z 05009KT CAVOK 17/06 Q1019 NOSIG
