2019/12/21 12:00
LFPG 211200Z 20014KT 9999 BKN013 10/06 Q0989 TEMPO BKN013