2019/09/22 13:30
LFPG 221330Z 23015G25KT 2000 TSRA BKN005 SCT012CB BKN012 16/15 Q1009
