2019/04/22 10:00
LFPG 221000Z 05003KT 360V110 CAVOK 21/09 Q1006 NOSIG
