2019/06/22 17:30
LFPG 221730Z 05007KT 010V130 CAVOK 23/12 Q1017 NOSIG
