2019/04/23 10:00
LFPG 221000Z 15003KT 360V110 8000 FEW050 19/07 Q1001 NOSIG
