2019/04/24 12:30
LFPG 241230Z 19015G25KT 9999 BKN033 15/06 Q0999
