2019/04/25 11:30
LFPG 251130Z 18012KT 5000 -RA SCT016 SCT068 BKN090 11/08 Q1004 NOSIG
