2019/04/26 12:00
LFPG 261200Z 20012KT 160V240 9999 BKN037 16/06 Q1014 NOSIG
