2019/05/27 06:30
LFPG 270630Z 27007KT 9999 BKN013 SCT026 BKN080 15/12 Q1013
