2019/03/28 16:30
LFPG 281630Z 03011KT 340V060 9999 FEW040 13/03 Q1032 NOSIG
