2019/05/28 07:30
LFPG 280730Z 31015G25KT 230V290 2500 SHRA SCT020CB SCT025TCU SCT036 13/09 Q1011
