2019/03/29 11:00
LFPG 291100Z 10009KT CAVOK 15/05 Q1028 NOSIG
