2019/05/30 18:00
LFPG 301800Z 31006KT 9999 FEW033 BKN060 20/13 Q1025 NOSIG
