2019/03/30 16:00
LFPG 301600Z 23006KT 170V270 CAVOK 20/M04 Q1019 NOSIG
