2019/05/31 13:00
LFPG 311300Z 01006KT 330V070 9999 SCT040 BKN049 23/11 Q1026 NOSIG
