2019/03/31 11:30
LFPG 311130Z 04015KT CAVOK 19/03 Q1019 NOSIG
